{"type":"FeatureCollection","crs":{"type":"name","properties":{"name":"EPSG:4326"}},"features":[{"type":"Feature","id":1,"geometry":{"type":"Polygon","coordinates":[[[-70.6047869594448,-33.3846715507632],[-70.6055541728873,-33.3851468058451],[-70.6059188992251,-33.3853886512094],[-70.6059220872018,-33.3856811428304],[-70.6059222697315,-33.3856980247354],[-70.6060684858088,-33.3854693508407],[-70.6062776206917,-33.3852025829085],[-70.606281564804,-33.3852000057952],[-70.6062836014719,-33.3851974082818],[-70.6066628575478,-33.3849495945659],[-70.6069425873086,-33.3847821546903],[-70.6073383174225,-33.3846979432083],[-70.6073754560175,-33.3846930016245],[-70.6073853368895,-33.3846916859053],[-70.6076546749863,-33.3847705248],[-70.607659386307,-33.3847719030979],[-70.6079872479036,-33.3847155095353],[-70.6079894286241,-33.3847151340673],[-70.6082106305475,-33.3847188932027],[-70.6085033314816,-33.3847537855688],[-70.6085113988417,-33.3847547478701],[-70.6088654848527,-33.3846839027511],[-70.6091513961249,-33.3845097565099],[-70.609349608633,-33.3842851960616],[-70.6093587624719,-33.3842754664244],[-70.6093830334164,-33.3842406210616],[-70.6093805499403,-33.3842390335662],[-70.6092814260411,-33.3841756544692],[-70.6088854605866,-33.3838813978464],[-70.6086378191789,-33.3836495644019],[-70.6082618891749,-33.3828406421897],[-70.607442584558,-33.3825188196313],[-70.6062922467113,-33.3823412500558],[-70.6061674154918,-33.3823203992057],[-70.6056095100579,-33.3822272090984],[-70.6046395648421,-33.3820651877709],[-70.6030000388181,-33.3813690076965],[-70.6013425733063,-33.3808305094434],[-70.600217137652,-33.3807722026778],[-70.5997514108563,-33.380769188153],[-70.5997508857491,-33.3807695114692],[-70.6002002733876,-33.3807724192442],[-70.6005069489523,-33.3810299994946],[-70.600917035759,-33.3815748335623],[-70.6010920457843,-33.3820325143307],[-70.6012635094049,-33.3829591994103],[-70.6012635265648,-33.3829599594418],[-70.6012683121389,-33.3831327898521],[-70.6012854349041,-33.3831418398325],[-70.6019777517674,-33.383482970214],[-70.6029820534477,-33.3839631340186],[-70.6047869594448,-33.3846715507632]]]},"properties":{"FID":1,"Nombre":"Formación Abanico","Codigo_Nom":"OlMa","Unidad":"Cerro El Carbón 1","Edad":"\"26 a 23 millones de años aproximadamente\n(Oligoceno)\"","Descripcio":"\"Las rocas volcánicas de esta unidad se originaron por la ocurrencia de sucesivas erupciones volcánicas muy violentas. Cuando ocurren este tipo de erupciones, se producen grandes explosiones, con expulsión de gases, ceniza y fragmentos incandescentes","Enlace":"https://geoparquemet.sernageomin.cl/terms/unidad-cerro-el-carbon/","Shape__Area":288925.775390625,"Shape__Length":2740.7700372690356}},{"type":"Feature","id":2,"geometry":{"type":"Polygon","coordinates":[[[-70.614788740243,-33.3591170775295],[-70.6147741382784,-33.3591172422277],[-70.6147720447115,-33.359103159226],[-70.6147715586952,-33.3590998873489],[-70.6143921371245,-33.3591063528759],[-70.6141795738093,-33.3591099748121],[-70.6007152750978,-33.3593386378483],[-70.5912723515954,-33.3594981336183],[-70.579445843226,-33.3596074945672],[-70.5795027342281,-33.363960799378],[-70.5802949820691,-33.3641016108959],[-70.5803663652312,-33.3645299124229],[-70.5804139552724,-33.3649106268756],[-70.5805805166914,-33.3653627245443],[-70.5809850249059,-33.3659100007835],[-70.5814609170131,-33.3663858920689],[-70.581817836635,-33.3670045522908],[-70.5822937294557,-33.3673614710909],[-70.5826506474926,-33.3674566504114],[-70.583126539971,-33.3675518281385],[-70.583459664985,-33.3676945960408],[-70.5837214053919,-33.3678849535174],[-70.5844352434954,-33.3683370503278],[-70.5853156441817,-33.3685274071558],[-70.5859580991868,-33.3688367370816],[-70.5863150176037,-33.3688843260348],[-70.5872905966519,-33.3689795059059],[-70.587766488611,-33.368931915025],[-70.5884803269507,-33.3687415586837],[-70.5889324245495,-33.3685512026018],[-70.5891227818647,-33.368551202296],[-70.5894559058018,-33.3686463805681],[-70.5896700576288,-33.3689081214195],[-70.589836619718,-33.3689795055728],[-70.590217333492,-33.3690746836002],[-70.5905742526733,-33.3692174518673],[-70.5907646095156,-33.3694791917438],[-70.5909073785111,-33.3696933430488],[-70.5910739400979,-33.3702406195556],[-70.5910263512377,-33.3707641007827],[-70.5910263507164,-33.3713113767592],[-70.5910501449927,-33.3715969125675],[-70.5913356810604,-33.3721917777131],[-70.5914070640985,-33.3722869558423],[-70.5918250234074,-33.3742523528895],[-70.5918252943537,-33.3742561326541],[-70.5918642630374,-33.3747995598675],[-70.5918255694648,-33.3752772836383],[-70.5922523660307,-33.3754299208954],[-70.5922549659462,-33.3754308507086],[-70.5935319248512,-33.3752752690786],[-70.5943356447422,-33.3753836535219],[-70.5943397103027,-33.3753842010188],[-70.5950796800575,-33.375672959476],[-70.5953365359222,-33.3758034464575],[-70.5959341646889,-33.3761070466156],[-70.5959380477853,-33.3761090186138],[-70.5961071380831,-33.3762815600578],[-70.5966903910181,-33.37578554649],[-70.5969220227755,-33.3755828022838],[-70.5977961698385,-33.3754323594502],[-70.5989801603798,-33.3753773416335],[-70.5989809167889,-33.3753774419127],[-70.5989810254759,-33.3753774486289],[-70.5995594994088,-33.3754506991325],[-70.5995881638442,-33.375453708882],[-70.5998388376559,-33.3754800256448],[-70.600620076529,-33.3752567797518],[-70.6015364999062,-33.3748273835771],[-70.6023373601322,-33.3745585480719],[-70.6023461115348,-33.3745610531312],[-70.6023484196032,-33.3745617141429],[-70.6036000781638,-33.374920042092],[-70.6047439691151,-33.3752631767098],[-70.6055816733731,-33.3757096859028],[-70.6057562419393,-33.3759719250268],[-70.6060208210772,-33.3766423578797],[-70.6060421345875,-33.3766420811519],[-70.6061527286198,-33.3763572053606],[-70.6062345632043,-33.3761464065654],[-70.6063533500521,-33.3758012662673],[-70.6061643364997,-33.3753044554708],[-70.6059853202777,-33.3745909338645],[-70.6058274458037,-33.3737379488311],[-70.6061884076573,-33.3731884367688],[-70.6068012736253,-33.37372534269],[-70.6072857531231,-33.3742957170931],[-70.6076051137897,-33.3749079960908],[-70.6078504692807,-33.3753621606426],[-70.6080253741873,-33.3758602210946],[-70.6082901776839,-33.3758811718739],[-70.6083070409042,-33.3758809524332],[-70.6083114888355,-33.3758808947899],[-70.6090976838424,-33.3758707026231],[-70.6093286075738,-33.3754382061288],[-70.6096314124262,-33.3745848171553],[-70.6099432951849,-33.3736072324592],[-70.6100261923983,-33.3731671106464],[-70.6103242898655,-33.3726764712024],[-70.6106005166772,-33.3722338412681],[-70.6106169272056,-33.3722343506772],[-70.6106212580988,-33.3722344847618],[-70.6106213749296,-33.3722342920551],[-70.6106218280063,-33.3722335647017],[-70.6108380894942,-33.3722403003644],[-70.6110583979906,-33.3724665112726],[-70.6111530706341,-33.3726657157318],[-70.6110686012466,-33.3730199582034],[-70.6109951519036,-33.3733549691797],[-70.6111484535126,-33.3736488598574],[-70.6113712239488,-33.374008657688],[-70.6118186483646,-33.3742128278355],[-70.6122760354783,-33.3743405097905],[-70.6128311925714,-33.3743983813404],[-70.6133339312184,-33.374259950771],[-70.613683675627,-33.3741026913022],[-70.6139102546322,-33.3740520222574],[-70.6139134703193,-33.374054855509],[-70.6139143182106,-33.3740556020292],[-70.6139179181454,-33.3740547976676],[-70.6139315663699,-33.3740517451096],[-70.6142091044326,-33.3742962951537],[-70.6143293550539,-33.3746478766322],[-70.6142381074912,-33.3752503651117],[-70.6141986100091,-33.3755753927909],[-70.6142299965102,-33.3760426647895],[-70.6143497208866,-33.3763656186132],[-70.6147081759034,-33.3767000256332],[-70.6155793736586,-33.3770368228136],[-70.6158650275378,-33.3771627613183],[-70.6160005524793,-33.3772225111401],[-70.6160011366369,-33.3772227695762],[-70.6160101046033,-33.3772267200964],[-70.6160101413417,-33.37722673044],[-70.6160114883114,-33.3772266200103],[-70.6163974892702,-33.3773716483303],[-70.6165308794937,-33.3773650887002],[-70.6165924674959,-33.3773620597864],[-70.616790714941,-33.3773853094386],[-70.6168308437366,-33.3773883966903],[-70.6169975349684,-33.377413091549],[-70.6170222299641,-33.3774316128209],[-70.6172691788114,-33.3774408735612],[-70.6173093085336,-33.3774408736465],[-70.617503781435,-33.3774007431272],[-70.6175562584047,-33.3773791355394],[-70.6179359433144,-33.3772680087513],[-70.618260063877,-33.377107491044],[-70.6182847588423,-33.3770920577873],[-70.6184801799413,-33.3770505516124],[-70.6186979642342,-33.3770723295457],[-70.6187673401535,-33.3771200256706],[-70.6188712635111,-33.3772649214076],[-70.6189576956702,-33.3774130916501],[-70.6189669569925,-33.3774254387645],[-70.61904104214,-33.3775489135081],[-70.6192709442051,-33.3775768947949],[-70.6195159537723,-33.3776062954953],[-70.6196985419066,-33.3776282062934],[-70.6208530550672,-33.3775341358814],[-70.6210326463533,-33.3774828238287],[-70.6217339061468,-33.3772861286786],[-70.6232219459737,-33.3767986672127],[-70.6241027973714,-33.3763710692035],[-70.6253513815874,-33.3757125692181],[-70.6265743113421,-33.374951445563],[-70.6266170704112,-33.3749086862861],[-70.6277031678331,-33.3743100492034],[-70.6283103573326,-33.3737114131141],[-70.6285902165211,-33.3732352424148],[-70.628695195394,-33.3731555364821],[-70.6291313439816,-33.3726424195146],[-70.6293744566717,-33.3719125624594],[-70.6293749829389,-33.3719109845472],[-70.6293765453542,-33.3719062943139],[-70.6294306622844,-33.3714451464478],[-70.6293964548693,-33.3708636137185],[-70.6292425193366,-33.3702820807762],[-70.6289260343088,-33.3690092605589],[-70.6288491296212,-33.3686999695404],[-70.6286627883156,-33.3677882257875],[-70.6285793392918,-33.3674992928348],[-70.6286373445425,-33.3673071983584],[-70.6286373445466,-33.3670787705365],[-70.628656379288,-33.3669264850565],[-70.6286563792374,-33.3666885392089],[-70.6285612012092,-33.3663934850833],[-70.6284374694874,-33.3661555393175],[-70.6282756647868,-33.365936629292],[-70.6280545223505,-33.3657342957982],[-70.6278663978925,-33.3655463974854],[-70.6275998994441,-33.3654036301936],[-70.6275618273792,-33.3653655586382],[-70.6273143631271,-33.3652037557927],[-70.6271525601023,-33.3648040054007],[-70.6269336485799,-33.3643376313423],[-70.6268099166563,-33.3640520963535],[-70.6266195609651,-33.3636713820226],[-70.6266195605084,-33.3634810251822],[-70.6266290781037,-33.3634429546221],[-70.6267147393714,-33.3630907933673],[-70.6269526846381,-33.3627576697274],[-70.6272667745171,-33.3625102052681],[-70.6275427913402,-33.3622912955066],[-70.6278995452707,-33.3619090293367],[-70.6281117505265,-33.3618190111166],[-70.6281921864744,-33.361762111398],[-70.6282419881771,-33.3617268815769],[-70.6282680598489,-33.3616046982514],[-70.6283089977442,-33.3615501148472],[-70.6284932195732,-33.3612771928981],[-70.6290185937948,-33.3606494732435],[-70.6294211535326,-33.3599535233276],[-70.6299465274052,-33.3595032035829],[-70.6302262711072,-33.3594008578596],[-70.6304036704665,-33.3593940340668],[-70.6305878916758,-33.3595100267938],[-70.6305947151864,-33.359530495508],[-70.6309017515175,-33.3597215407139],[-70.6310382132572,-33.3596123710435],[-70.6310655051067,-33.3595987256257],[-70.6314680643075,-33.3594417955145],[-70.6318633384289,-33.3593299157094],[-70.6321913064671,-33.3593121581985],[-70.6322322445018,-33.3593121583007],[-70.6328394937132,-33.359298512021],[-70.6332625232292,-33.3595032034353],[-70.6336923739085,-33.3600012847287],[-70.633849304375,-33.3599535230418],[-70.6338902419592,-33.3599262311305],[-70.6341290483966,-33.3597761247055],[-70.634176810089,-33.3597488321472],[-70.6345384305294,-33.3597078945116],[-70.6347226520708,-33.3598307088066],[-70.6347567680542,-33.3598852933605],[-70.6353913099575,-33.3604106660198],[-70.6366808645416,-33.3615091757236],[-70.6373426984824,-33.3620686643104],[-70.6380250016456,-33.3626213308017],[-70.6384229124352,-33.3630181754467],[-70.638432831728,-33.3630280684457],[-70.6384765359781,-33.3630716554672],[-70.6385243873797,-33.3631391901522],[-70.6385431569046,-33.3631729768537],[-70.6385581720142,-33.3632818397415],[-70.6386332514279,-33.3633944567626],[-70.6386407575568,-33.3634958126616],[-70.6386407585327,-33.3635183351554],[-70.6386144811581,-33.3636722452585],[-70.6385994649565,-33.3637961242843],[-70.6386520204939,-33.3639012341151],[-70.6386895595513,-33.3639200035898],[-70.6387871614649,-33.3640588985108],[-70.6389185466981,-33.3641790237288],[-70.6389635936044,-33.3643066558557],[-70.6390011335284,-33.3644117653857],[-70.6393089537851,-33.3646782922656],[-70.6394966491844,-33.3648059258298],[-70.6397068683574,-33.3650086362491],[-70.6397781918295,-33.3652226091568],[-70.6398157306129,-33.3652901794218],[-70.6398607783629,-33.3655079065476],[-70.6398833024534,-33.3656280313445],[-70.6399170870841,-33.365673078174],[-70.6399546258603,-33.3658007107741],[-70.639984656923,-33.3658420032261],[-70.6400146876557,-33.3659358511629],[-70.6400146876768,-33.3659771445029],[-70.6398870547177,-33.3660597302274],[-70.6397519306254,-33.3660648296991],[-70.6397444074989,-33.3661385623272],[-70.6397932082824,-33.3664651520832],[-70.6399433644752,-33.3667729728332],[-70.6400522269227,-33.3669944532962],[-70.6402324147631,-33.367418644904],[-70.6405214655191,-33.3676251096889],[-70.6408931019532,-33.3676176014799],[-70.6412196920717,-33.3675988322753],[-70.6414862205321,-33.3676401253044],[-70.6419366893133,-33.3676926807297],[-70.6419967512184,-33.3680005001823],[-70.6420943533823,-33.3681506561858],[-70.6421882000249,-33.3681506563468],[-70.6422332472506,-33.3681356417411],[-70.6422895557239,-33.3681243794572],[-70.6423721417945,-33.3681131175368],[-70.6426273965467,-33.3680835628539],[-70.6426432045703,-33.3680817321354],[-70.6427403695909,-33.3684071870193],[-70.6430315503953,-33.3687692042411],[-70.6435904783524,-33.3692549334643],[-70.6437679423753,-33.369618454677],[-70.6439913947934,-33.3704108650796],[-70.6440838074838,-33.3708021290852],[-70.644221107118,-33.3710516907238],[-70.6442530974057,-33.3711402853504],[-70.6444086861562,-33.371262824328],[-70.6445657312517,-33.3713532447515],[-70.6447015950405,-33.3714830691186],[-70.6447798818614,-33.3715578778391],[-70.6448179542988,-33.3716482972742],[-70.6448322305102,-33.3717054044145],[-70.6448655435216,-33.3718338956866],[-70.6448750611052,-33.371886243771],[-70.6450321049549,-33.3720861185044],[-70.6450844527347,-33.3721099121779],[-70.6453128820882,-33.3721955733012],[-70.6453795064498,-33.3721860558554],[-70.645793532591,-33.372128948649],[-70.6458363630653,-33.3720956368125],[-70.6460523265472,-33.3716230217469],[-70.646353545964,-33.3714353043231],[-70.6466802765193,-33.3712316892355],[-70.6487306505255,-33.3699539188583],[-70.6487528651677,-33.3699387308388],[-70.6487528645496,-33.3699147744887],[-70.6487431003767,-33.3698552198243],[-70.6487635119506,-33.3697736986985],[-70.6487777482455,-33.3697556072383],[-70.6487954535863,-33.3697331066107],[-70.6488280611437,-33.3697038264095],[-70.6488746432936,-33.3696851933908],[-70.648928543594,-33.3696712194078],[-70.6489385260331,-33.3696698882429],[-70.6489924277731,-33.3696698881543],[-70.6490729465937,-33.3696858594096],[-70.6491338379134,-33.3696391090288],[-70.6495195049419,-33.3693788853045],[-70.6496802928983,-33.3692419175325],[-70.6498500137857,-33.369121326283],[-70.6499480360825,-33.3690798996595],[-70.6500227992392,-33.3690483028577],[-70.6500257867638,-33.3690482802748],[-70.6501879669085,-33.3689947807636],[-70.6502058322578,-33.3689947804098],[-70.6503963957086,-33.3689858471075],[-70.6505780265959,-33.369005201133],[-70.650809755998,-33.3690934380813],[-70.6509576659663,-33.3691704560919],[-70.6512062920166,-33.3692999807957],[-70.6517944025424,-33.3696056798507],[-70.6526830039284,-33.3700974421031],[-70.6539673103387,-33.3707825305803],[-70.6543485791863,-33.3710361698927],[-70.6543135030096,-33.3702641630723],[-70.6543446746578,-33.3675250110701],[-70.6541813203666,-33.3673597211996],[-70.6541632499107,-33.3673476754382],[-70.653831971193,-33.3671428842733],[-70.6535308074274,-33.366980256702],[-70.6534509628351,-33.3669642098823],[-70.6531935039753,-33.3667031852921],[-70.6527778991505,-33.3665345344358],[-70.6523683173192,-33.366275534567],[-70.6521394333755,-33.3659442548484],[-70.651940665073,-33.3655045564973],[-70.6519045261496,-33.3649805326198],[-70.6520008977846,-33.364522763343],[-70.6521454561356,-33.3642336478861],[-70.6523201305561,-33.3641312514366],[-70.6529465511732,-33.3640589725564],[-70.6535067140326,-33.3639806705594],[-70.6538440175155,-33.3639565770839],[-70.6541604121499,-33.3640179640414],[-70.6541515158928,-33.363848657503],[-70.6541474784466,-33.3586529022406],[-70.6339205316131,-33.3589018188533],[-70.6325040321345,-33.3589162757533],[-70.6283545196112,-33.3589635361839],[-70.614788740243,-33.3591170775295]],[[-70.5999876440931,-33.3631443536898],[-70.5997741553506,-33.3631471053863],[-70.5996762367329,-33.3631446346179],[-70.5995336380242,-33.3631315395301],[-70.5995106623361,-33.36311692269],[-70.5994301110059,-33.3630656761901],[-70.5993986773576,-33.3629325513204],[-70.5993587553787,-33.3628127496465],[-70.5993698435438,-33.3626894174225],[-70.5994124040799,-33.3625843451601],[-70.5994915756607,-33.3625347921835],[-70.5994927139221,-33.3625345637786],[-70.5996990925481,-33.3624912165758],[-70.5996998653516,-33.362491044284],[-70.5997568711033,-33.3624936752898],[-70.5997746222892,-33.3624886162272],[-70.6000202977694,-33.362502602763],[-70.6000291889096,-33.3625057663614],[-70.6005054395401,-33.3625105261527],[-70.6006152528145,-33.3626770977376],[-70.6006005403673,-33.3628452732235],[-70.6005631108465,-33.3629876106767],[-70.6004361756481,-33.3631012403143],[-70.6002942613644,-33.3631254682499],[-70.6001564505149,-33.3631309785404],[-70.5999876440931,-33.3631443536898]]]},"properties":{"FID":2,"Nombre":"Formación Abanico","Codigo_Nom":"OlMa","Unidad":"Cerro El Carbón 2","Edad":"26 a 23 millones de años aproximadamente","Descripcio":"\"Las rocas volcánicas de esta unidad se originaron por la ocurrencia de sucesivas erupciones volcánicas donde predominó la expulsión de lava desde un centro emisor, el que pudo estar ubicado un poco más al norte y oriente que el cerro El Carbón.\nEs","Enlace":"https://geoparquemet.sernageomin.cl/terms/unidad-cerro-el-carbon/","Shape__Area":13032210.23046875,"Shape__Length":26048.348849545167}},{"type":"Feature","id":3,"geometry":{"type":"Polygon","coordinates":[[[-70.6018364601761,-33.3850776319046],[-70.6017889578705,-33.3850811030474],[-70.6016043588435,-33.3850709394351],[-70.6015465568046,-33.3851373044046],[-70.6015206141401,-33.3851573246436],[-70.6014918823205,-33.3851803623646],[-70.601471735548,-33.3852062734732],[-70.601430033158,-33.3852587108829],[-70.6013934846271,-33.3853007881423],[-70.6013867615203,-33.3853119865015],[-70.6013763285078,-33.3853246486304],[-70.6013761052717,-33.385324961745],[-70.6013562253998,-33.3853529445291],[-70.6013348108145,-33.3853872230334],[-70.6013224849615,-33.3854130322861],[-70.6013082215029,-33.3854496056751],[-70.6012938179828,-33.3854784241283],[-70.6012762054459,-33.3854789210652],[-70.6012499897496,-33.3854972511138],[-70.601233823846,-33.3855064655187],[-70.6012341803676,-33.385507030882],[-70.6012381744112,-33.3855133824184],[-70.601173746659,-33.3859766837078],[-70.6010977086456,-33.3864835232649],[-70.6009447759565,-33.3868091765575],[-70.6008195299036,-33.3869592094548],[-70.6008079619615,-33.386979878301],[-70.6007969636805,-33.3870005416005],[-70.6007870412731,-33.3870178496956],[-70.600778186014,-33.3870313265266],[-70.6007744674019,-33.387045690336],[-70.6007764802788,-33.3870623673785],[-70.6007751321309,-33.387081951129],[-70.600777940969,-33.3871110254411],[-70.600777748502,-33.3871315484305],[-70.6007781071073,-33.387151110162],[-70.6007792004685,-33.3871797304327],[-70.6007787455703,-33.3872169598178],[-70.6007797951819,-33.3872431934776],[-70.6007808010593,-33.3872670414284],[-70.6007850531944,-33.3872817803824],[-70.600789856404,-33.3872955580782],[-70.6007946747714,-33.3873078754965],[-70.6007944321458,-33.3873278904937],[-70.6008003025305,-33.3873378378271],[-70.6008167873653,-33.3873681660196],[-70.6008295711848,-33.3873827967045],[-70.6008439906566,-33.3873935851823],[-70.6008578416204,-33.3874043836986],[-70.6008711414984,-33.3874161425699],[-70.6008851673888,-33.3874364821145],[-70.6009155896587,-33.3874823802342],[-70.6009413585133,-33.3875226125934],[-70.6009653593842,-33.3875595264351],[-70.6009782383763,-33.3875794036917],[-70.6009864551416,-33.3875931364324],[-70.6009855618995,-33.3876065114468],[-70.6009807848971,-33.387625183487],[-70.6009789207151,-33.3876476372428],[-70.6009808549453,-33.3876600216264],[-70.6009782822317,-33.3876748486313],[-70.6010304032157,-33.387678819699],[-70.6011016492355,-33.3876862514325],[-70.6011373925578,-33.3876965284324],[-70.6011559631666,-33.3877010604391],[-70.6011999975776,-33.3876981068322],[-70.6012327001586,-33.3876976848163],[-70.6012967489822,-33.3877004367697],[-70.6013209865779,-33.3877037024807],[-70.6013608207755,-33.3877043824318],[-70.6013864136158,-33.3877040512303],[-70.6014205381573,-33.3877036117147],[-70.6014659726076,-33.3876994459061],[-70.6014927905244,-33.3876883624478],[-70.6015075003046,-33.3876774000924],[-70.6015519054813,-33.3876624254392],[-70.6016166632734,-33.3876572940987],[-70.6016848597693,-33.3876535504604],[-70.6017531087691,-33.3876526694537],[-70.6018401793078,-33.3876544096791],[-70.6019765984926,-33.387648352102],[-70.6020430892705,-33.3876446302893],[-70.602143663214,-33.3876354622375],[-70.6021979236643,-33.387622038429],[-70.6022703483269,-33.387604121546],[-70.6023271237272,-33.3875791234395],[-70.6026165345053,-33.3873382114112],[-70.6032109029298,-33.3871752243988],[-70.6041450667226,-33.3869356921126],[-70.6045736363182,-33.3864227442927],[-70.6044963157071,-33.3862978651493],[-70.6041845552642,-33.3858367263611],[-70.6041263514922,-33.3857506351093],[-70.6036365605258,-33.3853675536195],[-70.6035150703169,-33.3853573816914],[-70.60272517707,-33.38516764127],[-70.6020816893784,-33.3851100977259],[-70.6020176985318,-33.3850653980301],[-70.6018616046113,-33.3850768085899],[-70.601844304106,-33.3850773746272],[-70.6018364601761,-33.3850776319046]]]},"properties":{"FID":3,"Nombre":"Formación Abanico","Codigo_Nom":"OlMa","Unidad":"Cerro El Carbón 1","Edad":"\"26 a 23 millones de años aproximadamente\n(Oligoceno)\"","Descripcio":"\"Las rocas volcánicas de esta unidad se originaron por la ocurrencia de sucesivas erupciones volcánicas muy violentas. Cuando ocurren este tipo de erupciones, se producen grandes explosiones, con expulsión de gases, ceniza y fragmentos incandescentes","Enlace":"https://geoparquemet.sernageomin.cl/terms/unidad-cerro-el-carbon/","Shape__Area":101237.48828125,"Shape__Length":1249.0219177655968}}]}