{"type":"FeatureCollection","crs":{"type":"name","properties":{"name":"EPSG:4326"}},"features":[{"type":"Feature","id":1,"geometry":{"type":"Polygon","coordinates":[[[-70.6307454867879,-33.4172757491981],[-70.6305311874005,-33.4172855333958],[-70.6304343810483,-33.4172820344589],[-70.6302846802678,-33.4172649132539],[-70.6301209571964,-33.4172587142896],[-70.6299310980295,-33.417224225408],[-70.6296684777416,-33.4171787601772],[-70.6295439139404,-33.417174432143],[-70.6293838467919,-33.417173552776],[-70.6292060568609,-33.4171758874709],[-70.6290558304603,-33.4171724624008],[-70.6289412084116,-33.4171596513028],[-70.6288095998921,-33.4171513595124],[-70.6287048083964,-33.4171308454987],[-70.628679375802,-33.4171258676835],[-70.6285563541168,-33.4171203243769],[-70.6284331186599,-33.4171033304778],[-70.6283136441805,-33.4171048991042],[-70.6281941697086,-33.4171064685173],[-70.6280730752296,-33.4171109521609],[-70.6279920915086,-33.4171167886064],[-70.6279310659442,-33.4171247474798],[-70.6278289708334,-33.4171427894658],[-70.6277583223082,-33.4171687714305],[-70.6276881634315,-33.4172209938755],[-70.6276521623407,-33.4172739593347],[-70.6276108944982,-33.4173496632758],[-70.6275877395538,-33.4174048481862],[-70.6275720000452,-33.4174290002047],[-70.6275732292513,-33.4174658843721],[-70.6275735652718,-33.4174838913698],[-70.6275735819954,-33.4174847875723],[-70.6275737411897,-33.4174933186264],[-70.6276062785231,-33.4175597012208],[-70.627653573215,-33.4176545251333],[-70.6276867339562,-33.4177543061168],[-70.6277702563644,-33.4178799120477],[-70.6278681877,-33.418004613639],[-70.6279361436688,-33.4181087094316],[-70.6280151218981,-33.4181935723047],[-70.628073721328,-33.4182539004381],[-70.6280910276119,-33.4182932871587],[-70.6280918115429,-33.4182950706131],[-70.62809200023,-33.418295500114],[-70.6281089629555,-33.4183788151042],[-70.6281133026791,-33.4184155348724],[-70.6281135363923,-33.418417512229],[-70.6281143690756,-33.418424557237],[-70.6281288428907,-33.418468271152],[-70.628145949103,-33.4185310405015],[-70.6281598679795,-33.418557469055],[-70.6281600798161,-33.4185578711969],[-70.628165162677,-33.4185800734237],[-70.6281680207656,-33.4185925542421],[-70.6281786911131,-33.4186687705297],[-70.6281667149735,-33.4187512488424],[-70.6281583158212,-33.4187966942341],[-70.6281495492653,-33.4188224592452],[-70.628137904478,-33.4188464746084],[-70.6281150705042,-33.4188807752613],[-70.6280764238304,-33.4189063364081],[-70.6279933943798,-33.4189169713331],[-70.6279298069978,-33.4189211860764],[-70.6275884430441,-33.4189256664044],[-70.627332331825,-33.4189242555945],[-70.6271388924471,-33.4189267936276],[-70.6269511427873,-33.4189292567198],[-70.6268372653697,-33.4189259771404],[-70.6266324475458,-33.4189286645395],[-70.6263828256465,-33.418970116449],[-70.6261273358154,-33.4190020997974],[-70.6259742559193,-33.4190327391268],[-70.6258211759247,-33.4190633791719],[-70.6255999108913,-33.4190996852773],[-70.6254694996662,-33.4191252552604],[-70.6253332207937,-33.4191413588067],[-70.6251533001602,-33.4191577004066],[-70.6249696133139,-33.4192043448897],[-70.6248051530776,-33.4192351327974],[-70.6247312359058,-33.4192384874158],[-70.6245861704282,-33.4192475455996],[-70.624394152512,-33.4192500607414],[-70.6240811223332,-33.4192481955962],[-70.6240802654967,-33.4192479795546],[-70.6238228771809,-33.4191831748356],[-70.6238220695002,-33.419182999633],[-70.6238219074534,-33.4191829602703],[-70.6236571740239,-33.4191471633687],[-70.6235913453185,-33.4191265534114],[-70.6234996927605,-33.4190943475054],[-70.6234479552598,-33.41906639155],[-70.6234469864921,-33.4190661706563],[-70.6233222087461,-33.419037022557],[-70.6232362926007,-33.4190071231106],[-70.623141795412,-33.4189749541662],[-70.6230272087504,-33.4189335048507],[-70.6229467574594,-33.4188916078361],[-70.6227583882704,-33.418791946341],[-70.6227272384124,-33.4187694473409],[-70.622656780173,-33.4187445993117],[-70.6226564220611,-33.4187445994879],[-70.6225577582674,-33.4187444636238],[-70.6223889960077,-33.4187581246774],[-70.6223022141048,-33.4187735764881],[-70.6221735307128,-33.4188003135366],[-70.6220597077869,-33.4187998930718],[-70.6218614675217,-33.4187891231832],[-70.621732617859,-33.4187813641028],[-70.6216791590316,-33.4187781455603],[-70.6216303039592,-33.4187675745709],[-70.6216019784701,-33.4187614454159],[-70.6216087291786,-33.4187754582232],[-70.6216173681404,-33.4188116134158],[-70.6216482307834,-33.4188799305135],[-70.6216639632035,-33.4189303104645],[-70.6216751089721,-33.4189788403025],[-70.6216792095167,-33.4190120941116],[-70.6216824808689,-33.4190386364938],[-70.621682754888,-33.4190533733837],[-70.6216834788894,-33.4190923105096],[-70.6216837529091,-33.4191070473994],[-70.621684521272,-33.419148370197],[-70.6216847953261,-33.4191631088898],[-70.6216854527751,-33.4191984666053],[-70.6216881615538,-33.4192676270848],[-70.6216879545741,-33.4192700872882],[-70.6216884356097,-33.4192823657773],[-70.6216862576244,-33.419308263357],[-70.6217002453136,-33.4192480922789],[-70.621708047065,-33.4192238914622],[-70.6217290721412,-33.4192069136734],[-70.6217442908739,-33.4191937472022],[-70.6217640765956,-33.4191766295965],[-70.6218177935061,-33.419158031169],[-70.6219027798134,-33.4191378315703],[-70.621976764691,-33.4191380562292],[-70.622020399326,-33.4191434502882],[-70.6220716572729,-33.419145643221],[-70.6221281427153,-33.4191534944039],[-70.6221694259476,-33.4191701343684],[-70.622231590458,-33.4192079774549],[-70.6222767399994,-33.4192489054965],[-70.6223217830509,-33.4192841064665],[-70.6223872282237,-33.4193147478022],[-70.622433685834,-33.4193341824071],[-70.6224819562973,-33.4193593217248],[-70.6225389478381,-33.4193943672004],[-70.6226030585961,-33.4194450682256],[-70.6226414077364,-33.4194875163091],[-70.6226491671239,-33.4195375233646],[-70.6226549539227,-33.4195732396207],[-70.6226678332873,-33.4196231796856],[-70.6226686588487,-33.4196675508167],[-70.6226574572101,-33.4197077838762],[-70.6226633228354,-33.4197477936306],[-70.6226553484171,-33.4197779614878],[-70.6226427855915,-33.4198368243947],[-70.622648837661,-33.4198868546869],[-70.6226718260187,-33.4199295037303],[-70.6226793191444,-33.4199651967553],[-70.6226694243056,-33.4199839373562],[-70.6226921996655,-33.4200151367984],[-70.6226966253296,-33.4200694810935],[-70.6226939839723,-33.4201110342617],[-70.6226674990021,-33.4201557627215],[-70.6226750454123,-33.4201943183693],[-70.6227133960071,-33.4202367664005],[-70.6227310770038,-33.4202694636988],[-70.622769453226,-33.4203133434874],[-70.62279406818,-33.420351676688],[-70.6228376709959,-33.4204012138037],[-70.622860419887,-33.420430981445],[-70.6228612189285,-33.4204739208032],[-70.6228722590531,-33.4205167252484],[-70.6228830594981,-33.4205466492372],[-70.6229282100385,-33.4205875761013],[-70.6229540520023,-33.4206001233219],[-70.6229806142353,-33.420651315491],[-70.6229778131867,-33.4206842807871],[-70.6229869872775,-33.4207185205787],[-70.6230269635983,-33.4207566526976],[-70.6230514189509,-33.4207863970654],[-70.6230794212498,-33.420823254662],[-70.6230992361116,-33.420878829637],[-70.6231462531046,-33.4209283228512],[-70.6231895910866,-33.4209635466939],[-70.6232207674247,-33.4209874764178],[-70.6232367946758,-33.4210230595019],[-70.6232291134233,-33.4210689722652],[-70.6232502085141,-33.4211016247933],[-70.6232867458305,-33.4211383697226],[-70.6233403507079,-33.4211748903327],[-70.6233733411732,-33.4212045247136],[-70.6233777758845,-33.4212440751768],[-70.6233990439117,-33.4213165738133],[-70.6234100004198,-33.4213701174207],[-70.6233876415213,-33.4213918854533],[-70.6233635714723,-33.4213981652523],[-70.6233229222851,-33.4214309090122],[-70.6232706268234,-33.421449489499],[-70.6232371555434,-33.4214857204586],[-70.6232379103794,-33.4215262732306],[-70.6232527113779,-33.4215570998572],[-70.6232733799086,-33.4215973928793],[-70.6232670667599,-33.4216404244142],[-70.6232489752233,-33.4216621374686],[-70.6232508639429,-33.4216871665736],[-70.6232729549733,-33.4217274400737],[-70.6232580192219,-33.4217658146742],[-70.6232320587784,-33.4218234208716],[-70.6232184344481,-33.4218558117745],[-70.6231821179737,-33.4218920772546],[-70.6231373564797,-33.4219332284602],[-70.6230791264974,-33.4219387612625],[-70.6230519015961,-33.4219283803432],[-70.6230261868981,-33.4219227512526],[-70.6229992950094,-33.4219302628421],[-70.622925352167,-33.4219324236329],[-70.6228442080727,-33.4219299052104],[-70.6227840462045,-33.4219080257816],[-70.6227622660356,-33.4218844482719],[-70.6227360187184,-33.4218501946894],[-70.6227099056067,-33.4218230944894],[-70.622634631239,-33.4217536904171],[-70.622605362546,-33.4217099304314],[-70.6225503792895,-33.4216605412449],[-70.6224886609454,-33.4216315223769],[-70.6224533279161,-33.4216009444266],[-70.6224908001331,-33.4216614127091],[-70.6225397287976,-33.4217218564471],[-70.6226022060013,-33.4217763962582],[-70.6226693766412,-33.4218385104477],[-70.6227044019469,-33.4218857744694],[-70.6227305377169,-33.421944607178],[-70.6227730653696,-33.422028042036],[-70.622794755392,-33.4220926604441],[-70.6228118941217,-33.4221573384031],[-70.6228448920299,-33.4222179904686],[-70.6228684676966,-33.4222615868044],[-70.6228897316445,-33.4223033033041],[-70.6229315137781,-33.4223466613724],[-70.6229757190975,-33.4224111753803],[-70.6229941199264,-33.422482518472],[-70.6229995195798,-33.4225432935818],[-70.6230391902416,-33.4226107780251],[-70.6231043972165,-33.422674349765],[-70.6231270656827,-33.422745635173],[-70.6231367995822,-33.422809933822],[-70.6231425978912,-33.4228921772482],[-70.6231424132789,-33.4229004016758],[-70.6231428722138,-33.4229069150198],[-70.6231405373157,-33.423010741145],[-70.6231381330541,-33.4230694134],[-70.6231773982582,-33.4231565801878],[-70.6232086009342,-33.4232277556746],[-70.6232398036298,-33.4232989293481],[-70.6232420692451,-33.4233295854599],[-70.6232568968228,-33.4233923844066],[-70.6232682307019,-33.4234509354547],[-70.6232990327671,-33.4235464521166],[-70.6233130067246,-33.4236550762381],[-70.6233368214114,-33.4237420952932],[-70.6233717847247,-33.4238776466332],[-70.6233803444309,-33.4239705929075],[-70.6233971364792,-33.4240594092394],[-70.6233973404862,-33.4240737754707],[-70.6233974108737,-33.4240741479081],[-70.6233980244065,-33.4241173277468],[-70.6233860443961,-33.4241616274828],[-70.6233842184438,-33.4242014997686],[-70.6233861683787,-33.4242447144187],[-70.6233858971766,-33.4242473621426],[-70.6233864427565,-33.4242594521854],[-70.6233798558689,-33.4243237164378],[-70.6233858326316,-33.4243795346947],[-70.6233861070108,-33.4243942724611],[-70.6233871205837,-33.4244487145594],[-70.623398077544,-33.4245022572285],[-70.6234001218575,-33.424535636155],[-70.6234003962574,-33.4245503748225],[-70.6234008102665,-33.424572612205],[-70.623401084667,-33.4245873508724],[-70.6234015875084,-33.4246143595907],[-70.6234068088848,-33.4246655910909],[-70.6234178547564,-33.4247239068943],[-70.6234181291446,-33.4247386446596],[-70.6234186541856,-33.4247668453093],[-70.6234189285743,-33.4247815830745],[-70.6234257068687,-33.4248399547422],[-70.6234297056197,-33.4249019403662],[-70.6234474177517,-33.425012663673],[-70.6234571965791,-33.4250793452224],[-70.6234751764951,-33.4251280252433],[-70.6234949751885,-33.4251772874818],[-70.6235118531781,-33.4251982640965],[-70.6235124532173,-33.425199010173],[-70.6235378799527,-33.4252196755607],[-70.6235481165105,-33.4252266037949],[-70.6235497558262,-33.4252280036211],[-70.6235717686786,-33.4252487127943],[-70.6235936916388,-33.425264651544],[-70.6236179974965,-33.4252862857283],[-70.623643406486,-33.4253059953829],[-70.6236653650163,-33.4253238428332],[-70.6236772216122,-33.4253321738387],[-70.6236823287328,-33.4253361354567],[-70.623704287245,-33.4253539810963],[-70.6237456044938,-33.4253830139044],[-70.6237538616231,-33.4253969013274],[-70.6237539949167,-33.4253971286476],[-70.6237747625783,-33.425412128352],[-70.6237911918661,-33.425424366633],[-70.6237929172255,-33.4254272677821],[-70.6238080094713,-33.4254381672119],[-70.6238256507303,-33.4254553650285],[-70.623849646219,-33.4254709537363],[-70.6238645730898,-33.4254855041387],[-70.623899138521,-33.4255079580578],[-70.6239012907571,-33.4255091211952],[-70.6239017416338,-33.4255093650986],[-70.6239198351367,-33.4255191403084],[-70.6239296183338,-33.4255218186989],[-70.6239300669605,-33.4255219417861],[-70.6239670581974,-33.4255320656295],[-70.6239683384708,-33.4255324925653],[-70.6239734314737,-33.4255341934615],[-70.623989233898,-33.4255423374883],[-70.6240022364841,-33.4255498300808],[-70.6240028974859,-33.4255502110162],[-70.6240186777155,-33.4255571631072],[-70.6240323135493,-33.4255635462661],[-70.6240490993132,-33.4255672034163],[-70.6240677024235,-33.4255729254077],[-70.6241235234296,-33.425606018475],[-70.6241446003132,-33.425614690416],[-70.6241617497557,-33.4256187594343],[-70.6241793727605,-33.4256253293418],[-70.6242077843149,-33.425638200636],[-70.6242268819803,-33.4256518215887],[-70.6242564872082,-33.4256523870647],[-70.6242712804081,-33.425652193305],[-70.624287798898,-33.4256529328879],[-70.6243025742939,-33.4256517834153],[-70.6243128159878,-33.425651649267],[-70.6243236087318,-33.4256505546632],[-70.6243326772602,-33.4256485267007],[-70.6243479603363,-33.4256440310875],[-70.6243666117891,-33.4256371051024],[-70.6243846944519,-33.425630187467],[-70.6244101214532,-33.4256203103072],[-70.6244436731598,-33.4256127607601],[-70.624471002118,-33.4256133578064],[-70.6245005717873,-33.4256120154129],[-70.624521072953,-33.4256127018906],[-70.6245404176471,-33.4256124484744],[-70.6245756952724,-33.4256119854266],[-70.6245950399827,-33.4256117329034],[-70.6246257650287,-33.4256113294826],[-70.6246632289786,-33.4256060661722],[-70.6246813838156,-33.4256029659066],[-70.6247086416383,-33.4255997454743],[-70.6247256933061,-33.4255985661289],[-70.6247529333671,-33.4255943926828],[-70.6247903795249,-33.4255881754288],[-70.6248130502689,-33.425583105895],[-70.6248402725272,-33.4255779776227],[-70.6248765988241,-33.4255727282526],[-70.6249163201746,-33.4255664811493],[-70.624957109091,-33.4255564034901],[-70.6249842423764,-33.4255465020521],[-70.625029583848,-33.425536364714],[-70.6250636160491,-33.4255301912129],[-70.6250829440331,-33.4255289846945],[-70.6250988569991,-33.4255278202202],[-70.6251204790471,-33.4255275377717],[-70.6251398236998,-33.425527283361],[-70.6251642730567,-33.4255260097146],[-70.6251750568311,-33.4255244353799],[-70.625201958925,-33.425522212419],[-70.6252716593121,-33.4255212998473],[-70.6253214451186,-33.4255206464428],[-70.6253740760455,-33.4255199575315],[-70.6254167502032,-33.4255193972997],[-70.6254579796124,-33.4255176646698],[-70.6254906737216,-33.4255160421016],[-70.6255347471395,-33.4255142721677],[-70.6255631969436,-33.425513899241],[-70.6255959355255,-33.4255146623101],[-70.6256295455579,-33.4255138258203],[-70.625678548784,-33.4255170008887],[-70.625732229117,-33.425526795395],[-70.6257757211804,-33.4255395876661],[-70.6258065529359,-33.4255449091883],[-70.6258258976194,-33.4255446564737],[-70.6258429670753,-33.4255444326839],[-70.6258725010948,-33.4255411812523],[-70.6258929844574,-33.4255409135982],[-70.6259238162192,-33.425546235091],[-70.6259398904236,-33.4255536601495],[-70.6259606584841,-33.4255686594749],[-70.6259870455431,-33.4255797667645],[-70.626043268077,-33.4256038443868],[-70.6261065152769,-33.4256383299015],[-70.626169797032,-33.4256747232065],[-70.62620196223,-33.4256905262721],[-70.6262319590232,-33.4257120853007],[-70.6262667387127,-33.4257459899058],[-70.6263060531865,-33.4257788790877],[-70.6263496333744,-33.4257964424928],[-70.6263782968418,-33.4258075198421],[-70.6264183385354,-33.4258184470543],[-70.6264698507219,-33.425833997207],[-70.6265739571872,-33.4258622190354],[-70.6266378973558,-33.425872834511],[-70.6266800017795,-33.4258722813146],[-70.6267255390103,-33.4258726390149],[-70.6267713422092,-33.4258873097916],[-70.6268195641334,-33.4259095837302],[-70.6268507699533,-33.4259349432963],[-70.6268901381743,-33.4259706967016],[-70.6269413475838,-33.4260311086478],[-70.626992593757,-33.4260934292668],[-70.6270298816458,-33.4261397072415],[-70.6270649289088,-33.4261879246823],[-70.6270997090763,-33.4262218272325],[-70.6271366409632,-33.4262490225726],[-70.6271930007257,-33.4262964345594],[-70.627231101434,-33.4263252838238],[-70.6272587878436,-33.4263449637325],[-70.6272897936186,-33.4263595894991],[-70.6273183049284,-33.4263778264604],[-70.6273640472227,-33.4264044272406],[-70.6274124699588,-33.4264374364147],[-70.6274574387196,-33.4264683427353],[-70.6274920054339,-33.4264907956095],[-70.6275247321619,-33.4265061147839],[-70.6275748758619,-33.426539816458],[-70.6275975200419,-33.4265638560867],[-70.627632434188,-33.4266049163627],[-70.6276741762128,-33.4266458861064],[-70.6277053558497,-33.4266698154844],[-70.6277262803401,-33.4266931634097],[-70.6277725841023,-33.4267498228287],[-70.6278015109213,-33.426790245591],[-70.6278160472426,-33.4268067576007],[-70.6278270805336,-33.4268185421975],[-70.6278341311127,-33.4268303808779],[-70.6278460234706,-33.4268495816813],[-70.627910316469,-33.4268943126512],[-70.6279569129498,-33.4269209010876],[-70.6279983746908,-33.4269468435675],[-70.628074470307,-33.426998815421],[-70.6281221868831,-33.427039707467],[-70.6281715308379,-33.4270762836048],[-70.6282009642224,-33.4270980876167],[-70.6282373981909,-33.4271291057016],[-70.6282641634032,-33.4271452171994],[-70.6282849411453,-33.4271606930601],[-70.6283061198495,-33.4271976380639],[-70.6283203102958,-33.4272260857829],[-70.6283330883157,-33.4272702980245],[-70.6283612286483,-33.4273143103421],[-70.628373712692,-33.4273427804611],[-70.6283825945759,-33.4273612758272],[-70.6283982519574,-33.4273768171012],[-70.6284089750229,-33.4274024461238],[-70.6284178034717,-33.4274180797756],[-70.6284516420802,-33.4274548386634],[-70.6284750928017,-33.4274915148127],[-70.6285040990862,-33.4275209592611],[-70.6285400400543,-33.4275407694509],[-70.6285876512804,-33.4275759360596],[-70.6286379729292,-33.4276039083142],[-70.6286795586084,-33.4276212571792],[-70.6287285925104,-33.4276564050463],[-70.6287988069858,-33.4276829237325],[-70.6288767460473,-33.4277865304588],[-70.6289050205255,-33.427837698715],[-70.6289553087521,-33.4279095751272],[-70.6289905717538,-33.4279692424034],[-70.6290188998316,-33.4280232723384],[-70.6290395654754,-33.4280936304783],[-70.6290619893519,-33.4281362856091],[-70.6290937850108,-33.4281931332841],[-70.6291243717752,-33.428246180282],[-70.6291538878749,-33.4282947087339],[-70.6291841348216,-33.4283296243542],[-70.6292293548345,-33.4283738891272],[-70.629251262846,-33.4283888728963],[-70.6292777938086,-33.4284076124706],[-70.6292998077552,-33.4284283214667],[-70.6293460406789,-33.4284658912188],[-70.6293853932158,-33.4285006880459],[-70.6294211256333,-33.4285245571435],[-70.6294642292122,-33.4285468972627],[-70.62949535652,-33.4285679635373],[-70.6295400595761,-33.4285845550818],[-70.6295763073846,-33.4286055540466],[-70.6296076487696,-33.4286380707334],[-70.6296304824437,-33.4286721304244],[-70.6296584633741,-33.4287075545732],[-70.6296728150178,-33.4287445881378],[-70.6296804991988,-33.4287903001683],[-70.6296981846392,-33.4288229962981],[-70.6297418235586,-33.4288739624154],[-70.6297787671965,-33.4289321743452],[-70.6298136833573,-33.4289732348336],[-70.6298852232766,-33.4290553306286],[-70.6299216062281,-33.4290834855422],[-70.6299614556546,-33.4291144572908],[-70.6300150406546,-33.4291697476122],[-70.6300673750402,-33.4292291892435],[-70.6301299248179,-33.429287064453],[-70.6301767909385,-33.4293279677377],[-70.6302427013476,-33.4293829344921],[-70.6302979950436,-33.4294179994044],[-70.6303549963565,-33.4294530427415],[-70.6304068493273,-33.4294867207337],[-70.6304602749513,-33.4295132183904],[-70.6305048716082,-33.4295240852483],[-70.630573420092,-33.4295375004491],[-70.6306224744702,-33.4295508148347],[-70.6306492909146,-33.4295582161377],[-70.6306752649021,-33.4295775615382],[-70.630708807126,-33.4296021732988],[-70.6307336631536,-33.4296188477364],[-70.6307509341791,-33.4296293587049],[-70.6307871822319,-33.4296464794244],[-70.6308109660172,-33.4296628694413],[-70.63084548576,-33.4296826967212],[-70.6308720924685,-33.4296978564775],[-70.6308951989804,-33.4297160446171],[-70.6309210827164,-33.429730617761],[-70.6309419889248,-33.4297452554648],[-70.6309665504799,-33.4297652145869],[-70.6309932688146,-33.4297863384579],[-70.631014230831,-33.4298039577689],[-70.6310309685996,-33.4298240197849],[-70.6310440276528,-33.4298375684662],[-70.6310599553072,-33.429852271634],[-70.6310774272395,-33.4298735162064],[-70.6310956322662,-33.4298959442552],[-70.6311117708926,-33.42992197975],[-70.6311249303959,-33.4299408956986],[-70.6311425038784,-33.4299675084248],[-70.6311664185487,-33.4299985306538],[-70.6311943871427,-33.4300332385396],[-70.6312114483358,-33.4300781110453],[-70.6312312428524,-33.4301322544831],[-70.6312688688217,-33.4301811518675],[-70.6312985841655,-33.4302179831048],[-70.6313334613769,-33.430256895488],[-70.6313749658596,-33.4302849825751],[-70.6314239781833,-33.4303036648811],[-70.6314583867206,-33.4303175287377],[-70.6314824191223,-33.4303243703735],[-70.6315080921626,-33.4303276128567],[-70.6315371245733,-33.4303279451163],[-70.6315712920733,-33.4303289285619],[-70.6316279287133,-33.4303341417316],[-70.6316509734089,-33.4303338385023],[-70.6316885951095,-33.4303369210165],[-70.6317159891307,-33.4303408568639],[-70.6317553843136,-33.4303474953857],[-70.6317845116202,-33.430352839614],[-70.631826467113,-33.4303594453225],[-70.6318555676265,-33.4303633577797],[-70.6318735051611,-33.4303638377728],[-70.6319127798071,-33.4303640360556],[-70.6319511883744,-33.4303635314746],[-70.6319819015806,-33.4303624103042],[-70.632012547828,-33.4303577124462],[-70.6320432074736,-33.4303537304577],[-70.6320780679597,-33.4303461129041],[-70.6321095947691,-33.4303428346373],[-70.6321462019321,-33.4303373413329],[-70.6321785289256,-33.4303311892048],[-70.6322228046295,-33.4303248806896],[-70.6322326842527,-33.4303106081394],[-70.6322472261389,-33.4302895988697],[-70.6322946985728,-33.4302412518127],[-70.6323321913697,-33.4301918420857],[-70.6323572166942,-33.4301604932951],[-70.6323891976831,-33.4301207028855],[-70.6324378915534,-33.4300616025034],[-70.6324643159877,-33.4300290412495],[-70.6325212065736,-33.429973673822],[-70.6325487642836,-33.4299255888536],[-70.6325570636008,-33.429882529916],[-70.6325608122807,-33.4298395308899],[-70.632563511559,-33.4298013172642],[-70.6325646968563,-33.42974308039],[-70.6325661691427,-33.4297001113332],[-70.6325688684507,-33.42966189951],[-70.6325780384338,-33.429604512549],[-70.6325837764898,-33.4295462157327],[-70.632593512275,-33.4294582781276],[-70.6326073243521,-33.4294056034349],[-70.6326230543079,-33.4293338135426],[-70.6326551574188,-33.4292245832195],[-70.6326754747231,-33.4291546420967],[-70.6327172897262,-33.429077736255],[-70.6327702699004,-33.4289892301394],[-70.6328067160633,-33.4289295757332],[-70.6328409941163,-33.4288756764891],[-70.6329046449779,-33.4288099354008],[-70.6329622938587,-33.4287529606521],[-70.6330172045291,-33.4286763584257],[-70.6330639013297,-33.4286170460224],[-70.6331812462943,-33.4285009672261],[-70.6332247702242,-33.4284545819057],[-70.6333021390337,-33.4283920012252],[-70.6333713755373,-33.4283510029043],[-70.6334354368251,-33.4283072094041],[-70.6335506005267,-33.4282570151682],[-70.6337068134389,-33.4282105763479],[-70.6338597720432,-33.428172769244],[-70.6340549497579,-33.4281100688295],[-70.6342803968217,-33.4280226296916],[-70.6343837712009,-33.4279811809024],[-70.6345365154982,-33.4279319234552],[-70.6347183572296,-33.4278865767595],[-70.6348712890062,-33.4278473366695],[-70.63493743134,-33.4278235572478],[-70.635001652495,-33.4277883516816],[-70.6350745278177,-33.4277192223581],[-70.6349309381807,-33.4276495337039],[-70.634799174462,-33.427603548699],[-70.6346950561355,-33.4275142494519],[-70.6345364918974,-33.4273676494276],[-70.6344909836258,-33.4273081206296],[-70.6344613169731,-33.427243609626],[-70.6344466058152,-33.4271874914308],[-70.6344372576149,-33.4271441879011],[-70.6344310897207,-33.4270884332664],[-70.634430204314,-33.4270412016473],[-70.6344565229982,-33.4269878821414],[-70.634460463842,-33.4269248373432],[-70.6344592027663,-33.4268575665911],[-70.6344636791622,-33.42682314785],[-70.6344438566605,-33.4267675731858],[-70.6344448118117,-33.4267274742322],[-70.6344528105476,-33.4266987365908],[-70.6345119096651,-33.4266635978916],[-70.6345865339819,-33.4266368444575],[-70.6346490737623,-33.4266030924482],[-70.6347013191327,-33.4265666118988],[-70.6347417762355,-33.4265388766635],[-70.6347787657426,-33.4265083247184],[-70.6347989808571,-33.4264937416648],[-70.6348737111947,-33.4264727123848],[-70.6349724730957,-33.4264585258514],[-70.6350442725965,-33.4264633058168],[-70.635088922935,-33.4264770336502],[-70.6351216766647,-33.4264937816439],[-70.6351869436397,-33.4265143954234],[-70.6352346041962,-33.4265066082237],[-70.6352907464063,-33.4264958476505],[-70.6353297105346,-33.4264795842582],[-70.6354708738789,-33.4264393343978],[-70.6356024710546,-33.4264461895984],[-70.6356948882549,-33.426457854172],[-70.6357653572953,-33.4264826944458],[-70.6358134206162,-33.4264963787994],[-70.6358619135681,-33.4265329612494],[-70.6359375836044,-33.4265620273289],[-70.6360099203704,-33.4265954336557],[-70.6360906313532,-33.4266201386196],[-70.6361387753308,-33.4266381144921],[-70.6361611604945,-33.4266594594596],[-70.6361953612187,-33.4265882993109],[-70.6362442264877,-33.4263490456193],[-70.6362653153056,-33.4261459484473],[-70.6362626292531,-33.426002817437],[-70.636247900195,-33.4259761688052],[-70.6362449903596,-33.4258211104304],[-70.6361860785868,-33.425714513113],[-70.6361329905822,-33.4255392393993],[-70.6360841321792,-33.4253997016961],[-70.6360069351637,-33.4252665016345],[-70.6359506847398,-33.4251121478165],[-70.6358734333182,-33.4249759651209],[-70.6358037412524,-33.4248635450907],[-70.6357358091704,-33.4247566444519],[-70.63571734963,-33.4248177136993],[-70.635699930394,-33.4248599380994],[-70.6356874921948,-33.4249250041943],[-70.6356751255893,-33.4249938876936],[-70.6356713259142,-33.4250340232738],[-70.6356745676875,-33.4250855201273],[-70.6356505354947,-33.4251392867945],[-70.6356012527552,-33.4251819314455],[-70.6355250886621,-33.4252478389075],[-70.635480537309,-33.4252999651831],[-70.6354837084927,-33.4253476464256],[-70.635483468626,-33.4254259122409],[-70.6355095056379,-33.4254790185398],[-70.6355221387939,-33.4255456613287],[-70.6355161343809,-33.4255896452321],[-70.6354987854371,-33.4256356870265],[-70.6354655057689,-33.4256819398201],[-70.6354410795201,-33.4257147125223],[-70.6354097897042,-33.4257456674625],[-70.6353901654529,-33.4257917383467],[-70.6353385701618,-33.4258325051216],[-70.6352500238638,-33.4258451260217],[-70.6351704731691,-33.4258519025221],[-70.6350753137711,-33.4258760637448],[-70.6349591699957,-33.4258737776168],[-70.6349022356876,-33.4258726181616],[-70.6348200518969,-33.4258603401055],[-70.6346512033451,-33.4258396594422],[-70.6345913141166,-33.4258022716783],[-70.634551800921,-33.4257588886869],[-70.6345011936304,-33.4257309226058],[-70.634380247068,-33.4257153368102],[-70.6342862191839,-33.4256783970174],[-70.6342532109576,-33.4256177483249],[-70.6342524598222,-33.4255776727527],[-70.6342541279958,-33.4255451983922],[-70.6342194169445,-33.4255151144284],[-70.6341935238053,-33.4254696435535],[-70.6341789025741,-33.4254182957048],[-70.6341665923474,-33.4253688274774],[-70.6341566667816,-33.425325054449],[-70.6341446426743,-33.4252908513438],[-70.6341303792055,-33.4252585896273],[-70.6341045576853,-33.425216933432],[-70.634079057049,-33.4251924555836],[-70.6339916430034,-33.4251439751511],[-70.6339885442,-33.4251001121543],[-70.6340172730416,-33.4250539215114],[-70.6340800688579,-33.4250034627139],[-70.6341424711826,-33.424932011745],[-70.6341485120492,-33.4248899374899],[-70.6342131536483,-33.4248165478029],[-70.6342851806762,-33.4247485014989],[-70.6343155574851,-33.4246991858716],[-70.634373154038,-33.4245838933952],[-70.6344689177548,-33.4245313315234],[-70.6346236498679,-33.4245125883471],[-70.6347360896926,-33.4245146864661],[-70.6348672447959,-33.4245284653694],[-70.6349054377579,-33.4245304247567],[-70.6349415267022,-33.4245382728689],[-70.6349807863399,-33.4245377543687],[-70.6350173774565,-33.4245315453161],[-70.6350428073072,-33.4245219040447],[-70.6350740892554,-33.4245057438325],[-70.6351210206572,-33.424459073056],[-70.635165786531,-33.4244183964258],[-70.6351994596068,-33.424393137649],[-70.6352762316744,-33.4243596738443],[-70.6353468195405,-33.4243548777719],[-70.6353445539369,-33.424353009295],[-70.6352963496215,-33.4243132736074],[-70.6352730443,-33.4242970124914],[-70.635238440777,-33.4242198346916],[-70.6351841980302,-33.4241193798614],[-70.6351246817487,-33.4239956091642],[-70.6350967962901,-33.4238742865028],[-70.6350747138256,-33.4237588511276],[-70.6350520712585,-33.4236135986843],[-70.6350215422789,-33.4235030462427],[-70.6350093941397,-33.4233862885506],[-70.6350052072708,-33.4233147600271],[-70.63499337227,-33.4232147001083],[-70.6349779172814,-33.4231492866527],[-70.6349541754761,-33.4230971058877],[-70.6349406573511,-33.423059105095],[-70.6349396005332,-33.4230129488938],[-70.6349741603844,-33.4229777078481],[-70.6349850276844,-33.4229694877782],[-70.634999663194,-33.422942326474],[-70.6350385977907,-33.4228334834256],[-70.6350618078802,-33.4227358247704],[-70.6350755205737,-33.4226172930984],[-70.6351430292244,-33.4224541482981],[-70.6352416994928,-33.4223745836952],[-70.6352772543037,-33.4223283018603],[-70.6353775194039,-33.4222124462872],[-70.6354311268328,-33.4220479217749],[-70.6354542474306,-33.4219151884136],[-70.6354938315496,-33.4217500254313],[-70.6355194074417,-33.4215206212719],[-70.6355965233667,-33.4213084351159],[-70.6356872464774,-33.4211390182447],[-70.6357361700516,-33.4210166826036],[-70.6358905634324,-33.4208285307572],[-70.6361133640282,-33.4206466332109],[-70.636452920361,-33.4205455165468],[-70.6367591439492,-33.4204877885804],[-70.6371762447926,-33.4204250168506],[-70.637377446487,-33.4204227853759],[-70.6374503341603,-33.4204251246449],[-70.6376086259537,-33.4204297144363],[-70.6377066350996,-33.4204344174063],[-70.6378179383637,-33.4204520375124],[-70.6379298240806,-33.42050066739],[-70.6380599532524,-33.4205359336641],[-70.6381954821457,-33.42055561879],[-70.6384077510052,-33.42057070971],[-70.6386228424355,-33.4205845707511],[-70.6388595151409,-33.4206112696678],[-70.6391350639565,-33.4206625080662],[-70.639316331717,-33.4206935177381],[-70.6394548394283,-33.4207203190277],[-70.6396260178345,-33.4207443046923],[-70.6397699239971,-33.4207555254781],[-70.6398896046296,-33.4207646792879],[-70.6399922181047,-33.4207775550722],[-70.64000299259,-33.4207789078263],[-70.6400153001397,-33.4207524973013],[-70.640040163063,-33.4207127982083],[-70.6400562444975,-33.4206600918059],[-70.6400685520157,-33.4206336812761],[-70.6400931008582,-33.4205772844294],[-70.6401207177964,-33.4205327764141],[-70.6401497571587,-33.4204882495811],[-70.6401774648175,-33.420448511036],[-70.640198216197,-33.4204172181388],[-70.6402174788844,-33.4203823655627],[-70.6402309855316,-33.4203440097468],[-70.6402416686129,-33.420306883493],[-70.6402467975763,-33.4202769894249],[-70.6402588133524,-33.4202350730576],[-70.6402775061455,-33.4201971978598],[-70.6402748043706,-33.4201807724849],[-70.6402748250769,-33.420180729825],[-70.6402694714967,-33.420148191349],[-70.6402689592446,-33.4201209556338],[-70.6402663891163,-33.4201103859052],[-70.6402662781637,-33.4201044866969],[-70.6402595957794,-33.4200770025169],[-70.6402589888252,-33.4200447313314],[-70.6402564435939,-33.4200354851601],[-70.640256307766,-33.4200282632956],[-70.6402471460654,-33.4199949797687],[-70.6402347570478,-33.4199414567596],[-70.6402138579631,-33.4198892385181],[-70.6401916935149,-33.41984538976],[-70.6401798866781,-33.4198228765979],[-70.6401680371657,-33.4197979795593],[-70.6401461408663,-33.4197684438027],[-70.640127044579,-33.4197364838675],[-70.6401081053146,-33.419712872802],[-70.6400982264134,-33.4197065246961],[-70.6400735427421,-33.4196906614629],[-70.640049094275,-33.419676668216],[-70.6400189101256,-33.4196603645687],[-70.6399930616851,-33.4196475838469],[-70.6399700121581,-33.4196323780613],[-70.6399497851012,-33.4196159427291],[-70.6399324926454,-33.4196042410757],[-70.6399065769457,-33.4195878818595],[-70.6398919948003,-33.4195689856318],[-70.6398591555002,-33.4195324357871],[-70.6398471649245,-33.4195001437661],[-70.6398388740142,-33.4194725518648],[-70.6398346124813,-33.4194328212548],[-70.639832095798,-33.4194178832431],[-70.639823963455,-33.4193696111721],[-70.6398164903204,-33.419335350241],[-70.6398091517588,-33.4193082462604],[-70.6397966922141,-33.419281209087],[-70.6397808470681,-33.4192556496847],[-70.6397717742581,-33.4192271365243],[-70.6397540602849,-33.4191930100877],[-70.6397382151682,-33.4191674506787],[-70.6397189284336,-33.4191405037614],[-70.6396473139787,-33.4191061853954],[-70.6396019684722,-33.419095584152],[-70.6395605386883,-33.4190713161895],[-70.6395259361713,-33.41904695886],[-70.6394753672424,-33.4190209034112],[-70.6394295288287,-33.4190043294823],[-70.6394015566504,-33.4189889135987],[-70.6393720261717,-33.4189726381203],[-70.6393328715486,-33.4189483409068],[-70.6393030006686,-33.4189334641411],[-70.6392478437998,-33.4189055600641],[-70.6392203197191,-33.4188944706101],[-70.639169787915,-33.4188703237179],[-70.6391303464478,-33.4188307586284],[-70.6391068365866,-33.4187909820677],[-70.6390855659285,-33.4187492685365],[-70.6390757452943,-33.4187112193233],[-70.6390654513628,-33.418680774288],[-70.6390646551593,-33.4186698807752],[-70.6390627705811,-33.4186643062147],[-70.6390597065318,-33.4186223511572],[-70.6390574653097,-33.4186002597707],[-70.6390562590482,-33.4185883760558],[-70.6390427717163,-33.4185464586462],[-70.639019297846,-33.4185085907653],[-70.6389775098846,-33.4184652391816],[-70.6389152393322,-33.4184221573537],[-70.6388531144538,-33.4183867102714],[-70.6387818852745,-33.418351382556],[-70.6387054885685,-33.4183227966252],[-70.6386647015122,-33.4183094085632],[-70.6386268125057,-33.4182917742547],[-70.6385980604922,-33.4182759292935],[-70.6385600449736,-33.4182516167742],[-70.638511699056,-33.4182226664294],[-70.638474946578,-33.4182050188616],[-70.6384393495027,-33.4181883083522],[-70.638400993481,-33.4181458653628],[-70.6383545484489,-33.418096848454],[-70.6383172224497,-33.4180486643016],[-70.6382893127872,-33.418007694852],[-70.6382391782916,-33.4179697343815],[-70.6381677978218,-33.4178739883282],[-70.6381243400554,-33.4178353660537],[-70.6380896846469,-33.4178081447866],[-70.6380494840713,-33.4177886325509],[-70.6379772604903,-33.417760953293],[-70.6379117039023,-33.4177245969058],[-70.6378702225342,-33.4176974648197],[-70.6378204339969,-33.4176523093037],[-70.6377739705525,-33.4176023373675],[-70.6377502825032,-33.4175530197021],[-70.6377358650458,-33.4175185671449],[-70.637738886396,-33.4174866384995],[-70.6377360011221,-33.4174542242064],[-70.6377398186512,-33.4174150424414],[-70.6377526486552,-33.4173709682735],[-70.6377614042223,-33.4173417415459],[-70.6377654607354,-33.4173259402035],[-70.6377697967837,-33.4173144305914],[-70.6377729415706,-33.4173000724944],[-70.6377715353181,-33.4172857744948],[-70.6377700495078,-33.4172814427801],[-70.6377558825168,-33.4172401672685],[-70.6377411712215,-33.4171840493905],[-70.6377410449446,-33.4171773242993],[-70.6377407233187,-33.4171601955579],[-70.6377377854183,-33.4171249204478],[-70.6377370866579,-33.4170877065931],[-70.6377345713504,-33.417080034562],[-70.6377344061709,-33.4170712375763],[-70.637724747627,-33.4170417778385],[-70.6377013094982,-33.4170058174855],[-70.6376825668391,-33.4169774318331],[-70.6376543627849,-33.4169300838507],[-70.6376253257959,-33.416898969901],[-70.6375789524442,-33.4168537682767],[-70.6375143718927,-33.4168088088299],[-70.6374854424782,-33.4167834200535],[-70.6374566316658,-33.416753406917],[-70.6373761808007,-33.4166840540638],[-70.6373267469078,-33.4166274403887],[-70.6372944713049,-33.4165753717721],[-70.6372361460599,-33.4164997872723],[-70.6371724458589,-33.4164409756102],[-70.6371088800743,-33.4163893208765],[-70.6370509132674,-33.4163328188129],[-70.6369957913234,-33.4162762800735],[-70.6369438723619,-33.4162387871979],[-70.6368682885045,-33.4161834735],[-70.6368165934942,-33.4161579088434],[-70.6367536078906,-33.4161372647552],[-70.6366676436115,-33.4161049935366],[-70.6365588776097,-33.4160706377885],[-70.6364415795332,-33.4160363936162],[-70.6363292965736,-33.4159662921753],[-70.6362251911481,-33.4158769936774],[-70.6361787385289,-33.415827498024],[-70.636126596469,-33.415778078307],[-70.636071967659,-33.4157477795389],[-70.6359717354895,-33.4157133097882],[-70.6359087525601,-33.4156926661267],[-70.6358443085577,-33.4156784627451],[-70.635765250086,-33.415651926536],[-70.6357188464568,-33.415635358638],[-70.6356553206599,-33.415616153212],[-70.6355610735387,-33.415597353783],[-70.635494108546,-33.4155767615172],[-70.6354030871072,-33.4155478964724],[-70.6353356727773,-33.4155422227352],[-70.635338352754,-33.415558691823],[-70.6353048148957,-33.4155864532154],[-70.6352739720274,-33.415610721443],[-70.63522064051,-33.4156496018414],[-70.6351533992884,-33.4157053684282],[-70.6350772659677,-33.4157421631319],[-70.6349925547013,-33.4157766864256],[-70.6349139341984,-33.4158326028929],[-70.6348150894429,-33.4158720830636],[-70.6347535373115,-33.4159277744503],[-70.6346658915484,-33.4159575637093],[-70.6345556227844,-33.4159948088984],[-70.6344739345866,-33.4160388342862],[-70.6343806437593,-33.4160710830847],[-70.6343214432334,-33.4161004963576],[-70.6342253086022,-33.416132783416],[-70.6341041976688,-33.4161988024306],[-70.6339659743214,-33.4162626623315],[-70.6338246825731,-33.4163146321666],[-70.6337116575625,-33.4163566854202],[-70.6335934353757,-33.4164250521413],[-70.6334805441198,-33.4164742612668],[-70.6333226307941,-33.4165503101237],[-70.6331839596265,-33.4165903143934],[-70.6330411605295,-33.416622081418],[-70.6328651894385,-33.4167138032243],[-70.6325938024115,-33.4168080487941],[-70.6323244570243,-33.4168593153471],[-70.6322446518383,-33.4168870671017],[-70.6319456181002,-33.4169066958811],[-70.6318052108462,-33.4169300177331],[-70.6315583753975,-33.4169678639064],[-70.6314899871969,-33.4169764624803],[-70.6313499888064,-33.4170101008147],[-70.6312073157643,-33.4170492004955],[-70.6311055249124,-33.417083467836],[-70.6309621880976,-33.4171784093118],[-70.6308473583112,-33.4172457765149],[-70.6307454867879,-33.4172757491981]],[[-70.6315615275601,-33.4189563858001],[-70.6315768918437,-33.4189867242163],[-70.6315992965619,-33.4190284250782],[-70.6316317636769,-33.4190604494664],[-70.6317185286062,-33.4190745795749],[-70.6317652354214,-33.4190768274706],[-70.6318119233152,-33.4190781214594],[-70.6318516907369,-33.4190632004656],[-70.6318924668019,-33.4190526427777],[-70.6318954787142,-33.4190311287239],[-70.6319256656908,-33.4190020974484],[-70.6319578267802,-33.4189873585749],[-70.6319850554159,-33.4189827048538],[-70.6320275923252,-33.4189749863661],[-70.6320649814784,-33.4189659043988],[-70.6321092782151,-33.4189610260412],[-70.6321521633399,-33.4189719158377],[-70.6321680330309,-33.418998908042],[-70.6321397945333,-33.4190407973037],[-70.6320906178358,-33.4190586243647],[-70.6320465353206,-33.4190749531628],[-70.6320280544448,-33.4190909441478],[-70.6320200030342,-33.4191168208473],[-70.6319880550992,-33.4191430101978],[-70.6319559743322,-33.41916204435],[-70.6319347914045,-33.419175017274],[-70.6319179018049,-33.4191847845042],[-70.6319118938614,-33.4191982575668],[-70.6319097623997,-33.4192211912425],[-70.6319151102898,-33.4192399745714],[-70.6319161994222,-33.4192981807054],[-70.6319297025932,-33.4194115815388],[-70.6319191990487,-33.41945848785],[-70.6319155216909,-33.4195053034366],[-70.631908431776,-33.4195521648284],[-70.6318876158319,-33.4195953884744],[-70.6318461026266,-33.4196274302843],[-70.631796607808,-33.4196586238627],[-70.6317643408186,-33.4196981807009],[-70.6317370534546,-33.419760578544],[-70.6317288258676,-33.4198074530906],[-70.6317151752361,-33.4198687173716],[-70.6317012400228,-33.419914714676],[-70.6316834447889,-33.4199369002924],[-70.6316311726601,-33.4199414054613],[-70.6315830957719,-33.4199267672427],[-70.6315656526029,-33.4199069544087],[-70.631538731085,-33.4198672212467],[-70.6315174815351,-33.4198264593239],[-70.6314525825383,-33.4197643201108],[-70.6314077409248,-33.4197400942729],[-70.6313480525901,-33.4197132012967],[-70.6312896813515,-33.4196958341527],[-70.6312424030616,-33.4196630503543],[-70.6312096503349,-33.4196157607074],[-70.6311896099095,-33.4195788002746],[-70.6311762004923,-33.4195312543977],[-70.6311564289093,-33.4195086088097],[-70.6310948537246,-33.4194416522851],[-70.6310737472617,-33.4194085242083],[-70.6310540995707,-33.4193925577451],[-70.6310283705822,-33.4193556720958],[-70.6309769294859,-33.4192828574013],[-70.6309489958357,-33.4192498190839],[-70.6309312317584,-33.4192128304724],[-70.6309171846287,-33.4191920160368],[-70.6308880280679,-33.4191341798752],[-70.6308649433694,-33.419086522202],[-70.630869367394,-33.4190492409052],[-70.630867578039,-33.4189991568376],[-70.630866135526,-33.4189676784169],[-70.6308976544327,-33.4189185884554],[-70.6309781265426,-33.4188853176707],[-70.6310333037004,-33.4188688424413],[-70.6310664925539,-33.4188633953847],[-70.631113389422,-33.4188606313516],[-70.6311522584565,-33.4188393617749],[-70.631228917128,-33.4188304796294],[-70.6312898041515,-33.4188454265741],[-70.6313338763494,-33.4188741951949],[-70.6313913899875,-33.4188913355268],[-70.6314376741372,-33.4189014639052],[-70.6314940704628,-33.4189048650459],[-70.6315059991967,-33.4189084381012],[-70.6315405638406,-33.4189308908337],[-70.6315615275601,-33.4189563858001]],[[-70.6256958872927,-33.4198629751009],[-70.6257572724102,-33.4199504562663],[-70.6257986554186,-33.4200334271113],[-70.6258655516437,-33.4201112927751],[-70.6259063566715,-33.420163251713],[-70.6259809427747,-33.4201956795535],[-70.6260214799556,-33.4202333244645],[-70.6260708199011,-33.4202851723447],[-70.6261463391816,-33.420367695481],[-70.6261729654545,-33.4204222264857],[-70.6261602988053,-33.4205059077004],[-70.6261039373153,-33.4205352799012],[-70.6260068149251,-33.4205150770607],[-70.6259114267571,-33.4204352014787],[-70.6258422189828,-33.4203859993448],[-70.6257789224501,-33.4203486527323],[-70.625726605377,-33.4202896850108],[-70.6256742883923,-33.4202307181661],[-70.6256303272845,-33.4201620976726],[-70.6255833890081,-33.4200863574348],[-70.6255423618732,-33.4200224700474],[-70.625534170272,-33.4200106416562],[-70.6255025677128,-33.4199776483681],[-70.6254691197968,-33.4199387154361],[-70.6254584523412,-33.419900678855],[-70.6254333158117,-33.4198497066307],[-70.6254383387171,-33.4198138497533],[-70.6254975215819,-33.4197832477522],[-70.6255442157345,-33.4197695113615],[-70.6255982656357,-33.4197688038152],[-70.6256240231952,-33.4197768162664],[-70.6256405923051,-33.4197968894219],[-70.6256958872927,-33.4198629751009]],[[-70.6335034112377,-33.4234658826179],[-70.6334351799889,-33.423469167587],[-70.6333723259648,-33.4234556788817],[-70.6333179165417,-33.4234373064346],[-70.6332905576665,-33.4234282435285],[-70.6332481328296,-33.4234116214838],[-70.6332249985452,-33.4233918838636],[-70.6332059688362,-33.4233482306331],[-70.6331989931331,-33.4232796020644],[-70.6332096929488,-33.4232431922088],[-70.6332275547484,-33.4231637383217],[-70.6332803523432,-33.4230656903063],[-70.6332985178845,-33.4230024581549],[-70.6333258218393,-33.4229410148204],[-70.6333896117174,-33.4227917594019],[-70.6334271147597,-33.4226671888044],[-70.6334518248261,-33.4226191402363],[-70.6334765102841,-33.4225550240611],[-70.6334803264499,-33.4225308750624],[-70.6334880717249,-33.4224582351525],[-70.6335201716157,-33.4223490064021],[-70.6335659979199,-33.4222434142872],[-70.633628184294,-33.4221605131627],[-70.6336912533608,-33.4220761691739],[-70.6337204611,-33.4220375566854],[-70.6337386505899,-33.4220212094576],[-70.6337643503675,-33.4219880622755],[-70.6338210229017,-33.4219753853431],[-70.6338923325949,-33.4219845878622],[-70.6339786001434,-33.4219947854836],[-70.6340428086121,-33.4220046766865],[-70.6341113739282,-33.422019282036],[-70.6342014766043,-33.4220443425487],[-70.6342806318324,-33.4220546336796],[-70.6343141085494,-33.422059846098],[-70.634338365348,-33.4220636234515],[-70.6343479991633,-33.4220771006145],[-70.6343517079867,-33.4220928004142],[-70.6343441799917,-33.4221162822994],[-70.6343198079188,-33.4221519182897],[-70.63430594181,-33.4221711891785],[-70.6342741097747,-33.4222035830865],[-70.6342568120244,-33.4222219450548],[-70.6342333002584,-33.4222427751522],[-70.6342119742156,-33.4222588057564],[-70.634183342326,-33.422279702413],[-70.6341551898066,-33.4222958211581],[-70.6341229553406,-33.4223067450268],[-70.6341050515303,-33.422313026816],[-70.6340847835757,-33.4223247462314],[-70.6340756001124,-33.4223349001081],[-70.6340726505554,-33.4223454263669],[-70.6340706794097,-33.4223616780851],[-70.6340677037401,-33.4223851017746],[-70.634058406745,-33.4224052674715],[-70.6340513212287,-33.4224422096516],[-70.6340483902217,-33.4224680171935],[-70.6340403648844,-33.4224953248687],[-70.6340306868408,-33.4225255176334],[-70.634012555362,-33.4225601153975],[-70.6340046909246,-33.4225960108916],[-70.6339918941026,-33.4226419925206],[-70.6339926987076,-33.4226849325272],[-70.6339882222501,-33.4227193503709],[-70.6339904918168,-33.4227493857124],[-70.6339892950523,-33.4227766034118],[-70.6339833257244,-33.4228224941795],[-70.6339855952937,-33.4228525295206],[-70.6339747204106,-33.4229099390784],[-70.6339653641377,-33.4229573074795],[-70.6339458737816,-33.4230105351271],[-70.6339397166945,-33.4230464072189],[-70.6339126187254,-33.4231076297238],[-70.6338953864886,-33.4231242782032],[-70.6338425862328,-33.4231917841914],[-70.6337787198592,-33.4232761405622],[-70.6337601255571,-33.4233164719162],[-70.6337431967034,-33.4233589033354],[-70.6337073462257,-33.4234154731206],[-70.6336338272386,-33.4234403031601],[-70.6335659088437,-33.4234602868928],[-70.6335034112377,-33.4234658826179]],[[-70.6248324717703,-33.4245121391812],[-70.6248464605937,-33.4245298527606],[-70.6248468739967,-33.4245520378338],[-70.6248360587381,-33.4245672112826],[-70.6248067078722,-33.4245955138707],[-70.6248012672916,-33.4246242174325],[-70.6247950796742,-33.4246586583196],[-70.6247801035171,-33.4246796147194],[-70.6247609008186,-33.4247027728537],[-70.6247263485202,-33.4247268472412],[-70.6247017711129,-33.4247364752475],[-70.6246645520153,-33.424754859724],[-70.624625132754,-33.4247925983812],[-70.6246060366777,-33.4248214826335],[-70.6246013153329,-33.4248430180184],[-70.624592487515,-33.4248731998593],[-70.6245835652506,-33.424898370552],[-70.6245856060704,-33.4249162397801],[-70.6245950346435,-33.4249640766142],[-70.6246040621256,-33.4249904433655],[-70.6246212648495,-33.4249973776477],[-70.6246336272777,-33.4250194052786],[-70.6246416277075,-33.4250364803746],[-70.6246502457305,-33.4250637281655],[-70.6246357763384,-33.4250889724353],[-70.6246153622661,-33.4251005732022],[-70.6246066385816,-33.425128725458],[-70.6246035938928,-33.4251562044987],[-70.6246004036913,-33.4251759314902],[-70.6245967927533,-33.4252111746094],[-70.6245817014718,-33.4252411986155],[-70.6245778532785,-33.4252485268159],[-70.6245687539548,-33.4252565190169],[-70.624551435772,-33.425265672226],[-70.6245218958823,-33.4252759378715],[-70.6244025877536,-33.4252870457334],[-70.6242859458326,-33.4252885735641],[-70.6240778233719,-33.425267437791],[-70.6239495457095,-33.4252247367068],[-70.6238341138723,-33.4251689800932],[-70.6237462597924,-33.4251271815776],[-70.6236679821768,-33.4250494656813],[-70.6236064797974,-33.4249557804994],[-70.6235693277035,-33.4248861151481],[-70.6235316437604,-33.4247878244615],[-70.6235248018122,-33.4247236115615],[-70.6235294317833,-33.4246690243394],[-70.6235161502476,-33.4245976152476],[-70.6234858005517,-33.4245264305023],[-70.6234677452454,-33.4244736941181],[-70.6234665460793,-33.424409286494],[-70.6234668134244,-33.424331972481],[-70.6234597697997,-33.4243013437579],[-70.6234420454677,-33.4242663808633],[-70.6234430349421,-33.4242431024287],[-70.6234398569212,-33.4241870716783],[-70.6234379458545,-33.4241608497551],[-70.6234457814647,-33.4241231651023],[-70.6234705764424,-33.4240685564888],[-70.6235145660302,-33.4239858984917],[-70.6235207541367,-33.4239514585526],[-70.6235245604382,-33.423911321353],[-70.6235350512197,-33.4238634626277],[-70.6235772984967,-33.4238094615113],[-70.6236262311962,-33.4237477352311],[-70.6237073811891,-33.4237046771111],[-70.6237863615075,-33.4236673757898],[-70.6238721704209,-33.4236299822979],[-70.6239583336181,-33.4236116741039],[-70.6240172583882,-33.4235975400125],[-70.6241060176718,-33.423596378535],[-70.6241201334681,-33.4235947101558],[-70.6241981943266,-33.4235955942946],[-70.6242588159895,-33.4235962324304],[-70.6243110635991,-33.4236055692737],[-70.6243496959693,-33.4236172334978],[-70.6243688047027,-33.4236348782723],[-70.624377085965,-33.4236669814606],[-70.6243948749959,-33.4237054046064],[-70.6244344277755,-33.423720634317],[-70.6244945424323,-33.4237398900974],[-70.624526280554,-33.4237480642994],[-70.6245369486721,-33.4237708310992],[-70.6245476168128,-33.4237935987994],[-70.6245625258022,-33.42381487703],[-70.6245714198516,-33.4238340894965],[-70.6245795812239,-33.4238597524489],[-70.6245800478645,-33.4238847992457],[-70.6245908093436,-33.4239125753987],[-70.6246082518271,-33.4239323901271],[-70.624623721269,-33.4239379141081],[-70.6246512852665,-33.423951154443],[-70.6246660199221,-33.4239631307368],[-70.624695611408,-33.4239935244103],[-70.6246985848535,-33.4240156750453],[-70.6247056925613,-33.4240306154752],[-70.6247171078156,-33.4240476458321],[-70.6247386445643,-33.4240581008906],[-70.6247808776716,-33.4240797371598],[-70.6247939593266,-33.424094598413],[-70.6248054546261,-33.4241159231407],[-70.6248146687743,-33.4241523094996],[-70.6248143217941,-33.4241795160202],[-70.6248200831864,-33.4242138003531],[-70.6248255501383,-33.4242323407438],[-70.6248097347092,-33.4242540223948],[-70.6247966127629,-33.4242828284024],[-70.6247885987569,-33.4243108505283],[-70.6247717692816,-33.424369769499],[-70.6247713289323,-33.424391965759],[-70.6247786366912,-33.4244176398781],[-70.6247688485436,-33.4244421067756],[-70.6247831706753,-33.4244777092543],[-70.6248109215569,-33.4245009682632],[-70.6248324717703,-33.4245121391812]],[[-70.6326853050405,-33.4281913233934],[-70.6326661688182,-33.4281951556133],[-70.6326383630404,-33.4281919414386],[-70.6326027783219,-33.428191218622],[-70.6325834734543,-33.4281861023807],[-70.6325704591168,-33.4281749404151],[-70.6325616109328,-33.4281583540999],[-70.6325569534053,-33.428137537137],[-70.6325471041246,-33.4281054543171],[-70.6325468919587,-33.4280941238048],[-70.6325514237693,-33.4280702035077],[-70.6325568014047,-33.4280534299047],[-70.6325700686245,-33.4280401317981],[-70.6325930604338,-33.4280141774298],[-70.6326189633572,-33.4279917658997],[-70.6326399983547,-33.4279753822612],[-70.6326639466064,-33.4279625405306],[-70.6327021642039,-33.4279518953602],[-70.6327291016946,-33.4279467681992],[-70.6327624301785,-33.4279409616748],[-70.632792868789,-33.4279328051455],[-70.6328177176338,-33.4279300926125],[-70.632855368605,-33.4279272115014],[-70.6328759115026,-33.4279298656345],[-70.6328860864477,-33.427933964845],[-70.6328922432844,-33.4279398484798],[-70.6328956901005,-33.4279529274327],[-70.6328896017846,-33.4279697104077],[-70.6328812785031,-33.427981152411],[-70.6328721774804,-33.427989027093],[-70.6328666781392,-33.4279992414939],[-70.6328633557166,-33.4280118125714],[-70.6328571891919,-33.4280244201972],[-70.6328431655121,-33.4280353420508],[-70.6328290636481,-33.4280420894567],[-70.6328149617987,-33.4280488377627],[-70.6328000699064,-33.4280514191905],[-70.6327937693681,-33.4280568716503],[-70.6327897361635,-33.4280694511831],[-70.6327813347149,-33.4280767205372],[-70.6327747366507,-33.4281042474137],[-70.6327736714772,-33.4281233504869],[-70.6327612825467,-33.4281455841116],[-70.6327472801158,-33.4281576996986],[-70.6327302772057,-33.4281615020356],[-70.6327042625896,-33.4281779503518],[-70.6326853050405,-33.4281913233934]]]},"properties":{"FID":1,"Nombre":"Intrusivo Hipabisal","Codigo_Nom":"Mh","Unidad":"Pórfido andesítico","Edad":"\"21 millones de años aproximadamente\n(Mioceno)\"","Descripcio":"\"Las rocas de esta unidad se formaron en profundidad, tras el enfriamiento del magma en los conductos alimentadores de los volcanes o sus cámaras magmáticas hace unos 21 millones de años atrás. \nEstas rocas intrusivas se componen en su totalidad de c","Enlace":"https://geoparquemet.sernageomin.cl/terms/unidad-intrusiva-hipabisal/","Shape__Area":1961825.53515625,"Shape__Length":10133.541501248244}},{"type":"Feature","id":2,"geometry":{"type":"Polygon","coordinates":[[[-70.5997544573685,-33.4078469237529],[-70.5997533878529,-33.4078472387604],[-70.5997529404747,-33.407846942414],[-70.599304706099,-33.4079789807484],[-70.5987650634014,-33.4082925626063],[-70.5973261398917,-33.4087708697935],[-70.5969560500361,-33.408712674891],[-70.5966437539904,-33.4082116640386],[-70.5963674734584,-33.408097981682],[-70.5963669760904,-33.408098420064],[-70.5963659554827,-33.4080980003157],[-70.5960442555158,-33.4083817103116],[-70.5957758161856,-33.4091787838291],[-70.5956169099184,-33.4094153054455],[-70.5949424674256,-33.4098207897908],[-70.5940567134395,-33.4099494141979],[-70.5936091176607,-33.4101174976078],[-70.5929710310304,-33.410324098646],[-70.5927292639009,-33.4105165897023],[-70.5925604151972,-33.4109336031919],[-70.592701203142,-33.4110941275797],[-70.593723161493,-33.4114687911156],[-70.5946436193095,-33.4116553665298],[-70.5951509670011,-33.4116849164827],[-70.595151364391,-33.4116848311084],[-70.5960493429564,-33.4114929910536],[-70.5967509771377,-33.4110510788512],[-70.5970637944914,-33.4109749034847],[-70.5970646669521,-33.4109750410547],[-70.597434884093,-33.4110332545536],[-70.5979742085077,-33.4113058776993],[-70.5985662696958,-33.4114515604389],[-70.5985666427057,-33.4114512598284],[-70.5985677866531,-33.4114515417904],[-70.5993062676051,-33.410855826065],[-70.5995771874434,-33.4107350944741],[-70.6003824994019,-33.4106705954472],[-70.6006209494276,-33.4103158024977],[-70.6010949118524,-33.410120298485],[-70.601236924624,-33.4097667482605],[-70.6005461315054,-33.4089279353826],[-70.6001299748856,-33.4080945942597],[-70.5997544573685,-33.4078469237529]]]},"properties":{"FID":2,"Nombre":"Intrusivo Hipabisal","Codigo_Nom":"Mh","Unidad":"Pórfido andesítico","Edad":"\"21 millones de años aproximadamente\n(Mioceno)\"","Descripcio":"\"Las rocas de esta unidad se formaron en profundidad, tras el enfriamiento del magma en los conductos alimentadores de los volcanes o sus cámaras magmáticas hace unos 21 millones de años atrás. \nEstas rocas intrusivas se componen en su totalidad de c","Enlace":"https://geoparquemet.sernageomin.cl/terms/unidad-intrusiva-hipabisal/","Shape__Area":272794.73046875,"Shape__Length":2510.5714685087119}},{"type":"Feature","id":3,"geometry":{"type":"MultiPolygon","coordinates":[[[[-70.6156736458935,-33.4142334633009],[-70.6156339088829,-33.4143570138276],[-70.615636953072,-33.4143488756912],[-70.6156478880761,-33.4143144815395],[-70.6156631672134,-33.4142664248071],[-70.6156736458935,-33.4142334633009]]],[[[-70.6067885472129,-33.4003794194078],[-70.6068299427716,-33.4006809667957],[-70.6068444711357,-33.4008210812909],[-70.6068535370176,-33.4009426561891],[-70.6068700086449,-33.4010956327801],[-70.6068914938323,-33.4012428168458],[-70.6068989592955,-33.4013701382356],[-70.6069430707583,-33.4016955102933],[-70.6069549421044,-33.4018767027455],[-70.606956550744,-33.4019640664656],[-70.606956611274,-33.4019673537852],[-70.6069763558243,-33.4021208290389],[-70.6069765314546,-33.4021221921475],[-70.6069678835451,-33.4022670113913],[-70.6069678335616,-33.4022678588652],[-70.6069726106712,-33.402372785425],[-70.6069740876034,-33.4024529938531],[-70.6069741481186,-33.4024562802708],[-70.6069758885854,-33.4025508001676],[-70.6069759491175,-33.4025540874869],[-70.6069724138846,-33.4026710530435],[-70.6069703083712,-33.4027923216878],[-70.6069508238481,-33.4030435674716],[-70.6069356474872,-33.4031463671308],[-70.6069039768843,-33.4032804000832],[-70.6068491128909,-33.4033908735148],[-70.6067768770194,-33.4034848662781],[-70.6066913275791,-33.4035894972725],[-70.6066438659107,-33.4037263554245],[-70.6066042782515,-33.4040381412866],[-70.6066041120481,-33.4040394511049],[-70.6066369934554,-33.4043261146786],[-70.6066380001972,-33.4043348918584],[-70.6066843977869,-33.4045371107673],[-70.6067295675402,-33.4046438417764],[-70.6068071696766,-33.4047157980439],[-70.6068606995536,-33.4047800072546],[-70.6069299457937,-33.4048325595049],[-70.6070267192923,-33.404867983621],[-70.6071384845366,-33.4049100313288],[-70.6072049983379,-33.4049378038406],[-70.6072670671525,-33.4049713596793],[-70.6073663866378,-33.4050502452894],[-70.6074239051388,-33.4050838609096],[-70.607508974736,-33.4051304802089],[-70.6075917686809,-33.4051771307428],[-70.6077155905179,-33.4052270651634],[-70.6078557627745,-33.4052996951192],[-70.6079350263933,-33.4054017486983],[-70.6079607480625,-33.4054533530373],[-70.6079633864694,-33.4054586477978],[-70.6079702019834,-33.4055847734819],[-70.6079702931531,-33.4055864533261],[-70.6079682807354,-33.4056933787765],[-70.6079695829029,-33.4057640434474],[-70.6079696434797,-33.4057673307633],[-70.6079730658544,-33.4058758532601],[-70.6079776906056,-33.4059597634411],[-70.6079847866271,-33.4060523253836],[-70.6079848743289,-33.4060534668754],[-70.6079837498456,-33.4061431061034],[-70.6079837223331,-33.4061453475272],[-70.6079873581055,-33.4061882504274],[-70.6079883305861,-33.4062410223932],[-70.6079883911814,-33.4062443106105],[-70.6079951121574,-33.4063002970615],[-70.6080052722069,-33.4063884525796],[-70.6080149475945,-33.4064503654854],[-70.6080223071425,-33.4065409426638],[-70.608030868073,-33.4066195738537],[-70.6080325714935,-33.4066495162356],[-70.6080329717522,-33.4066565318544],[-70.6080442283058,-33.4067022488944],[-70.6081341181831,-33.4068373188092],[-70.6082553077883,-33.4070822532558],[-70.6083470521408,-33.4072361626918],[-70.6085041684859,-33.4074637883108],[-70.6087083851896,-33.4077385254151],[-70.6089974845998,-33.4082191580866],[-70.6091266735131,-33.4085906715974],[-70.6091831531147,-33.4088762713598],[-70.6092732368721,-33.409132804482],[-70.609379859541,-33.4093604877984],[-70.6094400664353,-33.4095499590977],[-70.6094432879958,-33.4095600981373],[-70.6094459997567,-33.4097071002891],[-70.6094460604149,-33.4097103885022],[-70.6093909487532,-33.4099616456663],[-70.6093358357287,-33.4102129028195],[-70.6093044488457,-33.4103559923998],[-70.6093043427284,-33.4103564771613],[-70.6093167049579,-33.4105639097483],[-70.6093202086929,-33.4107538515982],[-70.6093202693321,-33.4107571389094],[-70.6092970523955,-33.4110601787105],[-70.6092852494236,-33.4111915671669],[-70.6092842794452,-33.4113317649007],[-70.6092093021893,-33.4115087131041],[-70.6091331685566,-33.4116230418836],[-70.6090979837881,-33.4117244977621],[-70.6090237885133,-33.4118630724684],[-70.6089590373125,-33.4120160261634],[-70.6089051168202,-33.412177788264],[-70.6088679299917,-33.412282663659],[-70.6088282750842,-33.4124313254774],[-70.6088280115684,-33.4124323137013],[-70.6088581401075,-33.4126460451378],[-70.6088607468673,-33.4126645350547],[-70.6090883583034,-33.4128572098164],[-70.6092093930716,-33.4128753816834],[-70.609309519799,-33.4128740826016],[-70.6093868382542,-33.4128702151541],[-70.6094425387315,-33.4128666290739],[-70.6095335813274,-33.4128664036323],[-70.6096154858499,-33.4128643857191],[-70.6097041996086,-33.4128613252389],[-70.6097951893314,-33.4128582351562],[-70.6098804368223,-33.4128523562061],[-70.6099736838331,-33.4128482834531],[-70.610046207637,-33.4128488075479],[-70.6100681573854,-33.4128489654243],[-70.6101384027327,-33.4128605124301],[-70.6101491908828,-33.4128630300961],[-70.6101997383211,-33.4128748291672],[-70.6102243222779,-33.4128834706653],[-70.6102678878242,-33.4128987837198],[-70.610292841944,-33.4129127971482],[-70.610345838413,-33.4129425605126],[-70.6104287118278,-33.4129930244862],[-70.6105048641799,-33.4130493023339],[-70.610562600606,-33.4130943650379],[-70.6106898742825,-33.4132072464689],[-70.6107502734657,-33.4132732737646],[-70.6108200222559,-33.413352540312],[-70.6108672964902,-33.4134473713061],[-70.6108840378924,-33.4134910588807],[-70.610917517491,-33.4135784322593],[-70.6109440997929,-33.4136620786382],[-70.6109567826786,-33.4137325421279],[-70.610985429602,-33.4138047083571],[-70.6110761180466,-33.4139085204007],[-70.6111658549509,-33.4139608020834],[-70.6112514288488,-33.4140341388406],[-70.6113301406635,-33.4141056536921],[-70.6113904352085,-33.4141659553474],[-70.6114573110328,-33.4142128071545],[-70.6114782326094,-33.4142193432936],[-70.6115511763613,-33.414242130073],[-70.6116406318524,-33.4142791460669],[-70.6116511953905,-33.4142863741014],[-70.6117282356183,-33.4143390926954],[-70.6118094346116,-33.4144220282268],[-70.6118720762428,-33.4144861166069],[-70.6119392347076,-33.4145482361622],[-70.6120405976242,-33.4146137303991],[-70.612107438911,-33.414658675808],[-70.6121740675456,-33.4146921697241],[-70.6122500108697,-33.4147369958407],[-70.6123238556946,-33.4147913933187],[-70.6124204212464,-33.4148435861908],[-70.6124297690359,-33.4148466454422],[-70.612532634725,-33.4148803065607],[-70.6125738041883,-33.4148904751935],[-70.6125987597859,-33.4148986424178],[-70.6127382460836,-33.4149330979141],[-70.6128591735661,-33.4149487054285],[-70.6129749520305,-33.4149683172011],[-70.6129847590042,-33.4149699789058],[-70.6131282681939,-33.4149757474521],[-70.6131966440564,-33.4149805847949],[-70.6132612118856,-33.414984775414],[-70.613294639228,-33.4149869451197],[-70.6134475317491,-33.4150078638316],[-70.6135555615942,-33.4150294128956],[-70.613565507886,-33.4150313965006],[-70.6136110572177,-33.4150327112996],[-70.6136610505706,-33.4150282434106],[-70.6136973203879,-33.4150201365831],[-70.6137357955995,-33.4150081826785],[-70.6137741638044,-33.4149905034978],[-70.6138124613837,-33.4149690077538],[-70.6138643786915,-33.414945425594],[-70.613895955148,-33.4149297430341],[-70.6139464431816,-33.4149212112357],[-70.6139874914278,-33.4149099407316],[-70.6140451764964,-33.4149004557893],[-70.6140584074543,-33.4148982806322],[-70.6141072776539,-33.4149080897119],[-70.6141198082154,-33.4149106041902],[-70.6141696114069,-33.4149111491713],[-70.6142023681232,-33.4149131091158],[-70.6142563270038,-33.4149076343344],[-70.6143126660248,-33.4148770755574],[-70.6143692047331,-33.4148572505091],[-70.6144242106691,-33.414831480646],[-70.6144580365144,-33.4148143374529],[-70.614493328879,-33.4147995614181],[-70.6145285770746,-33.4147823996914],[-70.6145860189676,-33.4147537428368],[-70.6146483784208,-33.4147409997594],[-70.6146893602244,-33.4147261496033],[-70.6147897021062,-33.4146902443372],[-70.6148379723771,-33.4146848433672],[-70.6148534067039,-33.4146846424155],[-70.6148770075912,-33.4146843351333],[-70.6148792180241,-33.4146843063533],[-70.6149101380167,-33.4146922538647],[-70.6149445398845,-33.4146964738377],[-70.614976851702,-33.4146985701376],[-70.6150057860488,-33.4147004488752],[-70.6150525676772,-33.4146914878202],[-70.6151034155111,-33.4146717365447],[-70.6151469106809,-33.4146389583884],[-70.6151820703112,-33.4146170242167],[-70.6152257862839,-33.4145961735398],[-70.6152596118731,-33.4145790301349],[-70.6153047049107,-33.4145557743384],[-70.6153555757865,-33.4145372166914],[-70.6154049811631,-33.4145162918542],[-70.6154742312583,-33.4144915273368],[-70.6155166120153,-33.4144754664633],[-70.6156806981312,-33.4142112836813],[-70.6156826592965,-33.4142051130274],[-70.6157032050804,-33.4141468131764],[-70.6157232072554,-33.4140900526219],[-70.6157525087443,-33.4139822956773],[-70.6157841688214,-33.4138482600773],[-70.6158628877007,-33.4137971276843],[-70.6159388511978,-33.4137508018506],[-70.6159862359417,-33.4136976895514],[-70.6160618015326,-33.4136298934201],[-70.6161373670064,-33.4135620972457],[-70.6161934613823,-33.4135184164095],[-70.6162295123236,-33.4134678397643],[-70.6162598737774,-33.4134173354448],[-70.6162900771367,-33.4133582422935],[-70.6163051571387,-33.4133122334419],[-70.6163269212848,-33.4132335361316],[-70.6163267787393,-33.4132305438954],[-70.6163042116326,-33.4127562650677],[-70.6163038699589,-33.4127490836944],[-70.6163039495513,-33.4127487363523],[-70.6164400233722,-33.4121520979023],[-70.6166355206934,-33.4116692025891],[-70.6167999950492,-33.4114651206481],[-70.6169032803607,-33.4112812364428],[-70.6170172426749,-33.4109826807352],[-70.6170504696663,-33.4107030726053],[-70.6170582961289,-33.4104345328592],[-70.617058154254,-33.4104340143496],[-70.6170547284195,-33.4104214901269],[-70.6169987839118,-33.4102169796683],[-70.6169979517067,-33.4102071794458],[-70.6169878625539,-33.4100882704505],[-70.6169851223127,-33.4100767644783],[-70.6169462130602,-33.4099134342852],[-70.6169459019514,-33.409907207557],[-70.6169326402955,-33.4096415958817],[-70.616929320533,-33.4096238260949],[-70.6168852653654,-33.4093880914135],[-70.6168364100686,-33.4092849323398],[-70.616808356535,-33.4091528697138],[-70.6168084251836,-33.409150191268],[-70.616808429501,-33.4091500180592],[-70.6168133094628,-33.4089595290821],[-70.6168131824093,-33.4089588236988],[-70.6168099135039,-33.4089406618464],[-70.6167895229239,-33.4088274108247],[-70.6167895067049,-33.4088269997989],[-70.6167812112819,-33.4086091891716],[-70.6167580426349,-33.4084336340281],[-70.6167567448623,-33.4084303321866],[-70.6166684683552,-33.4082057351415],[-70.616596159555,-33.4079883484224],[-70.6165323184201,-33.4077672728113],[-70.6165290245003,-33.4077484511285],[-70.6164798173376,-33.4074673064476],[-70.6164797376261,-33.4074670666961],[-70.6164301018948,-33.407317628125],[-70.6164274243863,-33.4073006183106],[-70.6164059187471,-33.407164039485],[-70.6163601622956,-33.4067673470647],[-70.6163578261732,-33.4067573292449],[-70.6163277122382,-33.4066281836677],[-70.6162224671677,-33.4064756493891],[-70.616152511195,-33.406308340395],[-70.6161514105062,-33.4062946603491],[-70.616137731166,-33.4061248027183],[-70.6161352634877,-33.4061170844859],[-70.6160259977802,-33.4057754999013],[-70.615975303762,-33.4056496957711],[-70.6158866181512,-33.405469505249],[-70.6158351725193,-33.405303148032],[-70.6157847441259,-33.4051916579045],[-70.6157508071624,-33.4050489324724],[-70.6157507976339,-33.4050458627444],[-70.615750791667,-33.4050439725725],[-70.6157502504457,-33.404865209435],[-70.6157501993731,-33.4048650062851],[-70.6157468793024,-33.4048519566642],[-70.6157072945578,-33.4046963543971],[-70.6156756300203,-33.4045967242628],[-70.6156736374411,-33.4045819655033],[-70.6156294691663,-33.4042549196922],[-70.6156232150714,-33.4041476257484],[-70.6156036322817,-33.4040118720739],[-70.6155965181228,-33.4038580608557],[-70.6155965283886,-33.4038562922199],[-70.6155974712836,-33.4036790897342],[-70.6155994854733,-33.4035573714337],[-70.6156010359286,-33.403410604337],[-70.6156033151237,-33.4033032001437],[-70.6156032542817,-33.4032999137405],[-70.6156012614909,-33.4031922720855],[-70.615609952852,-33.4029702501803],[-70.6156288334362,-33.4028375758341],[-70.6156494620339,-33.4025688681661],[-70.6156494011919,-33.4025655817625],[-70.6156473421665,-33.4024543624705],[-70.6156688992099,-33.4022357523701],[-70.6156687324443,-33.4022335396302],[-70.6156575838656,-33.40208557432],[-70.6156509336381,-33.4019568118565],[-70.6156508727807,-33.401953524551],[-70.6156484163447,-33.4018208358786],[-70.6156450530847,-33.4018030638882],[-70.6156247664129,-33.4016958714929],[-70.6156247408755,-33.4016944920147],[-70.6156247055571,-33.4016925841872],[-70.6156217855095,-33.4015348485093],[-70.6156217246375,-33.4015315603019],[-70.6156194007939,-33.4014060295783],[-70.6156450906558,-33.4011802068438],[-70.6156448023175,-33.4011789191682],[-70.6156413975374,-33.4011637233634],[-70.6155939234234,-33.4009518065552],[-70.6155521493478,-33.4007698114983],[-70.6155164965294,-33.4006879551814],[-70.6154769747584,-33.4006276246866],[-70.6154205208229,-33.4005746716455],[-70.615302586859,-33.4005327405323],[-70.6152224566314,-33.4005070597138],[-70.6150355649033,-33.4004923111128],[-70.6147989707851,-33.4004973001956],[-70.6146286056598,-33.4005147893812],[-70.614428591831,-33.4005288466979],[-70.6141921023113,-33.4005395581282],[-70.6139780483683,-33.4005327990195],[-70.6137615787162,-33.4005184351056],[-70.613615818752,-33.4005126952506],[-70.6134463841387,-33.4004881757381],[-70.6132192740638,-33.4003598920356],[-70.6130637072113,-33.4002545394008],[-70.6129189447345,-33.4001180264762],[-70.6127826714824,-33.3999790185505],[-70.6126317365243,-33.3998163384223],[-70.6124866669294,-33.3996631251093],[-70.6123390191251,-33.3995242645066],[-70.6121169728928,-33.3993417214321],[-70.6120815986422,-33.3992665313215],[-70.6117879062148,-33.398844425422],[-70.6115371691568,-33.3986687246798],[-70.6112360784881,-33.398527798443],[-70.6110156466085,-33.3984218534131],[-70.6108612682331,-33.3983188696129],[-70.6106265531059,-33.3981787483818],[-70.6103997901089,-33.3980996104033],[-70.6100207287846,-33.3980300835365],[-70.6097720950262,-33.3979989490152],[-70.6091259989328,-33.3980111483294],[-70.6087625600078,-33.3980483144297],[-70.6084905874903,-33.3981091077085],[-70.6082299189665,-33.3981659354745],[-70.6080801051833,-33.3981869675831],[-70.6078825816796,-33.3982124344427],[-70.6076145605174,-33.3982407228301],[-70.6074349922512,-33.3982525946626],[-70.6072899422905,-33.3982555904444],[-70.6071720123635,-33.3982724792757],[-70.607084264015,-33.3982962846287],[-70.6070109124317,-33.398329447597],[-70.6069095796217,-33.3983880260474],[-70.6068141777641,-33.398459652065],[-70.6067697930966,-33.398521073107],[-70.6067400445921,-33.3986049732057],[-70.6067166442654,-33.3987245814685],[-70.6067056387771,-33.3988972368054],[-70.6067056078844,-33.3988977196895],[-70.6067106861698,-33.3990536792971],[-70.6067109517251,-33.3990618555383],[-70.6067413693121,-33.3991688354524],[-70.6067680840715,-33.3993029166812],[-70.6067706748491,-33.3993159183077],[-70.606777484521,-33.3993685110376],[-70.6067786336907,-33.3993773774645],[-70.6067902345031,-33.399430676506],[-70.6067935500916,-33.3994459044028],[-70.6067947280544,-33.3995098908566],[-70.6067947885561,-33.3995131772762],[-70.6067961509664,-33.3995871825751],[-70.6067962114849,-33.3995904698963],[-70.6067923368823,-33.3997508661489],[-70.6067949114264,-33.3998907125355],[-70.6067949719455,-33.3998939998565],[-70.6068025543233,-33.400031077665],[-70.6068026478922,-33.4000327728121],[-70.6067999259001,-33.4001630904238],[-70.6068019998013,-33.4002757402172],[-70.6068020603382,-33.4002790284396],[-70.6067887411669,-33.4003779820701],[-70.6067885472129,-33.4003794194078]]],[[[-70.6146143560085,-33.4066095195254],[-70.6146224049169,-33.4066688755549],[-70.6146486432216,-33.4067031311827],[-70.6146887729627,-33.4067193126396],[-70.6147371702228,-33.4067210689037],[-70.6147678313859,-33.406717567454],[-70.6147967114614,-33.4067100336235],[-70.614812923402,-33.406706084465],[-70.6148508206667,-33.4067037189005],[-70.6149172710148,-33.4066971262487],[-70.6149680977181,-33.4066764212159],[-70.6150238327685,-33.4066441998348],[-70.615076419506,-33.4066263342727],[-70.6151139643668,-33.4066258454294],[-70.6151586799843,-33.4066438744079],[-70.6152092037496,-33.4066990528489],[-70.6152632477801,-33.4067599102867],[-70.6152999080413,-33.4068038140846],[-70.6153239857779,-33.4068135235548],[-70.615399208135,-33.4068197018535],[-70.6154372830407,-33.4068478384154],[-70.6154371389438,-33.4068509741739],[-70.6154373439181,-33.4068511266203],[-70.6154349112035,-33.406904129472],[-70.6154289328348,-33.406950021524],[-70.6154279027066,-33.4069809192316],[-70.6154319294987,-33.4070197097897],[-70.6154462976981,-33.4070581762844],[-70.6154488793253,-33.4071053880723],[-70.6154666872783,-33.4071452436871],[-70.6154810025319,-33.4071808484371],[-70.6154828710783,-33.4072174215269],[-70.6154827953529,-33.4072180357619],[-70.6154779240753,-33.4072575725838],[-70.6154671654653,-33.4072911185229],[-70.6154418629357,-33.4073382154786],[-70.6154243839058,-33.4073775755964],[-70.6153901734368,-33.4074352877296],[-70.6153759309141,-33.4074650615575],[-70.6153547206121,-33.4074872884691],[-70.6153335092579,-33.4075095171946],[-70.6153181999837,-33.4075431223812],[-70.6152996177272,-33.4075844051343],[-70.6152797037895,-33.4076152078496],[-70.6152539417996,-33.4076374958199],[-70.6152304555944,-33.4076597523471],[-70.6151955040754,-33.4076773874486],[-70.6151707911163,-33.4076948901259],[-70.6151358218962,-33.4077115703966],[-70.615104370795,-33.4077339324131],[-70.6150693309007,-33.407746796112],[-70.6150267762433,-33.4077597991274],[-70.6149961443134,-33.4077763435266],[-70.6149214972492,-33.4078166868585],[-70.6148669373144,-33.4078663118744],[-70.614833020229,-33.4078937165309],[-70.6147764860816,-33.4079135416733],[-70.6147379987684,-33.4079092692716],[-70.6146922897953,-33.4078991270195],[-70.6146561182569,-33.4078785048139],[-70.6145630700956,-33.4078930784933],[-70.6144767434446,-33.407901836154],[-70.6143510620448,-33.407874839488],[-70.614234447679,-33.4078458155113],[-70.6140992051581,-33.4077941253689],[-70.6140001942861,-33.4077324204133],[-70.6139232326406,-33.4076322501421],[-70.6138463771034,-33.4075378069048],[-70.613841049934,-33.407495879482],[-70.6138018014761,-33.407465848508],[-70.6137808369044,-33.4074398732972],[-70.6137789072562,-33.4074124582159],[-70.6137610029698,-33.4073673558133],[-70.6137550066396,-33.4073316281995],[-70.613754609084,-33.4073292606391],[-70.6137708588288,-33.4072849052297],[-70.6137968481281,-33.4072346603713],[-70.6137969530033,-33.4072344587991],[-70.613794780676,-33.4071939224442],[-70.6137882323755,-33.4071474782714],[-70.613763176853,-33.4070982690486],[-70.6137467326861,-33.4070397842278],[-70.6137170053394,-33.4070015164325],[-70.6136806115314,-33.4069719244465],[-70.6136593637019,-33.406930682093],[-70.613646597554,-33.4068864678725],[-70.6136389664575,-33.4068275752906],[-70.6136386329658,-33.4068250084921],[-70.6136728042693,-33.4067343694648],[-70.6137124917626,-33.4066651323043],[-70.6137575366971,-33.4066087126825],[-70.6138532242182,-33.4065215678468],[-70.6139506175764,-33.4064343998428],[-70.6140212614542,-33.4063776452547],[-70.6141278498714,-33.4063261504741],[-70.6142688874659,-33.4062913863925],[-70.6144067225647,-33.4062681171583],[-70.6145344781129,-33.4062535698611],[-70.6146944726318,-33.406228580673],[-70.6147355522575,-33.4062354996158],[-70.6147885709591,-33.4062685850338],[-70.614830482421,-33.4063195794022],[-70.6148305432743,-33.4063228676084],[-70.6148314007102,-33.4063691991274],[-70.6148314615469,-33.4063724864319],[-70.6148163807449,-33.4064184960568],[-70.6147705024221,-33.4064509894496],[-70.6147152650517,-33.4064597835404],[-70.6146784445252,-33.4064686147426],[-70.6146445766547,-33.4064833713466],[-70.614625197153,-33.4065122578167],[-70.6146175686124,-33.4065612718329],[-70.6146143560085,-33.4066095195254]]]]},"properties":{"FID":3,"Nombre":"Intrusivo Hipabisal","Codigo_Nom":"Mh","Unidad":"Pórfido andesítico","Edad":"\"21 millones de años aproximadamente\n(Mioceno)\"","Descripcio":"\"Las rocas de esta unidad se formaron en profundidad, tras el enfriamiento del magma en los conductos alimentadores de los volcanes o sus cámaras magmáticas hace unos 21 millones de años atrás. \nEstas rocas intrusivas se componen en su totalidad de c","Enlace":"https://geoparquemet.sernageomin.cl/terms/unidad-intrusiva-hipabisal/","Shape__Area":1786874.85546875,"Shape__Length":6739.392142409054}},{"type":"Feature","id":4,"geometry":{"type":"Polygon","coordinates":[[[-70.6017440334143,-33.3849848765519],[-70.6018439837449,-33.385077081155],[-70.601844304106,-33.3850773746272],[-70.6018616046113,-33.3850768085899],[-70.6020176985318,-33.3850653980301],[-70.6020816893784,-33.3851100977259],[-70.60272517707,-33.38516764127],[-70.6035150703169,-33.3853573816914],[-70.6036365605258,-33.3853675536195],[-70.6041263514922,-33.3857506351093],[-70.6041845552642,-33.3858367263611],[-70.6044963157071,-33.3862978651493],[-70.6045736363182,-33.3864227442927],[-70.6041450667226,-33.3869356921126],[-70.6032109029298,-33.3871752243988],[-70.6026165345053,-33.3873382114112],[-70.6023271237272,-33.3875791234395],[-70.6022703483269,-33.387604121546],[-70.6021979236643,-33.387622038429],[-70.602143663214,-33.3876354622375],[-70.6020430892705,-33.3876446302893],[-70.6019765984926,-33.387648352102],[-70.6018401793078,-33.3876544096791],[-70.6017531087691,-33.3876526694537],[-70.6016848597693,-33.3876535504604],[-70.6016166632734,-33.3876572940987],[-70.6015519054813,-33.3876624254392],[-70.6015075003046,-33.3876774000924],[-70.6014927905244,-33.3876883624478],[-70.6014659726076,-33.3876994459061],[-70.6014205381573,-33.3877036117147],[-70.6013864136158,-33.3877040512303],[-70.6013608207755,-33.3877043824318],[-70.6013209865779,-33.3877037024807],[-70.6012967489822,-33.3877004367697],[-70.6012327001586,-33.3876976848163],[-70.6011999975776,-33.3876981068322],[-70.6011559631666,-33.3877010604391],[-70.6011373925578,-33.3876965284324],[-70.6011016492355,-33.3876862514325],[-70.6010304032157,-33.387678819699],[-70.6009782822317,-33.3876748486313],[-70.6009750884518,-33.3876868194005],[-70.6009702054466,-33.3876997688193],[-70.6009641076352,-33.3877084375386],[-70.6009534143359,-33.3877147783764],[-70.6009415762718,-33.3877206587131],[-70.6009127623226,-33.3877315297206],[-70.6008851040399,-33.3877433390576],[-70.6008563261442,-33.3877561187857],[-70.6008309421162,-33.3877678996708],[-70.600782415435,-33.3877895224087],[-70.6007474063301,-33.3878038146263],[-70.6007265641899,-33.3878150598215],[-70.6006847049429,-33.3878280064652],[-70.6006536068667,-33.3878384307072],[-70.6006207254285,-33.3878445815731],[-70.6005969344015,-33.3878501371909],[-70.6005787688882,-33.3878522807181],[-70.600554356836,-33.3878549818934],[-70.6005367609429,-33.3878571171648],[-70.6005226293973,-33.3878642093608],[-70.6005080764981,-33.3878763491869],[-70.6004756361885,-33.3878910843664],[-70.6004517702125,-33.3879080952145],[-70.6004236613345,-33.3879263548229],[-70.6003873923484,-33.3879649993884],[-70.6003392385856,-33.3880069816329],[-70.6003214577713,-33.388030117741],[-70.6003116575558,-33.3880541041643],[-70.6002985673276,-33.3880848165678],[-70.6002832727406,-33.3881193730923],[-70.6002588418189,-33.3881521391499],[-70.6002466798974,-33.3881713852846],[-70.6002230888055,-33.3881879154707],[-70.6001951240381,-33.3882140462481],[-70.6001804768919,-33.3882218701362],[-70.6001626785119,-33.3882440523003],[-70.6001300408286,-33.38827131742],[-70.6001063633255,-33.3882830761526],[-70.6000839289575,-33.3883005464463],[-70.6000661480175,-33.3883236825205],[-70.6000416306,-33.3883516771059],[-70.6000124750767,-33.388374960753],[-70.5999776152554,-33.3883973610953],[-70.5999528519403,-33.388411997148],[-70.5999326742853,-33.3884284832652],[-70.5999227340744,-33.3884448373741],[-70.5999027312419,-33.3884708654229],[-70.5998938068499,-33.3884805255882],[-70.5998856516759,-33.3884934432069],[-70.59987462678,-33.3885126755473],[-70.5998571265671,-33.38855107976],[-70.5998371761421,-33.3885799704702],[-70.5998171032936,-33.3886021801089],[-70.5997813149623,-33.3886360484644],[-70.5997352715979,-33.3886690921735],[-70.5997062207802,-33.3886981010954],[-70.599685115656,-33.3887260525206],[-70.5996642552516,-33.3887673624738],[-70.5996455292528,-33.3888010090128],[-70.5996301458526,-33.3888307967638],[-70.5996132931295,-33.388842467419],[-70.5995988556145,-33.3888617428292],[-70.5995730598469,-33.3888821188132],[-70.5995550874224,-33.3888947571422],[-70.5995351215365,-33.3889110763315],[-70.5994947639147,-33.3889448240445],[-70.5994292945288,-33.3890043670676],[-70.599382988955,-33.389038608068],[-70.5993553467543,-33.3890668826906],[-70.5993236352385,-33.3891059461848],[-70.5993089349299,-33.3891419288616],[-70.5992976329028,-33.3891771498686],[-70.5992936813277,-33.3892409105071],[-70.5992908718096,-33.3892738756659],[-70.5992976168464,-33.3893160228739],[-70.5993084052312,-33.3893614583856],[-70.5993707045552,-33.3894083781115],[-70.5994262837584,-33.3894611102236],[-70.5994975088628,-33.389498371536],[-70.5995685580964,-33.3895260881783],[-70.5996258185104,-33.3895463484588],[-70.5996693588808,-33.3895629663005],[-70.5997106938649,-33.3895834327613],[-70.5997499632557,-33.3896153774242],[-70.5997868884419,-33.3896435348038],[-70.5998444986553,-33.3896828788487],[-70.5999078128781,-33.3897354632018],[-70.5999305446251,-33.3897652365792],[-70.6000149391602,-33.3898070985097],[-70.6000904871068,-33.3898318934851],[-70.6001506530011,-33.3898554564686],[-70.6002656283346,-33.3898897650183],[-70.6003343513703,-33.3899146496697],[-70.6004382569523,-33.389935298151],[-70.6005205515164,-33.3899557121695],[-70.6006061012077,-33.3899674932001],[-70.600693200301,-33.3899706650456],[-70.6008672924334,-33.3899712823269],[-70.6010123522529,-33.3899708427622],[-70.6011522926975,-33.3899704681895],[-70.6012494981647,-33.3899663504089],[-70.6014627825266,-33.3899635986136],[-70.6016331469918,-33.3899470828582],[-70.6017369411289,-33.389929993238],[-70.6019581258883,-33.3898927784561],[-70.6020210220082,-33.3898790817796],[-70.6021262720369,-33.3898018436833],[-70.6021708090725,-33.3897487733253],[-70.6021866022455,-33.3896793711215],[-70.6021994201284,-33.3896028494221],[-70.6022310501906,-33.3894664334162],[-70.6022490305866,-33.3893612115891],[-70.6023118542088,-33.3891808437369],[-70.6023558655036,-33.3890991475486],[-70.6024019996604,-33.3890245818428],[-70.6024569486911,-33.3889188825481],[-70.6024726101611,-33.3888423231912],[-70.6024875595017,-33.3887476406101],[-70.6024861935085,-33.3886732103587],[-70.6025237121698,-33.3886097321875],[-70.6026277666094,-33.388575936387],[-70.6027686065106,-33.3885626647071],[-70.6030816089489,-33.3885070800277],[-70.6033055371761,-33.3884335572142],[-70.603425340031,-33.3883900130714],[-70.6036071654781,-33.3883317094516],[-70.6037489688212,-33.3883089972707],[-70.603869060494,-33.3882656888617],[-70.6039251137413,-33.3882202248644],[-70.6040339933056,-33.388147233743],[-70.6040726012251,-33.3881198904347],[-70.6041288185852,-33.3880833704888],[-70.6041532080684,-33.3880562127781],[-70.6041845976543,-33.3880229961772],[-70.6042337599972,-33.3879895524905],[-70.6043153400177,-33.3879401788747],[-70.604375330658,-33.3879155413885],[-70.6044423762052,-33.3878878302608],[-70.6045093669197,-33.3878571374185],[-70.6046190127143,-33.3878258938287],[-70.6047534311891,-33.387788362274],[-70.6048486940263,-33.3877483564349],[-70.6049478958102,-33.3877291771917],[-70.6058145792485,-33.3875070728636],[-70.6058212849048,-33.3875053537489],[-70.6057511885061,-33.3870686778118],[-70.6056781283949,-33.3866564629005],[-70.6056048878171,-33.3863354227606],[-70.6057725491635,-33.3859321801124],[-70.6059163354196,-33.3857073075316],[-70.6059222697315,-33.3856980247354],[-70.6059220872018,-33.3856811428304],[-70.6059188992251,-33.3853886512094],[-70.6055541728873,-33.3851468058451],[-70.6047869594448,-33.3846715507632],[-70.6029820534477,-33.3839631340186],[-70.6019777517674,-33.383482970214],[-70.6012854349041,-33.3831418398325],[-70.6012683121389,-33.3831327898521],[-70.6012685658921,-33.3831420566132],[-70.6012685643047,-33.3831420872963],[-70.6012685841268,-33.3831428166309],[-70.6012043386921,-33.3834699916643],[-70.6012704193696,-33.3839744987971],[-70.6014343845216,-33.3845402817362],[-70.6017440334143,-33.3849848765519]]]},"properties":{"FID":4,"Nombre":"Intrusivo Hipabisal","Codigo_Nom":"Mh","Unidad":"Pórfido andesítico","Edad":"\"21 millones de años aproximadamente\n(Mioceno)\"","Descripcio":"\"Las rocas de esta unidad se formaron en profundidad, tras el enfriamiento del magma en los conductos alimentadores de los volcanes o sus cámaras magmáticas hace unos 21 millones de años atrás. \nEstas rocas intrusivas se componen en su totalidad de c","Enlace":"https://geoparquemet.sernageomin.cl/terms/unidad-intrusiva-hipabisal/","Shape__Area":240046.09765625,"Shape__Length":3233.9236635887646}},{"type":"Feature","id":5,"geometry":{"type":"Polygon","coordinates":[[[-70.6158817500405,-33.3817190302316],[-70.6162845730622,-33.3817646884532],[-70.6165038823428,-33.3817300166509],[-70.6167900221587,-33.381618118586],[-70.6171511624129,-33.3814607006338],[-70.6174896709379,-33.381309939125],[-70.617782684141,-33.3811597716426],[-70.6180306714651,-33.3810356413927],[-70.6183313815437,-33.3808917347572],[-70.6183337673422,-33.3808882793586],[-70.6184325732608,-33.3807451241925],[-70.618459338975,-33.3805974515126],[-70.6184521523166,-33.3804511126625],[-70.6183046655909,-33.3802685098421],[-70.6180892904865,-33.3801058804],[-70.6177607682666,-33.3799765407691],[-70.6172659015408,-33.3798748208798],[-70.6171795709959,-33.3798537597974],[-70.6166108396327,-33.3797754304018],[-70.616331135439,-33.3797724651847],[-70.6153910214823,-33.3797910691007],[-70.6151714834117,-33.3798130168819],[-70.6148037347996,-33.3799573292382],[-70.6148025267231,-33.3799578030934],[-70.6145865147571,-33.3801705937814],[-70.6145198195109,-33.3803765075373],[-70.6144788906411,-33.3805028692917],[-70.6145819332948,-33.3807433228118],[-70.6147080764319,-33.3810025648922],[-70.6148337508431,-33.3811208868866],[-70.6150013905621,-33.3812787187178],[-70.6153389100216,-33.3814843045822],[-70.6155617480913,-33.3816404782546],[-70.6158817500405,-33.3817190302316]]]},"properties":{"FID":5,"Nombre":"Intrusivo Hipabisal","Codigo_Nom":"Mh","Unidad":"Pórfido andesítico","Edad":"\"21 millones de años aproximadamente\n(Mioceno)\"","Descripcio":"\"Las rocas de esta unidad se formaron en profundidad, tras el enfriamiento del magma en los conductos alimentadores de los volcanes o sus cámaras magmáticas hace unos 21 millones de años atrás. \nEstas rocas intrusivas se componen en su totalidad de c","Enlace":"https://geoparquemet.sernageomin.cl/terms/unidad-intrusiva-hipabisal/","Shape__Area":86392.37109375,"Shape__Length":1122.8645361091455}},{"type":"Feature","id":6,"geometry":{"type":"Polygon","coordinates":[[[-70.600620076529,-33.3752567797518],[-70.5998388376559,-33.3754800256448],[-70.5995881638442,-33.375453708882],[-70.5995594994088,-33.3754506991325],[-70.5989810254759,-33.3753774486289],[-70.5989809167889,-33.3753774419127],[-70.5989801603798,-33.3753773416335],[-70.5977961698385,-33.3754323594502],[-70.5969220227755,-33.3755828022838],[-70.5966903910181,-33.37578554649],[-70.5961071380831,-33.3762815600578],[-70.5963674546118,-33.3765290091644],[-70.5976788331825,-33.3781625071422],[-70.5977384017866,-33.3783691642133],[-70.597683431928,-33.3800653373682],[-70.5977440490906,-33.3803351107792],[-70.5979995552819,-33.3807105949048],[-70.5985956810638,-33.3810546356729],[-70.5989071305454,-33.3811481132219],[-70.5989087767682,-33.3811486078648],[-70.599195843588,-33.3811017726895],[-70.5997345605264,-33.3807701656318],[-70.59974966439,-33.3807702631181],[-70.5997508857491,-33.3807695114692],[-70.5997514108563,-33.380769188153],[-70.600217137652,-33.3807722026778],[-70.6013425733063,-33.3808305094434],[-70.6030000388181,-33.3813690076965],[-70.6046395648421,-33.3820651877709],[-70.6056095100579,-33.3822272090984],[-70.6061674154918,-33.3823203992057],[-70.6062922467113,-33.3823412500558],[-70.607442584558,-33.3825188196313],[-70.6082618891749,-33.3828406421897],[-70.6086378191789,-33.3836495644019],[-70.6088854605866,-33.3838813978464],[-70.6092814260411,-33.3841756544692],[-70.6093805499403,-33.3842390335662],[-70.6093830334164,-33.3842406210616],[-70.6096656408339,-33.383949241167],[-70.6096690508357,-33.3839467980362],[-70.6096716213237,-33.3839440663845],[-70.6099972545971,-33.3837107743039],[-70.6102496916472,-33.3835113204791],[-70.6102551695452,-33.3835069927066],[-70.610420680474,-33.383228054613],[-70.6104675211038,-33.3826834104751],[-70.6105404592718,-33.3823610325111],[-70.6108853112765,-33.382224948857],[-70.6115096535248,-33.3821500303871],[-70.612153925919,-33.3819221385222],[-70.612671846097,-33.3816290735403],[-70.6126753549256,-33.3816252970264],[-70.6126778262659,-33.3816238995227],[-70.6130459433923,-33.381227790206],[-70.6133881363543,-33.380660216297],[-70.6133898154678,-33.3801352475953],[-70.6129047145392,-33.3797406845949],[-70.6126076141836,-33.3795114397987],[-70.6126070253328,-33.3795109857083],[-70.6125997976749,-33.379505408857],[-70.6124546198292,-33.379393387449],[-70.611778815966,-33.3791444648681],[-70.6110939305618,-33.379019735324],[-70.6102863992844,-33.3790302165844],[-70.6094779884615,-33.3789929812613],[-70.6087817326333,-33.3788683863354],[-70.6083691185258,-33.3787019330574],[-70.6077328961978,-33.3787483567211],[-70.6072469882249,-33.3789264517883],[-70.6069208379562,-33.3791311098534],[-70.606644568627,-33.3795737341797],[-70.6064818599272,-33.3800053445562],[-70.6064010478691,-33.3805599717616],[-70.6062031605294,-33.3809347693069],[-70.6059550386879,-33.3810525145304],[-70.6056426401292,-33.3804586333086],[-70.6049661208809,-33.3795511117109],[-70.6044869996483,-33.3788605577204],[-70.6043235616224,-33.3786336028348],[-70.6042812037656,-33.3781855578493],[-70.6048329012211,-33.3778729994214],[-70.6055095270604,-33.377549278218],[-70.6057208882997,-33.3772888421918],[-70.6058701539663,-33.3770109813235],[-70.6060421345875,-33.3766420811519],[-70.6060208210772,-33.3766423578797],[-70.6057562419393,-33.3759719250268],[-70.6055816733731,-33.3757096859028],[-70.6047439691151,-33.3752631767098],[-70.6036000781638,-33.374920042092],[-70.6023484196032,-33.3745617141429],[-70.6023461115348,-33.3745610531312],[-70.6023373601322,-33.3745585480719],[-70.6015364999062,-33.3748273835771],[-70.600620076529,-33.3752567797518]]]},"properties":{"FID":6,"Nombre":"Intrusivo Hipabisal","Codigo_Nom":"Mh","Unidad":"Pórfido andesítico","Edad":"\"21 millones de años aproximadamente\n(Mioceno)\"","Descripcio":"\"Las rocas de esta unidad se formaron en profundidad, tras el enfriamiento del magma en los conductos alimentadores de los volcanes o sus cámaras magmáticas hace unos 21 millones de años atrás. \nEstas rocas intrusivas se componen en su totalidad de c","Enlace":"https://geoparquemet.sernageomin.cl/terms/unidad-intrusiva-hipabisal/","Shape__Area":1103035.08984375,"Shape__Length":5987.8569270095422}},{"type":"Feature","id":7,"geometry":{"type":"Polygon","coordinates":[[[-70.5997746222892,-33.3624886162272],[-70.5997568711033,-33.3624936752898],[-70.5996998653516,-33.362491044284],[-70.5996990925481,-33.3624912165758],[-70.5994927139221,-33.3625345637786],[-70.5994915756607,-33.3625347921835],[-70.5994124040799,-33.3625843451601],[-70.5993698435438,-33.3626894174225],[-70.5993587553787,-33.3628127496465],[-70.5993986773576,-33.3629325513204],[-70.5994301110059,-33.3630656761901],[-70.5995106623361,-33.36311692269],[-70.5995336380242,-33.3631315395301],[-70.5996762367329,-33.3631446346179],[-70.5997741553506,-33.3631471053863],[-70.5999876440931,-33.3631443536898],[-70.6001564505149,-33.3631309785404],[-70.6002942613644,-33.3631254682499],[-70.6004361756481,-33.3631012403143],[-70.6005631108465,-33.3629876106767],[-70.6006005403673,-33.3628452732235],[-70.6006152528145,-33.3626770977376],[-70.6005054395401,-33.3625105261527],[-70.6000291889096,-33.3625057663614],[-70.6000202977694,-33.362502602763],[-70.5997746222892,-33.3624886162272]]]},"properties":{"FID":7,"Nombre":"Intrusivo Hipabisal","Codigo_Nom":"Mh","Unidad":"Pórfido andesítico","Edad":"\"21 millones de años aproximadamente\n(Mioceno)\"","Descripcio":"\"Las rocas de esta unidad se formaron en profundidad, tras el enfriamiento del magma en los conductos alimentadores de los volcanes o sus cámaras magmáticas hace unos 21 millones de años atrás. \nEstas rocas intrusivas se componen en su totalidad de c","Enlace":"https://geoparquemet.sernageomin.cl/terms/unidad-intrusiva-hipabisal/","Shape__Area":10769.66015625,"Shape__Length":394.24665153590627}}]}