{"type":"FeatureCollection","crs":{"type":"name","properties":{"name":"EPSG:4326"}},"features":[{"type":"Feature","id":1,"geometry":{"type":"Point","coordinates":[-70.6374050000066,-33.4285610000177]},"properties":{"FID":1,"CATEGORIA":"Geositio 1","POINT_X":347776.001092,"POINT_Y":6300002.63274,"ELEVACION":589.859985,"NOMBRE":"Caída de bloques de roca volcánica","ID_PUNTO":"PM-1","FOTO_2D":"PM1_IMG_6666, PM1_IMG_6667, PM1_DSC_0029, PM1_DSC_0030, PM1_DSC_0031, PM1_DSC_0032, PM1_DSC_0033, PM1_DSC_0034, PM1_DSC_0035, PM1_DSC_0036, PM1_DSC_0037, PM1_DSC_0038, PM1_DSC_0039, PM1_DSC_0040, PM1_DSC_0041, PM1_DSC_0042, PM1_DSC_0043","Foto_2D_In":"PENDIENTE","Foto_360":"PENDIENTE","Foto_360_I":"PENDIENTE","Modelo_3D":"Caida1_PM1","Modelo_3_1":"PENDIENTE","Video_3D_I":"PENDIENTE","Foto_Muest":"NO","Foto_Lupa_":"NO","Foto_3D_Mu":"NO","REPOSITORI":"X:\\07_UGP\\Proyectos\\00_GP_Parquemet\\GeoPARQUEMET_2020\\Georutas\\Fotos_GeorutaPioNonoTupahue\\Geositio2","UNIDAD_GEO":"OlMa","NOMBRE_UNI":"Formación Abanico","Name_Lito":"Toba de lapilli","Clase_Roca":"Andesítica","Muestra_Ma":"NO","DESC_Alt":"Roca con alteración de coloración blanca amarillenta ,pervasiva a arcillas y calcita","DESC_Geotc":"Afloramiento en mal estado, altamente fracturado, en diferentes direcciones, formando acuñamiento en bloques (aproximadamente de 120° entre planos de fractura), facilitando la probabilidad de caída","DESC_Struc":" "}},{"type":"Feature","id":2,"geometry":{"type":"Point","coordinates":[-70.637566000009,-33.4265060001024]},"properties":{"FID":2,"CATEGORIA":"Geositio 2","POINT_X":347757.443118,"POINT_Y":6300230.26703,"ELEVACION":620.348022,"NOMBRE":"Dique en rocas volcánicas","ID_PUNTO":"PM-2","FOTO_2D":"PM2_IMG_6668 a PM2_IMG_6677\nPM2_IMG_6651 a PM2_IMG_6653","Foto_2D_In":"PENDIENTE","Foto_360":"PENDIENTE","Foto_360_I":"PENDIENTE","Modelo_3D":"Dique2_PM2","Modelo_3_1":"PENDIENTE","Video_3D_I":"PENDIENTE","Foto_Muest":"NO","Foto_Lupa_":"NO","Foto_3D_Mu":"NO","REPOSITORI":"X:\\07_UGP\\Proyectos\\00_GP_Parquemet\\GeoPARQUEMET_2020\\Georutas\\Fotos_GeorutaPioNonoTupahue\\Geositio3","UNIDAD_GEO":"Mh","NOMBRE_UNI":"Intrusivos Hipabisales","Name_Lito":"Microdiorita","Clase_Roca":"Diorítica","Muestra_Ma":"NO","DESC_Alt":" ","DESC_Geotc":" ","DESC_Struc":"Orientación dique N27E/55NW"}},{"type":"Feature","id":3,"geometry":{"type":"Point","coordinates":[-70.6377328427857,-33.4207500917415]},"properties":{"FID":3,"CATEGORIA":"Geositio 3","POINT_X":347731.8785,"POINT_Y":6300868.2701,"ELEVACION":655,"NOMBRE":"Vegetación , roca y suelo","ID_PUNTO":"PM_I_03","FOTO_2D":"PM_I_03_3 a PM_I_03_8","Foto_2D_In":"PENDIENTE","Foto_360":"PENDIENTE","Foto_360_I":"PENDIENTE","Modelo_3D":"Raices1_PMI03, Raices2_PMI03","Modelo_3_1":"PENDIENTE","Video_3D_I":"PENDIENTE","Foto_Muest":"NO","Foto_Lupa_":"NO","Foto_3D_Mu":"NO","REPOSITORI":"X:\\07_UGP\\Proyectos\\00_GP_Parquemet\\GeoPARQUEMET_2020\\Georutas\\Fotos_GeorutaPioNonoTupahue\\Geositio5","UNIDAD_GEO":"¿OlMa?","NOMBRE_UNI":"Formación Abanico","Name_Lito":"Toba","Clase_Roca":"Andesítica","Muestra_Ma":"No","DESC_Alt":" ","DESC_Geotc":" ","DESC_Struc":" Estructuras paralelas a la superficie del suelo y otras subverticales rellenas de calcita y otros minerales."}},{"type":"Feature","id":4,"geometry":{"type":"Point","coordinates":[-70.6379000000107,-33.4203310000854]},"properties":{"FID":4,"CATEGORIA":"Geositio 4","POINT_X":347715.603497,"POINT_Y":6300914.49653,"ELEVACION":650.030029,"NOMBRE":"Cristales de piroxeno en roca intrusiva","ID_PUNTO":"PM-4","FOTO_2D":"PM4_IMG_6689 a PM4_IMG_6691","Foto_2D_In":"PENDIENTE","Foto_360":"PENDIENTE","Foto_360_I":"PENDIENTE","Modelo_3D":"Piroxeno1_PM4","Modelo_3_1":"PENDIENTE","Video_3D_I":"PENDIENTE","Foto_Muest":"PM4_DSC_0964, PM4_DSC_0974, PM_4_Muestra-Mano_1","Foto_Lupa_":"PM_4_L2_20x, PM_4_L10_20x, PM_4_L11_20x, PM_4_L12_20x, PM_4_L18_20x, PM_4_L31_45x, PM_4_L34_45x, PM_4_L49_45x","Foto_3D_Mu":"PENDIENTE","REPOSITORI":"X:\\07_UGP\\Proyectos\\00_GP_Parquemet\\GeoPARQUEMET_2020\\Georutas\\Fotos_GeorutaPioNonoTupahue\\Geositio7","UNIDAD_GEO":"Mh","NOMBRE_UNI":"Intrusivos Hipabisales","Name_Lito":"Microdiorita","Clase_Roca":"Diorítica","Muestra_Ma":"SI (4a, 4b)","DESC_Alt":"Color de alteración en cara externa es verde parduzco, con presencia de arcillas y cara fresca de color verdoso por probable alteración a clorita. Masa fundamental muy alterada y plagioclasas con alteración pervasiva a arcillas","DESC_Geotc":"Roca de bajo peso específico y muy frágil. Afloramiento altamente fracturado y meteorizado, con fracturas conjugadas en 90° aproximadamente ¿Caída de roca?","DESC_Struc":" "}},{"type":"Feature","id":5,"geometry":{"type":"Point","coordinates":[-70.637792000005,-33.4202210000519]},"properties":{"FID":5,"CATEGORIA":"Geositio 5","POINT_X":347725.453837,"POINT_Y":6300926.8521,"ELEVACION":650.617981,"NOMBRE":"Descomposición  de la roca en capas","ID_PUNTO":"PM-5","FOTO_2D":"PM5_IMG_6654 a PM5_IMG_6658, PM5_IMG_6695 a PM5_IMG_6697","Foto_2D_In":"PENDIENTE","Foto_360":"PENDIENTE","Foto_360_I":"PENDIENTE","Modelo_3D":"Meteo1_PM5, Meteo2_PM5 (sin escala)","Modelo_3_1":"PENDIENTE","Video_3D_I":"PENDIENTE","Foto_Muest":"NO","Foto_Lupa_":"NO","Foto_3D_Mu":"NO","REPOSITORI":"X:\\07_UGP\\Proyectos\\00_GP_Parquemet\\GeoPARQUEMET_2020\\Georutas\\Fotos_GeorutaPioNonoTupahue\\Geositio8","UNIDAD_GEO":"Mh","NOMBRE_UNI":"Intrusivos Hipabisales","Name_Lito":"Microdiorita","Clase_Roca":"Diorítica","Muestra_Ma":"NO","DESC_Alt":" ","DESC_Geotc":" ","DESC_Struc":" "}},{"type":"Feature","id":6,"geometry":{"type":"Point","coordinates":[-70.6275511997029,-33.4174062998731]},"properties":{"FID":6,"CATEGORIA":"Geositio 6","POINT_X":348672.8151,"POINT_Y":6301253.9102,"ELEVACION":710,"NOMBRE":"Contacto roca volcánica con roca intrusiva","ID_PUNTO":"PM_C_02","FOTO_2D":"PM-C-02_DSC_0240 a PM-C-02_DSC_0245, PM-C-02_DSC_0247, PM-C-02_DSC_0248, PM-C-02_DSC_0260, PM-C-02_DSC_0262, PM-C-02_DSC_0264","Foto_2D_In":"PENDIENTE","Foto_360":"PENDIENTE","Foto_360_I":"PENDIENTE","Modelo_3D":"Contacto1","Modelo_3_1":"PENDIENTE","Video_3D_I":"PENDIENTE","Foto_Muest":"NO","Foto_Lupa_":"NO","Foto_3D_Mu":"NO","REPOSITORI":"X:\\07_UGP\\Proyectos\\00_GP_Parquemet\\GeoPARQUEMET_2020\\Georutas\\Fotos_GeorutaPioNonoTupahue\\Geositio9","UNIDAD_GEO":"Mh, OlMa","NOMBRE_UNI":"Intrusivos Hipabisales, Formación Abanico","Name_Lito":"Microdiorita, Toba","Clase_Roca":"Diorítica, Andesítica","Muestra_Ma":"NO","DESC_Alt":" ","DESC_Geotc":" ","DESC_Struc":" "}},{"type":"Feature","id":7,"geometry":{"type":"Point","coordinates":[-70.6253510000082,-33.4171310000296]},"properties":{"FID":7,"CATEGORIA":"Geositio 7","POINT_X":348876.930979,"POINT_Y":6301287.63629,"ELEVACION":716.479004,"NOMBRE":"Toba soldada","ID_PUNTO":"PM-19, PM_C_04","FOTO_2D":"PM19_IMG_6765 a PM19_IMG_6771, PM_C_04 a PM_C_04_12","Foto_2D_In":"PENDIENTE","Foto_360":"360_0081","Foto_360_I":"360_0081_interpretada","Modelo_3D":"Fiamme1_PM19-PMC04 (sin escala)","Modelo_3_1":"PENDIENTE","Video_3D_I":"PENDIENTE","Foto_Muest":"NO","Foto_Lupa_":"NO","Foto_3D_Mu":"NO","REPOSITORI":"X:\\07_UGP\\Proyectos\\00_GP_Parquemet\\GeoPARQUEMET_2020\\Georutas\\Fotos_GeorutaPioNonoTupahue\\Geositio10","UNIDAD_GEO":"OlMa","NOMBRE_UNI":"Formación Abanico","Name_Lito":"Toba de lapilli","Clase_Roca":"Andesítica","Muestra_Ma":"NO","DESC_Alt":" ","DESC_Geotc":"Afloramiento relativamente bien preservado, de baja meteorización, fracturas espaciadas y subverticales. Roca de alta resistencia","DESC_Struc":" "}},{"type":"Feature","id":8,"geometry":{"type":"Point","coordinates":[-70.6237894178308,-33.4158946257986]},"properties":{"FID":8,"CATEGORIA":"Geositio 8","POINT_X":349020,"POINT_Y":6301427,"ELEVACION":700,"NOMBRE":"Piscina Tupahue","ID_PUNTO":"PM_TU_01","FOTO_2D":"Tupahue_DSC_0270, Tupahue_DSC_0273, Tupahue_DSC_0274, Tupahue_DSC_0280, Tupahue_DSC_0281, Tupahue_DSC_0286, Tupahue_DSC_0288, Tupahue_DSC_0289, Tupahue_DSC_0290, Tupahue_DSC_0292, Tupahue_DSC_0293, Tupahue_DSC_0294\nTupahue_IMG_6188, Tupahue_IMG_6191, Tup","Foto_2D_In":"PENDIENTE","Foto_360":"PENDIENTE","Foto_360_I":"PENDIENTE","Modelo_3D":"PENDIENTE","Modelo_3_1":"PENDIENTE","Video_3D_I":"PENDIENTE","Foto_Muest":"Tupahue_Muestra1, Tupahue_Muestra2","Foto_Lupa_":"PENDIENTE","Foto_3D_Mu":"PENDIENTE","REPOSITORI":"X:\\07_UGP\\Proyectos\\00_GP_Parquemet\\GeoPARQUEMET_2020\\Georutas\\Fotos_GeorutaPioNonoTupahue\\Geositio11","UNIDAD_GEO":"OlMa","NOMBRE_UNI":"Formación Abanico","Name_Lito":"Toba de ceniza cristalina","Clase_Roca":"Andesítica","Muestra_Ma":"SI","DESC_Alt":" ","DESC_Geotc":"De acuerdo con el número de golpes que se requiere para ser fracturada, se infiere que es una roca resistente (Clase R4, según Brown, 1981; requiere de 2 a 3 golpes para ser fracturada) estimándose una resistencia a la comprensión uniaxial de entre 5","DESC_Struc":"La roca se divide en dos bloques de diferente tamaño. Ambos bloques presentan caras relativamente planas, y en varias direcciones en el bloque mayor, lo que les otorgan un aspecto peculiar y llamativo. Estas caras corresponden a fracturas de la roca, al"}}]}