{"type":"FeatureCollection","crs":{"type":"name","properties":{"name":"EPSG:4326"}},"features":[{"type":"Feature","id":1,"geometry":{"type":"LineString","coordinates":[[-70.636084552411,-33.4297084686696],[-70.6360170996315,-33.4296350548858],[-70.6360027201713,-33.4295942477778],[-70.6360061375086,-33.4295742856899],[-70.636018824432,-33.4295551764526],[-70.6360556411148,-33.42951649145],[-70.6360973516787,-33.4294767483206],[-70.6361480746086,-33.429439156801],[-70.6362119283669,-33.4294069265298],[-70.6362797337138,-33.4293814062733],[-70.6363455156167,-33.4293589158651],[-70.6364181988316,-33.4293351208462],[-70.6365067080605,-33.4293056869171],[-70.6365943309867,-33.4292774887669],[-70.6366628766906,-33.4292545125144],[-70.6367190518865,-33.4292280903819],[-70.6367695633257,-33.4291895547544],[-70.6368992388595,-33.4290381209213],[-70.6369490157833,-33.4289611087616],[-70.6369864603995,-33.4289093133914],[-70.6370406838587,-33.4288417868802],[-70.6371048647505,-33.4287741288873],[-70.6371929368789,-33.4286906458098],[-70.6373162577193,-33.428589994589],[-70.6374190248687,-33.4285313713314],[-70.6375695742817,-33.428441097751],[-70.637793667385,-33.4283271847696],[-70.6379018997881,-33.4282565584586],[-70.6379835752558,-33.4282113368559],[-70.638072318275,-33.4281636357441],[-70.6381539660751,-33.4281138753484],[-70.6382106902079,-33.4280872810675],[-70.6382281080735,-33.4280494312002],[-70.638236743174,-33.4279789272993],[-70.6382317585186,-33.427940815621],[-70.6381882322449,-33.427896054822],[-70.638114520055,-33.4278349900979],[-70.6380524567648,-33.4277880880264],[-70.6380092892036,-33.427762411189],[-70.6379776545883,-33.4277199170161],[-70.637967319364,-33.427702724334],[-70.6379629127504,-33.4276808576168],[-70.6379605147426,-33.4276518784215],[-70.6379559378247,-33.4276153051105],[-70.6379419755485,-33.4275262917188],[-70.6379244824759,-33.4274276494993],[-70.6379069151503,-33.4273332100613],[-70.6379017195809,-33.4273084584364],[-70.6378945680167,-33.4272786504747],[-70.6378756508781,-33.4272073663834],[-70.6378526716993,-33.4271263594723],[-70.6378281384432,-33.4270426308868],[-70.6378045590532,-33.4269631822262],[-70.637784441439,-33.4268950148221],[-70.6377702934992,-33.4268451300982],[-70.6377662418862,-33.426829231771],[-70.6377651088181,-33.4268239263901],[-70.6377647826144,-33.4268219825654],[-70.6377646231615,-33.4268205295688],[-70.6377644254581,-33.426819037938],[-70.637763986548,-33.4268169811596],[-70.6377624169805,-33.4268112434347],[-70.6377567337259,-33.4267937694252],[-70.6377369741999,-33.4267388164839],[-70.6377094210139,-33.4266647875205],[-70.6376761898148,-33.4266179053922],[-70.6376259778304,-33.4265959005801],[-70.6375742313946,-33.426567950769],[-70.637566000009,-33.4265060009703],[-70.6375972371147,-33.4264292533688],[-70.6376027998056,-33.4263602502188],[-70.6375982836901,-33.4263400392445],[-70.6375973650031,-33.4263327750515],[-70.6375974241678,-33.4263275950607],[-70.6375977928024,-33.4263228366469],[-70.6375977718504,-33.4263167850132],[-70.6375966319051,-33.4263010576327],[-70.6375904548164,-33.426256894885],[-70.6375664712493,-33.4261320486883],[-70.637550927332,-33.4260595425527],[-70.6375345237009,-33.4259857660856],[-70.6375183916072,-33.425914808036],[-70.6375036623145,-33.4258507570633],[-70.6374865680353,-33.4257838531739],[-70.6374782657807,-33.4257006788093],[-70.6374639629317,-33.425620933426],[-70.637446501622,-33.4255245270663],[-70.6374294435387,-33.4254495902505],[-70.6374165632317,-33.4253698260739],[-70.6374111311575,-33.4253078592767],[-70.6374098320344,-33.4252386796165],[-70.6373882603388,-33.4251506788535],[-70.6373582027899,-33.4250855356693],[-70.63733289359,-33.4249924954197],[-70.6373060530762,-33.4249007880846],[-70.637281911699,-33.4248195049834],[-70.6372721751853,-33.4247856135196],[-70.63726469987,-33.4247577373495],[-70.6372619754013,-33.4247464101684],[-70.6372600145356,-33.4247370128327],[-70.637258883367,-33.4247296876805],[-70.6372586495723,-33.4247268464848],[-70.63725864799,-33.4247245765088],[-70.6372585402205,-33.4247199401794],[-70.6372577757769,-33.4247140064893],[-70.6372544449985,-33.4246986158197],[-70.6372417523895,-33.4246563282013],[-70.637179141594,-33.4245461780576],[-70.6371304097627,-33.4244513775027],[-70.6371023534486,-33.4243968676423],[-70.6370784972805,-33.4243387231821],[-70.6370416153574,-33.4242688201786],[-70.6370031909198,-33.4241680872558],[-70.6369270833263,-33.4240794442195],[-70.6368615068576,-33.4239967963754],[-70.6367856601076,-33.4238975813624],[-70.6367476696332,-33.4238443955757],[-70.6367256392719,-33.4238077018194],[-70.6366934952704,-33.4237627901945],[-70.6366641961427,-33.4237178410149],[-70.6365856393475,-33.4236258199272],[-70.6365031512406,-33.4235517463996],[-70.6364496712003,-33.4235071162593],[-70.6363846775876,-33.4234554797254],[-70.6363379484188,-33.4233892627036],[-70.6363069809181,-33.4233414267118],[-70.6362717786821,-33.4232755931996],[-70.6362586916716,-33.423186319926],[-70.6362488367229,-33.4231160600532],[-70.6362477176767,-33.4230564223595],[-70.6362515049372,-33.4229549632093],[-70.6362575426923,-33.422897617185],[-70.636270647709,-33.4228377918149],[-70.6362777721358,-33.4227625357129],[-70.6363215657013,-33.4226700930917],[-70.6363629172514,-33.4225991575636],[-70.6364083792601,-33.422519816439],[-70.6364412634244,-33.4224525717624],[-70.6364968387634,-33.4223814484999],[-70.6365456377925,-33.4223283103746],[-70.636615705555,-33.4222713124036],[-70.6366959538574,-33.4222261105287],[-70.6367383346977,-33.4222100415594],[-70.6368699234144,-33.4221713202746],[-70.6369844208914,-33.4221316314054],[-70.6370773136651,-33.4220779110385],[-70.6371462047962,-33.4220340518477],[-70.6372417853912,-33.4219719445341],[-70.6373359434587,-33.4219098559297],[-70.6374112743974,-33.4218301200989],[-70.6374849588451,-33.4217384754726],[-70.6375238226053,-33.4216866612053],[-70.6375456624899,-33.4216374578135],[-70.6375638736645,-33.4215465456134],[-70.6375747937113,-33.4214461852926],[-70.6375745362705,-33.4213567100052],[-70.6375634597331,-33.4212972038056],[-70.6375746709286,-33.4212123492766],[-70.6375860836837,-33.4211382295273],[-70.6376171857081,-33.4210519192943],[-70.6376514459996,-33.4209822700377],[-70.6376828390924,-33.4209114655846],[-70.6377187008458,-33.4208513395559],[-70.6377434523717,-33.4208056768266],[-70.6377627383852,-33.4207720167616],[-70.637801646371,-33.4207225879245],[-70.63785337804,-33.4206741827687],[-70.6378981546179,-33.4206342207919],[-70.6379359537253,-33.4206015092479],[-70.6379651513911,-33.4205653321484],[-70.6379787029949,-33.4205293616892],[-70.6379930450074,-33.4204529383207],[-70.6380501177273,-33.4204093626373],[-70.6380685467176,-33.4203944773717],[-70.6380824728724,-33.4203815494813],[-70.6380923441208,-33.4203704258722],[-70.6380986083642,-33.4203609537212],[-70.6381017135162,-33.4203529797533],[-70.6381021074984,-33.4203463511441],[-70.6381002382268,-33.4203409147987],[-70.6380965535956,-33.4203365176222],[-70.638085529945,-33.4203302287554],[-70.6380726198402,-33.4203262605046],[-70.6380614065783,-33.420323388471],[-70.6380575560394,-33.4203219810693],[-70.6380562657555,-33.4203212174869],[-70.6380554734525,-33.4203203886179],[-70.6380551054939,-33.4203198843043],[-70.6380545295489,-33.4203192416014],[-70.6380527735256,-33.4203175544732],[-70.6380469832427,-33.4203126670051],[-70.6380384189142,-33.4203059404585],[-70.638027396854,-33.420297589259],[-70.6379650575749,-33.4202522246325],[-70.6378886996286,-33.4201980130999],[-70.6378185669895,-33.4201486732425],[-70.6377912555862,-33.4201282499664],[-70.6377686633519,-33.4201091248656],[-70.6377320559189,-33.4200736486891],[-70.6376975838244,-33.4200400046903],[-70.6376776607608,-33.4200231696957],[-70.6376540862009,-33.420005952742],[-70.6376251225586,-33.4199882341013],[-70.6375912993524,-33.4199701187853],[-70.6375170965101,-33.4199329258649],[-70.6374475222252,-33.4198948294774],[-70.6374194847038,-33.4198755848362],[-70.6373986209978,-33.4198562850649],[-70.637354199353,-33.4198134819354],[-70.6372985258785,-33.4197675763249],[-70.6372483381713,-33.4197264743773],[-70.6372203737462,-33.4196980820842],[-70.6371925520572,-33.4196628117098],[-70.6371454215707,-33.4196093300576],[-70.6370712293859,-33.4195558849674],[-70.6369544293629,-33.4194727201523],[-70.6368795940572,-33.4194271789496],[-70.6368276731162,-33.4193896866253],[-70.636715073437,-33.4193028869893],[-70.6366601960286,-33.4192594683597],[-70.6366055445321,-33.4191705125864],[-70.6365552587161,-33.4191022243154],[-70.6364904699275,-33.4190133489329],[-70.6364263767571,-33.4189242510516],[-70.6363728993487,-33.4188850625801],[-70.6362880860862,-33.4188384596036],[-70.6361809629995,-33.418816011895],[-70.6360755308035,-33.4188078583863],[-70.6359790130167,-33.4188198690472],[-70.6359154327685,-33.418843375673],[-70.6358619654799,-33.4188751002256],[-70.6357906788373,-33.4189428512873],[-70.6357603044965,-33.418992166959],[-70.635701460863,-33.419040665055],[-70.6356237687714,-33.4190703229032],[-70.6355344518155,-33.4190870104569],[-70.6354433546126,-33.4190846326216],[-70.6353436786092,-33.4190799817393],[-70.6352621576417,-33.4190571956459],[-70.6351591226431,-33.4190251487506],[-70.6350381481423,-33.4189382387016],[-70.6349053243212,-33.4188435719112],[-70.6348061766421,-33.418791191616],[-70.6347026055666,-33.4187305181906],[-70.6346391731027,-33.4186860183503],[-70.6346053012367,-33.4186338687443],[-70.6345319355917,-33.4185675771722],[-70.6344585700478,-33.4185012855528],[-70.6343852046264,-33.4184349938857],[-70.6342908463782,-33.4183947323833],[-70.6341738349845,-33.4183759923728],[-70.6340510896049,-33.4183549416977],[-70.6339312112931,-33.4183350461784],[-70.6338356914595,-33.4183243740582],[-70.6337149941368,-33.418336701484],[-70.6336030318497,-33.4183596511925],[-70.633502224788,-33.4183705233691],[-70.6333428339013,-33.4183678504026],[-70.6332303577417,-33.4183633663777],[-70.6331035242339,-33.4183519130014],[-70.6329394197328,-33.4183254405672],[-70.6327094413674,-33.4182759741171],[-70.6325464022219,-33.4182303983182],[-70.6324361011765,-33.4181900934089],[-70.6323614031845,-33.4181517059076],[-70.6322741498173,-33.4181266071634],[-70.6321981635444,-33.4180953948223],[-70.6321349559835,-33.4180628212164],[-70.6320730368823,-33.4180230723157],[-70.6320166955626,-33.4179772847298],[-70.6319736482963,-33.4179130473736],[-70.6318625811172,-33.4178003549494],[-70.6317939911388,-33.4177081994239],[-70.631729445135,-33.41760406014],[-70.6316547199001,-33.4174881242235],[-70.6315882610413,-33.4173577628941],[-70.6315536288633,-33.4172556160766],[-70.6315193983736,-33.4171749388864],[-70.6314842141594,-33.4171193283088],[-70.6314337861035,-33.4170853931641],[-70.6313663396507,-33.41705993881],[-70.6312738621289,-33.4170540912728],[-70.6312029248217,-33.4170645686863],[-70.6310899202691,-33.4171078116944],[-70.6309486922951,-33.4171633562618],[-70.6308030856737,-33.4172129929883],[-70.6306675020126,-33.41726607692],[-70.6305260728166,-33.4173108861952],[-70.6303971545072,-33.4173400211764],[-70.6302653245813,-33.4173656151424],[-70.6300751570976,-33.4173907826719],[-70.6299390154405,-33.41741404686],[-70.6298198524214,-33.4174323155757],[-70.6297133788187,-33.4174444521776],[-70.6296167054447,-33.4174481085567],[-70.6294785395742,-33.4174391864419],[-70.6293633314267,-33.4174407000352],[-70.6292651243041,-33.4174384110307],[-70.6291199359686,-33.4174343529739],[-70.6290244621104,-33.4174260626164],[-70.628898075851,-33.4174384600647],[-70.6287859127847,-33.4174506705955],[-70.6286682608405,-33.4174736905719],[-70.6285053616936,-33.4175116211892],[-70.6284004437014,-33.4175308945536],[-70.6282926587407,-33.4175490124178],[-70.6281959406114,-33.417550282175],[-70.6280576188062,-33.4175330091589],[-70.6279491436136,-33.4175141511709],[-70.627844668303,-33.4174809239623],[-70.627734526032,-33.4174489640912],[-70.6276028486611,-33.4174065492628],[-70.6275511997029,-33.4174063007408],[-70.627484172626,-33.417374701156],[-70.6273110923485,-33.4173244779397],[-70.6270982540052,-33.4172783552325],[-70.6269338192903,-33.4172339833209],[-70.6267252927949,-33.4171901895083],[-70.6265321673422,-33.4171330697867],[-70.6263806674789,-33.4170956858107],[-70.6261846088509,-33.4170338317923],[-70.6260787568876,-33.4170030072266],[-70.6259861727987,-33.4169970627326],[-70.6258300957753,-33.4170193907165],[-70.625655617441,-33.4170467319116],[-70.6254499146394,-33.4170780612465],[-70.6253960887638,-33.4170906971936],[-70.6253510000082,-33.4171310008974],[-70.6252855034181,-33.4171112352503],[-70.6252328997885,-33.417113117635],[-70.6251770959228,-33.4170959530867],[-70.6250581322048,-33.4170485967149],[-70.624994750155,-33.4170064772663],[-70.6248624525076,-33.4169306621337],[-70.6247358665715,-33.4168559650848],[-70.6246609952007,-33.4168080307036],[-70.6245915465777,-33.4167457086075],[-70.6245229872037,-33.4166547415493],[-70.6244746735601,-33.4165814050723],[-70.6244298710355,-33.4165438141809],[-70.6243978204736,-33.4165262915921],[-70.6244414056464,-33.416475659079],[-70.6244123227215,-33.416453071845],[-70.6243173988032,-33.4163866111625],[-70.6242126151651,-33.4163366821326],[-70.6241435892254,-33.4162970222452],[-70.6240200715097,-33.4162342147856],[-70.6239611351232,-33.4162015809988],[-70.6238838864504,-33.4161787313732],[-70.6237039653493,-33.4161429092404],[-70.6235526903032,-33.4161174493419],[-70.6234399507742,-33.4160986431773],[-70.623325677993,-33.41607389171],[-70.6232400955312,-33.4160618882353],[-70.6231402012616,-33.416045299786],[-70.6230089275556,-33.4160243496735],[-70.6229203008342,-33.4160016483311],[-70.6229753343389,-33.4159500456283]]},"properties":{"FID":1,"OBJECTID":1,"Shape_Leng":2937.31807779,"Shape__Length":3523.438401840976}}]}