{"type":"FeatureCollection","crs":{"type":"name","properties":{"name":"EPSG:4326"}},"features":[{"type":"Feature","id":1,"geometry":{"type":"Polygon","coordinates":[[[-70.626006815,-33.4205150769999],[-70.626103937,-33.420535279],[-70.6261602989999,-33.4205059069999],[-70.626172965,-33.420422226],[-70.6261463389999,-33.420367695],[-70.6260708199999,-33.420285172],[-70.62602148,-33.420233324],[-70.6259809429999,-33.420195679],[-70.625906357,-33.420163251],[-70.6258655519999,-33.4201112919999],[-70.625798655,-33.420033427],[-70.625757272,-33.419950456],[-70.6256958869999,-33.419862975],[-70.625640592,-33.419796889],[-70.6256240229999,-33.419776816],[-70.6255982659999,-33.419768803],[-70.625544216,-33.419769511],[-70.6254975219999,-33.419783247],[-70.625438339,-33.419813849],[-70.6254333159999,-33.419849706],[-70.625458452,-33.419900678],[-70.6254691199999,-33.4199387149999],[-70.6255025679999,-33.4199776479999],[-70.62553417,-33.420010641],[-70.625542362,-33.4200224699999],[-70.625583389,-33.420086357],[-70.625630327,-33.420162097],[-70.625674288,-33.420230718],[-70.625726605,-33.4202896849999],[-70.6257789219999,-33.420348652],[-70.6258422189999,-33.420385999],[-70.6259114269999,-33.420435201],[-70.626006815,-33.4205150769999]]]},"properties":{"FID":1,"Descripcio":"Formación Abanico","Codigo":"OlMa","Nombre":"Formación Abanico","Unidad":"Cerro San Cristóbal","Edad":"Oligoceno","Descripc_3":"Las rocas volcánicas que vemos desde el cerro San Cristóbal hasta el sector La Pirámide se originaron por la ocurrencia de sucesivas erupciones volcánicas muy violentas. Cuando ocurren este tipo de erupciones, se producen grandes explosiones, con exp","CodigoUnid":"UcSC","Shape__Area":3041.142578125,"Shape__Length":275.35244092168665}},{"type":"Feature","id":2,"geometry":{"type":"Polygon","coordinates":[[[-70.633372326,-33.423455678],[-70.6334351799999,-33.423469167],[-70.6335034109999,-33.423465882],[-70.633565909,-33.423460286],[-70.633633827,-33.423440303],[-70.6337073459999,-33.423415473],[-70.6337431969999,-33.423358903],[-70.633760126,-33.423316471],[-70.63377872,-33.42327614],[-70.633842586,-33.423191784],[-70.6338953859999,-33.4231242779999],[-70.6339126189999,-33.423107629],[-70.633939717,-33.423046407],[-70.6339458739999,-33.423010535],[-70.6339653639999,-33.4229573069999],[-70.63397472,-33.422909939],[-70.633985595,-33.422852529],[-70.633983326,-33.422822494],[-70.6339892949999,-33.4227766029999],[-70.633990492,-33.422749385],[-70.633988222,-33.42271935],[-70.633992699,-33.422684932],[-70.633991894,-33.422641992],[-70.634004691,-33.42259601],[-70.634012555,-33.422560115],[-70.6340306869999,-33.4225255169999],[-70.634040365,-33.422495324],[-70.63404839,-33.422468017],[-70.634051321,-33.4224422089999],[-70.6340584069999,-33.4224052669999],[-70.634067704,-33.422385101],[-70.6340706789999,-33.422361678],[-70.6340726509999,-33.4223454259999],[-70.6340756,-33.4223349],[-70.634084784,-33.422324746],[-70.6341050519999,-33.422313026],[-70.634122955,-33.422306745],[-70.6341551899999,-33.422295821],[-70.634183342,-33.422279702],[-70.634211974,-33.4222588049999],[-70.6342332999999,-33.422242775],[-70.6342568119999,-33.4222219449999],[-70.63427411,-33.4222035829999],[-70.634305942,-33.422171189],[-70.634319808,-33.4221519179999],[-70.63434418,-33.4221162819999],[-70.6343517079999,-33.4220928],[-70.6343479989999,-33.4220771],[-70.634338365,-33.4220636229999],[-70.6343141089999,-33.422059846],[-70.634280632,-33.422054633],[-70.634201477,-33.422044342],[-70.634111374,-33.4220192819999],[-70.6340428089999,-33.422004676],[-70.6339786,-33.421994785],[-70.6338923329999,-33.421984587],[-70.6338210229999,-33.4219753849999],[-70.63376435,-33.421988062],[-70.633738651,-33.422021209],[-70.6337204609999,-33.422037556],[-70.6336912529999,-33.422076169],[-70.633628184,-33.422160513],[-70.6335659979999,-33.422243414],[-70.633520172,-33.4223490059999],[-70.633488072,-33.422458235],[-70.633480326,-33.4225308749999],[-70.63347651,-33.422555024],[-70.633451825,-33.42261914],[-70.633427115,-33.4226671879999],[-70.633389612,-33.422791759],[-70.633325822,-33.4229410139999],[-70.6332985179999,-33.4230024579999],[-70.633280352,-33.4230656899999],[-70.633227555,-33.423163738],[-70.633209693,-33.423243192],[-70.633198993,-33.423279602],[-70.633205969,-33.4233482299999],[-70.6332249989999,-33.423391883],[-70.6332481329999,-33.4234116209999],[-70.6332905579999,-33.4234282429999],[-70.6333179169999,-33.423437306],[-70.633372326,-33.423455678]]]},"properties":{"FID":2,"Descripcio":"Formación Abanico","Codigo":"OlMa","Nombre":"Formación Abanico","Unidad":"Cerro San Cristóbal","Edad":"Oligoceno","Descripc_3":"Las rocas volcánicas que vemos desde el cerro San Cristóbal hasta el sector La Pirámide se originaron por la ocurrencia de sucesivas erupciones volcánicas muy violentas. Cuando ocurren este tipo de erupciones, se producen grandes explosiones, con exp","CodigoUnid":"UcSC","Shape__Area":12766.423828125,"Shape__Length":526.46831211855351}},{"type":"Feature","id":3,"geometry":{"type":"Polygon","coordinates":[[[-70.63529635,-33.4243132729999],[-70.635344554,-33.424353009],[-70.6353468199999,-33.4243548769999],[-70.6353748829999,-33.424349519],[-70.6353992689999,-33.424341145],[-70.635427889,-33.424330924],[-70.6354595719999,-33.424326008],[-70.6354996119999,-33.4243291779999],[-70.63553674,-33.424351595],[-70.635557867,-33.4243856759999],[-70.635560044,-33.4244107009999],[-70.635559741,-33.4244400539999],[-70.635565264,-33.4244614569999],[-70.635567387,-33.424483619],[-70.635567736,-33.424502226],[-70.635570214,-33.4245390259999],[-70.635585318,-33.4245751189999],[-70.6356383789999,-33.424612596],[-70.635654812,-33.424625488],[-70.635678663,-33.424636055],[-70.635699495,-33.4246543909999],[-70.635715998,-33.42467708],[-70.635738341,-33.424730473],[-70.635735809,-33.424756644],[-70.635803741,-33.4248635449999],[-70.635873433,-33.4249759649999],[-70.635950685,-33.4251121469999],[-70.636006935,-33.4252665009999],[-70.636084132,-33.425399701],[-70.636132991,-33.4255392389999],[-70.636186079,-33.4257145129999],[-70.63624499,-33.42582111],[-70.6362478999999,-33.425976168],[-70.636262629,-33.426002817],[-70.6362653149999,-33.4261459479999],[-70.636244226,-33.4263490449999],[-70.636195361,-33.426588299],[-70.63616116,-33.4266594589999],[-70.63617876,-33.426676241],[-70.636179834,-33.426733494],[-70.636180425,-33.4267649829999],[-70.636178005,-33.426817985],[-70.6361648869999,-33.4268467919999],[-70.636173879,-33.4268710119999],[-70.636203514,-33.426903548],[-70.636239898,-33.4269317009999],[-70.6362813489999,-33.426956925],[-70.636295811,-33.426999684],[-70.636267651,-33.4270458679999],[-70.636227221,-33.427075035],[-70.636203646,-33.427092526],[-70.636188875,-33.427124217],[-70.636189681,-33.4271671559999],[-70.6361802709999,-33.4272116619999],[-70.63616726,-33.4272461939999],[-70.636126803,-33.427273928],[-70.6360810639999,-33.427293144],[-70.636062744,-33.4273177229999],[-70.63603234,-33.4273353039999],[-70.635960316,-33.427364052],[-70.635936794,-33.4273844059999],[-70.6359187419999,-33.4274232989999],[-70.635900556,-33.427455035],[-70.635851537,-33.4274814519999],[-70.6358195339999,-33.427504781],[-70.6357755019999,-33.4275239729999],[-70.6357232839999,-33.4275618849999],[-70.63568237,-33.427565288],[-70.6356638079999,-33.427576986],[-70.63562983,-33.4275860239999],[-70.635608041,-33.427607786],[-70.6355901649999,-33.4276412529999],[-70.6355571,-33.4276555919999],[-70.635478425,-33.4277091239999],[-70.635263102,-33.427759685],[-70.635074528,-33.427719222],[-70.635001652,-33.4277883509999],[-70.634937431,-33.427823557],[-70.634871289,-33.427847336],[-70.6347183569999,-33.4278865759999],[-70.634536515,-33.427931923],[-70.634383771,-33.42798118],[-70.6342803969999,-33.4280226289999],[-70.6340549499999,-33.428110068],[-70.6338597719999,-33.428172769],[-70.6337068129999,-33.428210576],[-70.633550601,-33.4282570149999],[-70.6334354369999,-33.428307209],[-70.633371376,-33.428351002],[-70.633302139,-33.428392001],[-70.63322477,-33.428454581],[-70.6331812459999,-33.4285009669999],[-70.633063901,-33.4286170459999],[-70.633017205,-33.428676358],[-70.632962294,-33.4287529599999],[-70.6329046449999,-33.428809935],[-70.6328409939999,-33.428875676],[-70.6328067159999,-33.428929575],[-70.63277027,-33.42898923],[-70.63271729,-33.429077736],[-70.632675475,-33.429154642],[-70.632655157,-33.429224583],[-70.632623054,-33.429333813],[-70.6326073239999,-33.429405603],[-70.632593512,-33.429458278],[-70.6325837759999,-33.429546215],[-70.632578038,-33.429604512],[-70.632568868,-33.429661899],[-70.632566169,-33.4297001109999],[-70.632564697,-33.42974308],[-70.6325635119999,-33.4298013169999],[-70.632560812,-33.42983953],[-70.632557064,-33.4298825289999],[-70.632548764,-33.4299255879999],[-70.632521207,-33.4299736729999],[-70.632464316,-33.430029041],[-70.632437892,-33.430061602],[-70.6323891979999,-33.430120702],[-70.6323572169999,-33.430160493],[-70.632332191,-33.4301918419999],[-70.6322946989999,-33.430241251],[-70.6322472259999,-33.430289598],[-70.632232684,-33.430310608],[-70.632222805,-33.43032488],[-70.632257066,-33.430330871],[-70.63231612,-33.4303386839999],[-70.632362316,-33.430343803],[-70.63241637,-33.430358124],[-70.632462848,-33.4303782699999],[-70.632500738,-33.430395667],[-70.632548245,-33.430425107],[-70.6325914299999,-33.430451739],[-70.6326450719999,-33.430489688],[-70.6327162269999,-33.430551028],[-70.632755198,-33.43058058],[-70.632792664,-33.430620889],[-70.632821366,-33.430649144],[-70.632873234,-33.430683537],[-70.6328906259999,-33.430700488],[-70.6329142069999,-33.4307288109999],[-70.6329537249999,-33.430741891],[-70.632995788,-33.430754222],[-70.633047066,-33.430757125],[-70.6330897559999,-33.430757279],[-70.6331358469999,-33.430756672],[-70.633175175,-33.4307597339999],[-70.633198422,-33.4307701649999],[-70.6332207739999,-33.4307784599999],[-70.6332448599999,-33.430788165],[-70.633265492,-33.4307957669999],[-70.6332802439999,-33.430808457],[-70.6332932879999,-33.4308211709999],[-70.6333166009999,-33.43083518],[-70.633344102,-33.43084484],[-70.633373282,-33.4308530449999],[-70.633409478,-33.430867195],[-70.6334432639999,-33.430878204],[-70.633505121,-33.430898927],[-70.633568177,-33.430922911],[-70.6336379909999,-33.4309429899999],[-70.633686218,-33.430965261],[-70.6337218359999,-33.430982926],[-70.633763217,-33.431004333],[-70.633809168,-33.431026634],[-70.633869806,-33.4310430149999],[-70.6339269389999,-33.4310546689999],[-70.633988465,-33.431057677],[-70.6340477319999,-33.431061667],[-70.634112339,-33.4310772809999],[-70.634179467,-33.4310907129999],[-70.634238082,-33.43110545],[-70.6342896739999,-33.431125051],[-70.634313694,-33.4311464479999],[-70.634362056,-33.4311758759999],[-70.634418871,-33.4312008969999],[-70.634529884,-33.431202297],[-70.63460158,-33.431201351],[-70.6346730609999,-33.431188956],[-70.634717096,-33.431169763],[-70.634780997,-33.431117381],[-70.6348267119999,-33.431096736],[-70.6348753569999,-33.431050281],[-70.634912269,-33.431015435],[-70.634956249,-33.430993381],[-70.6350196189999,-33.4309581649999],[-70.635032012,-33.43095132],[-70.635043106,-33.430935903],[-70.635063107,-33.4309098699999],[-70.635091038,-33.430881823],[-70.635113405,-33.43086053],[-70.635134706,-33.43084307],[-70.635158014,-33.4308112649999],[-70.635183812,-33.4307908819999],[-70.635239004,-33.430759612],[-70.635271755,-33.4307458179999],[-70.635298818,-33.430732099],[-70.635358721,-33.4307093569999],[-70.635420085,-33.430703776],[-70.635454118,-33.4306976],[-70.6354766109999,-33.430682987],[-70.635509148,-33.4306577419999],[-70.63551777,-33.430631859],[-70.6355352969999,-33.4305953579999],[-70.635552843,-33.430559813],[-70.635573822,-33.430525177],[-70.635600669,-33.430500007],[-70.63564464,-33.430477475],[-70.635696595,-33.430455792],[-70.635731516,-33.4304362419999],[-70.635751768,-33.430423568],[-70.635802585,-33.4304018999999],[-70.635859056,-33.430378249],[-70.63591775,-33.430351704],[-70.6360138379999,-33.4303160759999],[-70.63604771,-33.430301313],[-70.6360758549999,-33.430284717],[-70.636094788,-33.430266213],[-70.6361070309999,-33.4302362249999],[-70.636114984,-33.430205101],[-70.6361186469999,-33.43017284],[-70.636128997,-33.430117824],[-70.6361396619999,-33.430079506],[-70.636162003,-33.430022719],[-70.6361799059999,-33.429975955],[-70.636191184,-33.429940014],[-70.6362142359999,-33.4298946129999],[-70.636232127,-33.429847132],[-70.6362468459999,-33.4298125779999],[-70.636279152,-33.429759896],[-70.636300806,-33.429730978],[-70.636327541,-33.429699844],[-70.636341702,-33.429681046],[-70.636371144,-33.429657751],[-70.636409882,-33.429629322],[-70.636432739,-33.429618999],[-70.6364750779999,-33.429600544],[-70.6365055219999,-33.429585111],[-70.636537418,-33.4295560569999],[-70.636562688,-33.4295378269999],[-70.636601694,-33.4295237119999],[-70.636646755,-33.4295138109999],[-70.6366840809999,-33.429501149],[-70.6367129399999,-33.429492178],[-70.6367349019999,-33.429479719],[-70.6367728399999,-33.429454165],[-70.6367973499999,-33.4294409559999],[-70.636813418,-33.42943287],[-70.636845772,-33.4294281479999],[-70.6368764709999,-33.4294263109999],[-70.636904622,-33.429425223],[-70.6369335479999,-33.429419831],[-70.636970955,-33.429411463],[-70.6370074,-33.429397381],[-70.637060349,-33.4293781499999],[-70.637095643,-33.429363367],[-70.637122424,-33.42934989],[-70.6371492059999,-33.4293364129999],[-70.637168785,-33.429318259],[-70.637181341,-33.42930497],[-70.637206565,-33.429284355],[-70.637231835,-33.429266126],[-70.637259881,-33.42924428],[-70.637286417,-33.4292176829999],[-70.637310084,-33.4291899309999],[-70.637329506,-33.4291634269999],[-70.637343283,-33.429139384],[-70.637359884,-33.4291141109999],[-70.63739315,-33.429067143],[-70.63741815,-33.4290346],[-70.637447305,-33.428996038],[-70.637453068,-33.428986551],[-70.6374677009999,-33.428970252],[-70.6374806009999,-33.428952543],[-70.637493489,-33.428934119],[-70.6375043149999,-33.42891966],[-70.637518508,-33.4289026499999],[-70.637534957,-33.428892053],[-70.637567041,-33.4288730179999],[-70.637588116,-33.428858782],[-70.637606671,-33.428846725],[-70.637623818,-33.428827887],[-70.637651766,-33.428793158],[-70.637660485,-33.4287801579999],[-70.63767696,-33.4287709929999],[-70.637699777,-33.4287585219999],[-70.637716225,-33.428747926],[-70.637733507,-33.4287362439999],[-70.637746501,-33.428723545],[-70.63775816,-33.428708001],[-70.637768587,-33.428694979],[-70.6377890209999,-33.4286692969999],[-70.637805089,-33.42866121],[-70.6378304789999,-33.4286494209999],[-70.637857563,-33.428636895],[-70.637880439,-33.4286276449999],[-70.637912597,-33.428612546],[-70.637936,-33.428608657],[-70.637958651,-33.428610148],[-70.6379833829999,-33.4286087479999],[-70.638009842,-33.4286083979999],[-70.638027778,-33.4286088759999],[-70.6380460949999,-33.4286068449999],[-70.6380669449999,-33.428603348],[-70.638085668,-33.428600238],[-70.638102637,-33.428594645],[-70.638132763,-33.428584941],[-70.6381509839999,-33.428577901],[-70.6381675,-33.428570882],[-70.638187783,-33.4285598769999],[-70.63825351,-33.42853121],[-70.638290813,-33.4285173549999],[-70.6383099079999,-33.42850374],[-70.638329093,-33.428494897],[-70.638347247,-33.428491794],[-70.638362005,-33.428489691],[-70.638377234,-33.428482331],[-70.638395525,-33.428471352],[-70.638419461,-33.4284579119999],[-70.638436407,-33.428451126],[-70.6384773679999,-33.428435076],[-70.638499372,-33.428432399],[-70.6385206639999,-33.4284297309999],[-70.6385455349999,-33.4284282089999],[-70.638561172,-33.428427406],[-70.638580963,-33.4284205829999],[-70.638601321,-33.428405998],[-70.638620132,-33.42838487],[-70.638632441,-33.42835846],[-70.6386454509999,-33.428331446],[-70.638670937,-33.428286966],[-70.638686091,-33.4282605179999],[-70.638703447,-33.4282376209999],[-70.6387139249999,-33.4282273419999],[-70.638737647,-33.4282025709999],[-70.638762771,-33.4281765879999],[-70.6387836489999,-33.428151855],[-70.638803647,-33.428118185],[-70.638815843,-33.4280858119999],[-70.638846622,-33.4280579649999],[-70.638865457,-33.428038031],[-70.638884256,-33.428016307],[-70.638902586,-33.427969536],[-70.6389201929999,-33.427922178],[-70.638929589,-33.427892228],[-70.638947985,-33.4278490349999],[-70.63895891,-33.4277868519999],[-70.638951697,-33.42770582],[-70.6389501529999,-33.427702134],[-70.638949016,-33.427689352],[-70.638934117,-33.427653757],[-70.638914638,-33.4276015209999],[-70.638893063,-33.42753456],[-70.638887048,-33.42751197],[-70.638868338,-33.427485492],[-70.638843795,-33.427451457],[-70.638820299,-33.427412635],[-70.63879908,-33.4273737839999],[-70.6387695729999,-33.4273178619999],[-70.63874364,-33.427270483],[-70.6387280929999,-33.427230602],[-70.638711175,-33.4271783309999],[-70.6387002339999,-33.4271412519999],[-70.638684526,-33.427092784],[-70.638681076,-33.42707697],[-70.638682304,-33.4270300979999],[-70.638680887,-33.4269547169999],[-70.638680224,-33.426919412],[-70.638675967,-33.426874609],[-70.638674135,-33.426867073],[-70.638673286,-33.426858141],[-70.6386621839999,-33.426812475],[-70.638618752,-33.42674242],[-70.638608415,-33.4267050989999],[-70.638605319,-33.426693921],[-70.6386089919999,-33.426647105],[-70.6386082029999,-33.42660512],[-70.6386213919999,-33.4265801299999],[-70.6386171,-33.426533419],[-70.638625487,-33.426495131],[-70.638624895,-33.426463643],[-70.638624885,-33.426406738],[-70.638621338,-33.4263904759999],[-70.6386139369999,-33.4263600319999],[-70.638603228,-33.426335358],[-70.6385920179999,-33.426283967],[-70.638579724,-33.4262354529999],[-70.6385650999999,-33.426184107],[-70.638564349,-33.426174413],[-70.638560592,-33.426125945],[-70.6385610299999,-33.426088716],[-70.6385582839999,-33.426077795],[-70.63855835,-33.426072248],[-70.638541128,-33.4260037559999],[-70.638523941,-33.425937172],[-70.638497319,-33.4258508149999],[-70.638497274,-33.425850671],[-70.638486969,-33.425786859],[-70.638482595,-33.425734562],[-70.638482084,-33.425707368],[-70.6384832259999,-33.4256772869999],[-70.6384893549999,-33.425639983],[-70.6384886829999,-33.4256042],[-70.638484896,-33.425560203],[-70.638484439,-33.425535872],[-70.638490782,-33.425510018],[-70.638496991,-33.425477007],[-70.6385029319999,-33.425429685],[-70.6385020709999,-33.4253838819999],[-70.63850113,-33.4253337869999],[-70.638503683,-33.425287941],[-70.6385024319999,-33.425273896],[-70.6385015179999,-33.4252636309999],[-70.638494206,-33.425237957],[-70.638481398,-33.425192314],[-70.638478387,-33.4251785129999],[-70.638477774,-33.425145873],[-70.6384822759999,-33.425112885],[-70.6384934709999,-33.4250726499999],[-70.6384997609999,-33.425043934],[-70.6384986579999,-33.42498525],[-70.638497878,-33.424943743],[-70.63850696,-33.4248926499999],[-70.6385075489999,-33.4248690689999],[-70.6385054259999,-33.424846907],[-70.638505009,-33.424824722],[-70.63850902,-33.424811068],[-70.6385128169999,-33.424785964],[-70.6385122789999,-33.4247573379999],[-70.638513207,-33.424715808],[-70.638512211,-33.424662849],[-70.638507029,-33.424614241],[-70.6385011149999,-33.424572086],[-70.638500487,-33.424570251],[-70.638498434,-33.4245556179999],[-70.638483079,-33.424510723],[-70.638473844,-33.4244736219999],[-70.638444577,-33.424415311],[-70.638428463,-33.424375436],[-70.638413214,-33.4243362679999],[-70.6383901359999,-33.4242893269999],[-70.638384559,-33.4242650629999],[-70.638368578,-33.4242323459999],[-70.63835173,-33.424198925],[-70.6383392179999,-33.424169025],[-70.6383134449999,-33.424114963],[-70.6382956909999,-33.4240786899999],[-70.638277788,-33.424034545],[-70.6382650589999,-33.423993196],[-70.638257838,-33.4239774379999],[-70.63825708,-33.4239526809999],[-70.638256569,-33.423925487],[-70.6382571899999,-33.423890403],[-70.6382557859999,-33.423861072],[-70.6382557649999,-33.4238145429999],[-70.638254408,-33.423787718],[-70.638252704,-33.423765192],[-70.6382509219999,-33.423760613],[-70.638250023,-33.4237487239999],[-70.638240605,-33.4237245099999],[-70.638231968,-33.423696456],[-70.638221256,-33.423671544],[-70.638215696,-33.423646607],[-70.638213473,-33.423630884],[-70.638210822,-33.42361462],[-70.63821079,-33.423614415],[-70.638206721,-33.4235894549999],[-70.6382068189999,-33.4235493669999],[-70.638203722,-33.4235207749999],[-70.63820114,-33.4234742799999],[-70.638201268,-33.423435624],[-70.6382059319999,-33.4234112239999],[-70.638212725,-33.423363889],[-70.638212295,-33.4233409889999],[-70.6382109309999,-33.423313805],[-70.6382086839999,-33.423305978],[-70.6382082499999,-33.4232973359999],[-70.6381989129999,-33.4232648129999],[-70.6381984509999,-33.42324024],[-70.63819747,-33.423187997],[-70.638191636,-33.423150135],[-70.638191862,-33.423127081],[-70.638218975,-33.423084254],[-70.638232446,-33.4230439899999],[-70.638246285,-33.423023287],[-70.6382595549999,-33.42300259],[-70.638278451,-33.42297848],[-70.638294194,-33.42296825],[-70.638321705,-33.422948321],[-70.638346825,-33.422922219],[-70.638370976,-33.422905198],[-70.63839369,-33.422902511],[-70.638423275,-33.42290212],[-70.6384722069999,-33.4229014739999],[-70.638499517,-33.422901113],[-70.638522177,-33.4228955639999],[-70.638537991,-33.422889152],[-70.638558828,-33.4228774229999],[-70.63858922,-33.422859365],[-70.638621265,-33.42283842],[-70.638646738,-33.4228008599999],[-70.638664487,-33.422776288],[-70.63867476,-33.422747519],[-70.63868746,-33.4227268299999],[-70.638705049,-33.4226936699999],[-70.6387204229999,-33.422663879],[-70.638741489,-33.4226340129999],[-70.638757558,-33.4226108949999],[-70.638766781,-33.4225869119999],[-70.638798156,-33.4225403259999],[-70.6388224899999,-33.422502782],[-70.638846932,-33.4224709609999],[-70.638865524,-33.422430629],[-70.638886552,-33.422398855],[-70.63891018,-33.422384226],[-70.638950608,-33.422355059],[-70.6389840809999,-33.4223193029999],[-70.639032204,-33.4222757169999],[-70.6390815729999,-33.422237841],[-70.639111777,-33.4222097629999],[-70.639162104,-33.4221623299999],[-70.639185606,-33.4221410219999],[-70.639206813,-33.42211879],[-70.6392393639999,-33.422094499],[-70.639258351,-33.422075159],[-70.6392818699999,-33.422054805],[-70.639306473,-33.422031573],[-70.6393284599999,-33.4219902419999],[-70.639347285,-33.421962314],[-70.639367373,-33.421941051],[-70.639385256,-33.421923635],[-70.639416436,-33.421886954],[-70.639454336,-33.421844457],[-70.63949753,-33.421780893],[-70.63953086,-33.421737503],[-70.6395463429999,-33.421713437],[-70.639553572,-33.4216742099999],[-70.639565336,-33.421633968],[-70.6395735409999,-33.421586137],[-70.639587671,-33.4215506359999],[-70.63962615,-33.421494067],[-70.639646797,-33.421477971],[-70.639658982,-33.4214601529999],[-70.639668296,-33.421440941],[-70.6396798659999,-33.421420745],[-70.6396891799999,-33.421401533],[-70.63969852,-33.4213837519999],[-70.639710553,-33.4213578229999],[-70.639723257,-33.421337374],[-70.639729898,-33.421312231],[-70.639743718,-33.421290574],[-70.639763049,-33.4212592989999],[-70.639783689,-33.421222042],[-70.639823345,-33.4211368109999],[-70.6398441429999,-33.421107903],[-70.639867673,-33.4210729939999],[-70.6398961519999,-33.420998648],[-70.639911103,-33.4209614659999],[-70.63993181,-33.420927786],[-70.639952384,-33.4208869509999],[-70.639972755,-33.420835381],[-70.6400029929999,-33.420778907],[-70.639992218,-33.420777555],[-70.639889605,-33.420764679],[-70.6397699239999,-33.420755525],[-70.6396260179999,-33.420744304],[-70.6394548389999,-33.4207203189999],[-70.639316332,-33.420693517],[-70.639135064,-33.4206625079999],[-70.638859515,-33.4206112689999],[-70.638622842,-33.42058457],[-70.638407751,-33.420570709],[-70.638195482,-33.420555618],[-70.638059953,-33.4205359329999],[-70.637929824,-33.4205006669999],[-70.637817938,-33.420452037],[-70.637706635,-33.420434417],[-70.637608626,-33.420429714],[-70.6374503339999,-33.420425124],[-70.637377446,-33.420422785],[-70.637176245,-33.420425016],[-70.6367591439999,-33.420487788],[-70.63645292,-33.420545516],[-70.636113364,-33.4206466329999],[-70.635890563,-33.4208285299999],[-70.63573617,-33.421016682],[-70.635687246,-33.421139018],[-70.6355965229999,-33.421308435],[-70.6355194069999,-33.421520621],[-70.635493832,-33.4217500249999],[-70.635454247,-33.421915188],[-70.6354311269999,-33.4220479209999],[-70.635377519,-33.4222124459999],[-70.635277254,-33.4223283009999],[-70.6352416989999,-33.422374583],[-70.6351430289999,-33.4224541479999],[-70.635075521,-33.422617293],[-70.635061808,-33.422735824],[-70.6350385979999,-33.422833483],[-70.634999663,-33.4229423259999],[-70.634985028,-33.4229694869999],[-70.63497416,-33.422977707],[-70.634939601,-33.423012948],[-70.634940657,-33.423059105],[-70.634954175,-33.4230971049999],[-70.634977917,-33.4231492859999],[-70.6349933719999,-33.4232147],[-70.6350052069999,-33.42331476],[-70.635009394,-33.423386288],[-70.6350215419999,-33.4235030459999],[-70.635052071,-33.423613598],[-70.635074714,-33.423758851],[-70.635096796,-33.423874286],[-70.635124682,-33.423995609],[-70.6351841979999,-33.4241193789999],[-70.635238441,-33.424219834],[-70.635273044,-33.424297012],[-70.63529635,-33.4243132729999]]]},"properties":{"FID":3,"Descripcio":"Formación Abanico","Codigo":"OlMa","Nombre":"Formación Abanico","Unidad":"Cerro San Cristóbal","Edad":"Oligoceno","Descripc_3":"Las rocas volcánicas que vemos desde el cerro San Cristóbal hasta el sector La Pirámide se originaron por la ocurrencia de sucesivas erupciones volcánicas muy violentas. Cuando ocurren este tipo de erupciones, se producen grandes explosiones, con exp","CodigoUnid":"UcSC","Shape__Area":529195.275390625,"Shape__Length":4117.1380936106489}},{"type":"Feature","id":4,"geometry":{"type":"Polygon","coordinates":[[[-70.6010123519999,-33.389970842],[-70.600867292,-33.389971282],[-70.6006932,-33.389970665],[-70.600606101,-33.389967493],[-70.600520552,-33.389955712],[-70.600438257,-33.3899352979999],[-70.600334351,-33.3899146489999],[-70.6003966439999,-33.389961091],[-70.600443474,-33.3900020049999],[-70.60048004,-33.39004162],[-70.6005270539999,-33.390092554],[-70.600544746,-33.390126686],[-70.6005712859999,-33.390177885],[-70.600589487,-33.3902391239999],[-70.6005962949999,-33.39026203],[-70.600638942,-33.390354062],[-70.6006626989999,-33.390408636],[-70.600686412,-33.390460826],[-70.600701396,-33.39050239],[-70.600711721,-33.390522538],[-70.600722134,-33.390547458],[-70.600742015,-33.3905923789999],[-70.600759691,-33.390625557],[-70.600792626,-33.3906843079999],[-70.600827661,-33.390733487],[-70.600843202,-33.390774328],[-70.6008518639999,-33.390812394],[-70.600856204,-33.390862924],[-70.600856799,-33.390895368],[-70.601397891,-33.391535146],[-70.601506203,-33.391699865],[-70.601506596,-33.391700462],[-70.60152318,-33.391725683],[-70.6015733359999,-33.391801959],[-70.601577576,-33.391808406],[-70.601578423,-33.391809694],[-70.6015955349999,-33.391835718],[-70.601597423,-33.39183859],[-70.601637653,-33.391899769],[-70.6016742199999,-33.391939384],[-70.6016796499999,-33.3919513349999],[-70.6025872829999,-33.393065732],[-70.603209638,-33.394117131],[-70.603993375,-33.395280973],[-70.604212022,-33.396072525],[-70.604298114,-33.396384194],[-70.604403216,-33.3967324029999],[-70.604403555,-33.396733523],[-70.604407162,-33.3967454749999],[-70.604366123,-33.397315938],[-70.604368052,-33.397420903],[-70.604365291,-33.397518292],[-70.6043586449999,-33.397652001],[-70.6043722319999,-33.3980167669999],[-70.604398502,-33.3987220399999],[-70.6043831649999,-33.399731384],[-70.604415257,-33.400555341],[-70.604531536,-33.4013497829999],[-70.6042565879999,-33.402064005],[-70.604081459,-33.402677442],[-70.603922225,-33.40323382],[-70.603984516,-33.4039037109999],[-70.603984608,-33.403904699],[-70.6039855879999,-33.4039152399999],[-70.604381637,-33.404679474],[-70.604383132,-33.40468235],[-70.60443357,-33.40470593],[-70.6044532449999,-33.404723809],[-70.604453303,-33.4047238709999],[-70.6044787829999,-33.404751158],[-70.604489496,-33.40477679],[-70.604510659,-33.40481374],[-70.604543024,-33.404841],[-70.604578907,-33.4048739419999],[-70.604601348,-33.40491851],[-70.60462631,-33.404976409],[-70.6046282729999,-33.405021243],[-70.604628501,-33.405025329],[-70.6046316709999,-33.405082283],[-70.60462924,-33.405135764],[-70.6046335309999,-33.405183431],[-70.604636649,-33.405229204],[-70.60464773,-33.4052748739999],[-70.6046599319999,-33.405319575],[-70.604661702,-33.405353913],[-70.604662263,-33.405384447],[-70.604662807,-33.4054140279999],[-70.604665504,-33.4054369],[-70.604679372,-33.405460065],[-70.604723572,-33.405543007],[-70.604787879,-33.4056364269999],[-70.6048317509999,-33.405701477],[-70.604851116,-33.4057489489999],[-70.6048604599999,-33.405792972],[-70.60486786,-33.405885935],[-70.604879285,-33.405965722],[-70.6048932039999,-33.4060263869999],[-70.604922765,-33.4060868509999],[-70.604967927,-33.406144727],[-70.605005671,-33.406185996],[-70.60507932,-33.406245888],[-70.605154259,-33.4062986069999],[-70.605241779,-33.4063392309999],[-70.605329145,-33.406371507],[-70.6054378439999,-33.406403505],[-70.6055009459999,-33.4064313219999],[-70.605552605,-33.406455708],[-70.60563073,-33.4065142919999],[-70.605665753,-33.406536236],[-70.605707475,-33.406577214],[-70.605744261,-33.406628278],[-70.605765635,-33.406676678],[-70.605800796,-33.406732059],[-70.605815212,-33.4067733899999],[-70.605843624,-33.406833153],[-70.6058444139999,-33.4068760929999],[-70.6058589369999,-33.4069231499999],[-70.605866474,-33.4069617069999],[-70.605860122,-33.40698756],[-70.6058554489999,-33.4070119579999],[-70.6058557919999,-33.407030566],[-70.605850972,-33.407049518],[-70.605844062,-33.4070682199999],[-70.605842539,-33.407078261],[-70.6058475359999,-33.407094661],[-70.605853864,-33.4071139059999],[-70.605855349,-33.407124982],[-70.605861283,-33.4071460229999],[-70.6058688589999,-33.407163463],[-70.6058777339999,-33.407181959],[-70.605891543,-33.4072133969999],[-70.605896292,-33.407239583],[-70.6059011949999,-33.4072741169999],[-70.6059116559999,-33.407301423],[-70.6059278709999,-33.4073322319999],[-70.605943888,-33.407352307],[-70.605958416,-33.407368822],[-70.6059630999999,-33.407391429],[-70.605970672,-33.407416386],[-70.605971067,-33.407437855],[-70.6059703029999,-33.407473657],[-70.605970874,-33.4075046689999],[-70.6059725819999,-33.407520157],[-70.605978798,-33.40754871],[-70.6059891909999,-33.407572436],[-70.605993831,-33.4075926579999],[-70.6060035049999,-33.407623553],[-70.6060177369999,-33.407654865],[-70.60602285,-33.407685342],[-70.606025582,-33.407710121],[-70.606027317,-33.40774255],[-70.6060300839999,-33.4077692389999],[-70.6060262189999,-33.407806512],[-70.6060254669999,-33.407827519],[-70.606021197,-33.4078428459999],[-70.606025207,-33.407875245],[-70.6060202629999,-33.4079157539999],[-70.6060170869999,-33.4079286809999],[-70.606013917,-33.407941964],[-70.606006685,-33.4079663969999],[-70.605999874,-33.407990465],[-70.6059958769999,-33.408005191],[-70.605991549,-33.408018016],[-70.605979683,-33.408048908],[-70.605963714,-33.408108768],[-70.605943259,-33.4081567549999],[-70.605925473,-33.408195163],[-70.605908956,-33.4082252039999],[-70.605887013,-33.4082696309999],[-70.60587111,-33.408333069],[-70.6058576349999,-33.408373807],[-70.605847136,-33.408421666],[-70.605825324,-33.408473249],[-70.605814408,-33.408498444],[-70.605803513,-33.4085248329999],[-70.60577424,-33.408557425],[-70.605736576,-33.408597879],[-70.6057201369999,-33.4086161819999],[-70.605717038,-33.40861611],[-70.605717103,-33.4086162209999],[-70.605709147,-33.4086250789999],[-70.605677806,-33.408661277],[-70.605655452,-33.408703674],[-70.60565049,-33.408713279],[-70.605638283,-33.40874565],[-70.6056304749999,-33.408785122],[-70.605627012,-33.408828833],[-70.605626415,-33.408852026],[-70.6056255189999,-33.408886835],[-70.6056298139999,-33.40893474],[-70.60563638,-33.4089668679999],[-70.605646319,-33.408996804],[-70.6056575599999,-33.4090510619999],[-70.605657247,-33.4090804159999],[-70.6056596779999,-33.409119755],[-70.605662831,-33.409151927],[-70.605682236,-33.4091860359999],[-70.605706185,-33.409235118],[-70.605718737,-33.409267884],[-70.605747766,-33.4093147529999],[-70.605760424,-33.4093532439999],[-70.605772123,-33.409386022],[-70.605788913,-33.4094183399999],[-70.605793358,-33.4094628739999],[-70.605811504,-33.4095213379999],[-70.605847376,-33.409615363],[-70.6058774959999,-33.409675103],[-70.605878285,-33.409678108],[-70.605876907,-33.4096864009999],[-70.6058518529999,-33.409705872],[-70.605869519,-33.4097732129999],[-70.605889749,-33.409850326],[-70.605908789,-33.409794383],[-70.605927491,-33.409865674],[-70.605968482,-33.409959633],[-70.6060096589999,-33.4100636119999],[-70.6060415119999,-33.410124762],[-70.6060452039999,-33.410130057],[-70.606077104,-33.410200635],[-70.606094834,-33.410239861],[-70.6065044709999,-33.4109001419999],[-70.6065392369999,-33.410939657],[-70.6066409439999,-33.41102424],[-70.606744716,-33.4110973429999],[-70.60679107,-33.411142556],[-70.606946452,-33.411298981],[-70.6070655999999,-33.41146542],[-70.6071631789999,-33.411572962],[-70.607258271,-33.411669084],[-70.6074152749999,-33.411806697],[-70.607514626,-33.4119485759999],[-70.6076336899999,-33.412079462],[-70.607752578,-33.4122008059999],[-70.607846432,-33.412275946],[-70.607947286,-33.412345028],[-70.608115385,-33.4124707829999],[-70.608140362,-33.412511337],[-70.608333997,-33.412626065],[-70.60836847,-33.412631775],[-70.608428456,-33.412671652],[-70.608540249,-33.412716732],[-70.608627601,-33.412747812],[-70.608705444,-33.412778322],[-70.6087387859999,-33.4127907069999],[-70.608824773,-33.412824906],[-70.608921891,-33.4128455979999],[-70.60903935,-33.412858391],[-70.609088358,-33.412857209],[-70.6088607469999,-33.412664535],[-70.6088581399999,-33.412646045],[-70.6088280119999,-33.4124323129999],[-70.608828275,-33.4124313249999],[-70.60886793,-33.4122826629999],[-70.6089051169999,-33.4121777879999],[-70.608959037,-33.412016026],[-70.6090237879999,-33.411863072],[-70.609097984,-33.411724497],[-70.609133169,-33.411623041],[-70.609209302,-33.4115087129999],[-70.609284279,-33.4113317639999],[-70.609285249,-33.411191567],[-70.609297052,-33.4110601779999],[-70.609320269,-33.410757138],[-70.609320209,-33.410753851],[-70.609316705,-33.410563909],[-70.609304343,-33.4103564769999],[-70.609304449,-33.410355992],[-70.609335836,-33.410212902],[-70.609390949,-33.409961645],[-70.60944606,-33.409710388],[-70.6094459999999,-33.4097070999999],[-70.609443288,-33.4095600979999],[-70.6094400659999,-33.4095499589999],[-70.6093798599999,-33.409360487],[-70.609273237,-33.409132804],[-70.6091831529999,-33.4088762709999],[-70.6091266729999,-33.4085906709999],[-70.608997485,-33.408219158],[-70.6087083849999,-33.407738525],[-70.608504168,-33.407463788],[-70.6083470519999,-33.4072361619999],[-70.608255308,-33.4070822529999],[-70.608134118,-33.4068373179999],[-70.608044228,-33.4067022479999],[-70.6080329719999,-33.406656531],[-70.608032572,-33.406649516],[-70.608030868,-33.406619573],[-70.6080223069999,-33.4065409419999],[-70.6080149479999,-33.406450365],[-70.608005272,-33.406388452],[-70.607995112,-33.406300297],[-70.6079883909999,-33.40624431],[-70.6079883309999,-33.406241022],[-70.6079873579999,-33.40618825],[-70.607983722,-33.4061453469999],[-70.60798375,-33.4061431059999],[-70.607984874,-33.406053466],[-70.607984787,-33.406052325],[-70.607977691,-33.4059597629999],[-70.6079730659999,-33.4058758529999],[-70.6079696429999,-33.40576733],[-70.6079695829999,-33.405764043],[-70.607968281,-33.405693378],[-70.6079702929999,-33.4055864529999],[-70.6079702019999,-33.4055847729999],[-70.6079633859999,-33.4054586469999],[-70.607960748,-33.405453353],[-70.607935026,-33.405401748],[-70.607855763,-33.4052996949999],[-70.607715591,-33.405227065],[-70.607591769,-33.40517713],[-70.607508975,-33.40513048],[-70.607423905,-33.4050838599999],[-70.607366387,-33.405050245],[-70.607267067,-33.404971359],[-70.607204998,-33.4049378029999],[-70.607138485,-33.4049100309999],[-70.607026719,-33.404867983],[-70.606929946,-33.4048325589999],[-70.6068607,-33.4047800069999],[-70.60680717,-33.404715798],[-70.6067295679999,-33.4046438409999],[-70.606684398,-33.40453711],[-70.606638,-33.404334891],[-70.6066369929999,-33.404326114],[-70.606604112,-33.404039451],[-70.606604278,-33.4040381409999],[-70.606643866,-33.4037263549999],[-70.606691328,-33.403589497],[-70.606776877,-33.4034848659999],[-70.606849113,-33.403390873],[-70.6069039769999,-33.4032804],[-70.6069356469999,-33.403146367],[-70.606950824,-33.403043567],[-70.606970308,-33.4027923209999],[-70.606972414,-33.402671053],[-70.6069759489999,-33.402554087],[-70.606975889,-33.4025508],[-70.6069741479999,-33.40245628],[-70.606974088,-33.4024529929999],[-70.6069726109999,-33.402372785],[-70.606967834,-33.402267858],[-70.606967884,-33.4022670109999],[-70.606976531,-33.402122192],[-70.606976356,-33.402120829],[-70.606956611,-33.401967353],[-70.6069565509999,-33.4019640659999],[-70.606954942,-33.401876702],[-70.6069430709999,-33.40169551],[-70.606898959,-33.4013701379999],[-70.606891494,-33.401242816],[-70.606870009,-33.401095632],[-70.6068535369999,-33.400942656],[-70.606844471,-33.4008210809999],[-70.606829943,-33.400680966],[-70.606788547,-33.4003794189999],[-70.6067887409999,-33.4003779819999],[-70.6068020599999,-33.4002790279999],[-70.606802,-33.40027574],[-70.606799926,-33.40016309],[-70.606802648,-33.400032772],[-70.606802554,-33.4000310769999],[-70.606794972,-33.399893999],[-70.606794911,-33.3998907119999],[-70.6067923369999,-33.399750866],[-70.606796211,-33.399590469],[-70.606796151,-33.399587182],[-70.6067947889999,-33.399513177],[-70.606794728,-33.3995098899999],[-70.60679355,-33.3994459039999],[-70.6067902349999,-33.399430676],[-70.606778634,-33.399377377],[-70.606777485,-33.399368511],[-70.606770675,-33.399315918],[-70.606768084,-33.3993029159999],[-70.606741369,-33.399168835],[-70.606710952,-33.3990618549999],[-70.606710686,-33.399053679],[-70.606705608,-33.3988977189999],[-70.606705639,-33.398897236],[-70.606716644,-33.398724581],[-70.606740045,-33.398604973],[-70.606769793,-33.398521073],[-70.606814178,-33.3984596519999],[-70.60690958,-33.398388026],[-70.607010912,-33.398329447],[-70.607084264,-33.398296284],[-70.607172012,-33.398272479],[-70.607289942,-33.39825559],[-70.607434992,-33.398252594],[-70.6076145609999,-33.398240722],[-70.6078825819999,-33.398212434],[-70.6080801049999,-33.398186967],[-70.6082299189999,-33.398165935],[-70.6084905869999,-33.398109107],[-70.6087625599999,-33.398048314],[-70.609125999,-33.398011148],[-70.609772095,-33.3979989489999],[-70.610020729,-33.398030083],[-70.61039979,-33.39809961],[-70.610626553,-33.398178748],[-70.610861268,-33.398318869],[-70.611015647,-33.398421853],[-70.6112360779999,-33.398527798],[-70.611537169,-33.3986687239999],[-70.611787906,-33.398844425],[-70.612081599,-33.399266531],[-70.612116973,-33.3993417209999],[-70.6123390189999,-33.399524264],[-70.612486667,-33.3996631249999],[-70.612631737,-33.3998163379999],[-70.6127826709999,-33.399979018],[-70.6129189449999,-33.400118026],[-70.613063707,-33.4002545389999],[-70.613219274,-33.400359892],[-70.613446384,-33.400488175],[-70.613615819,-33.400512695],[-70.613761579,-33.400518435],[-70.613978048,-33.400532799],[-70.6141921019999,-33.4005395579999],[-70.614428592,-33.400528846],[-70.6146286059999,-33.4005147889999],[-70.614798971,-33.4004973],[-70.615035565,-33.4004923109999],[-70.615222457,-33.400507059],[-70.615302587,-33.40053274],[-70.615420521,-33.400574671],[-70.615476975,-33.400627624],[-70.615516497,-33.400687955],[-70.6155521489999,-33.400769811],[-70.6155939229999,-33.400951806],[-70.615641398,-33.401163723],[-70.615644802,-33.401178919],[-70.615645091,-33.4011802059999],[-70.6156194009999,-33.4014060289999],[-70.615621725,-33.40153156],[-70.615621785,-33.401534848],[-70.6156247059999,-33.4016925839999],[-70.615624741,-33.4016944919999],[-70.6156247659999,-33.401695871],[-70.615645053,-33.4018030629999],[-70.6156484159999,-33.401820835],[-70.6156508729999,-33.401953524],[-70.615650934,-33.4019568109999],[-70.615657584,-33.402085574],[-70.615668732,-33.402233539],[-70.615668899,-33.402235752],[-70.615647342,-33.402454362],[-70.615649401,-33.402565581],[-70.615649462,-33.4025688679999],[-70.615628833,-33.402837575],[-70.6156099529999,-33.40297025],[-70.6156012609999,-33.403192272],[-70.615603254,-33.4032999129999],[-70.615603315,-33.4033032],[-70.615601036,-33.4034106039999],[-70.615599485,-33.403557371],[-70.6155974709999,-33.403679089],[-70.615596528,-33.4038562919999],[-70.615596518,-33.4038580599999],[-70.615603632,-33.404011872],[-70.615623215,-33.404147625],[-70.6156294689999,-33.404254919],[-70.615673637,-33.404581965],[-70.6156756299999,-33.4045967239999],[-70.6157072949999,-33.404696354],[-70.615746879,-33.404851956],[-70.6157501989999,-33.404865006],[-70.61575025,-33.404865209],[-70.615750792,-33.4050439719999],[-70.615750798,-33.4050458619999],[-70.615750807,-33.4050489319999],[-70.6157847439999,-33.4051916569999],[-70.6158351729999,-33.405303148],[-70.6158866179999,-33.4054695049999],[-70.615975304,-33.405649695],[-70.6160259979999,-33.405775499],[-70.6161352629999,-33.406117084],[-70.616137731,-33.406124802],[-70.61615141,-33.40629466],[-70.6161525109999,-33.40630834],[-70.6162224669999,-33.406475649],[-70.616327712,-33.4066281829999],[-70.616357826,-33.406757329],[-70.616360162,-33.406767347],[-70.616405919,-33.407164039],[-70.6164274239999,-33.407300618],[-70.616430102,-33.4073176279999],[-70.616479738,-33.407467066],[-70.616479817,-33.4074673059999],[-70.616529024,-33.407748451],[-70.6165323179999,-33.407767272],[-70.61659616,-33.4079883479999],[-70.6166684679999,-33.408205735],[-70.616756745,-33.408430332],[-70.6167580429999,-33.4084336339999],[-70.616781211,-33.4086091889999],[-70.616789507,-33.408826999],[-70.616789523,-33.40882741],[-70.6168099129999,-33.408940661],[-70.616813182,-33.408958823],[-70.616813309,-33.408959529],[-70.6168084299999,-33.4091500179999],[-70.616808425,-33.409150191],[-70.616808357,-33.409152869],[-70.61683641,-33.4092849319999],[-70.616885265,-33.409388091],[-70.6169293199999,-33.409623826],[-70.61693264,-33.409641595],[-70.6169459019999,-33.409907207],[-70.6169462129999,-33.409913434],[-70.616985122,-33.4100767639999],[-70.616987863,-33.41008827],[-70.616997952,-33.4102071789999],[-70.616998784,-33.410216979],[-70.617054728,-33.41042149],[-70.6170581539999,-33.410434014],[-70.617058296,-33.410434532],[-70.61705047,-33.4107030719999],[-70.617017243,-33.41098268],[-70.61690328,-33.411281236],[-70.616799995,-33.41146512],[-70.616635521,-33.411669202],[-70.6164400229999,-33.4121520969999],[-70.616303949,-33.412748736],[-70.61630387,-33.4127490829999],[-70.616304212,-33.412756265],[-70.616326779,-33.4132305429999],[-70.6163269209999,-33.4132335359999],[-70.6163051569999,-33.413312233],[-70.616290077,-33.413358242],[-70.616259874,-33.413417335],[-70.616229512,-33.413467839],[-70.616193461,-33.4135184159999],[-70.616137367,-33.413562097],[-70.6160618019999,-33.4136298929999],[-70.615986236,-33.4136976889999],[-70.615938851,-33.4137508009999],[-70.615862888,-33.413797127],[-70.6157841689999,-33.4138482599999],[-70.6157525089999,-33.413982295],[-70.615723207,-33.414090052],[-70.615703205,-33.4141468129999],[-70.616291567,-33.41435942],[-70.616840091,-33.414531229],[-70.617391198,-33.414842192],[-70.617901167,-33.415491721],[-70.618315954,-33.4161226049999],[-70.619324487,-33.41680539],[-70.620215617,-33.417549353],[-70.62081933,-33.417851612],[-70.620844147,-33.4178685009999],[-70.621282386,-33.418293647],[-70.621307934,-33.418338526],[-70.6213080599999,-33.418338756],[-70.6213220879999,-33.4183650649999],[-70.6213221199999,-33.418365115],[-70.621322215,-33.4183652939999],[-70.621344403,-33.4183955449999],[-70.621393382,-33.4184588529999],[-70.6214328679999,-33.418501287],[-70.621464105,-33.4185285579999],[-70.621501369,-33.4185738839999],[-70.621552831,-33.418652311],[-70.621552908,-33.418652429],[-70.621578934,-33.4187055359999],[-70.621590227,-33.4187289779999],[-70.621590334,-33.4187292],[-70.621590775,-33.4187292949999],[-70.621594041,-33.418744854],[-70.621593533,-33.418744837],[-70.6215940609999,-33.418744951],[-70.621594084,-33.4187450589999],[-70.621601923,-33.4187613299999],[-70.6216019779999,-33.418761445],[-70.621630304,-33.418767574],[-70.6216791589999,-33.418778145],[-70.621732618,-33.418781364],[-70.621861468,-33.4187891229999],[-70.6220597079999,-33.418799893],[-70.622173531,-33.418800313],[-70.6223022139999,-33.418773576],[-70.622388996,-33.418758124],[-70.622557758,-33.4187444629999],[-70.622656422,-33.418744599],[-70.6226567799999,-33.418744599],[-70.622727238,-33.4187694469999],[-70.622758388,-33.4187919459999],[-70.622946757,-33.418891607],[-70.623027209,-33.4189335039999],[-70.623141795,-33.418974954],[-70.6232362929999,-33.419007123],[-70.623322209,-33.4190370219999],[-70.623446987,-33.41906617],[-70.623447955,-33.4190663909999],[-70.623499693,-33.4190943469999],[-70.623591345,-33.4191265529999],[-70.623657174,-33.4191471629999],[-70.623821907,-33.41918296],[-70.62382207,-33.4191829989999],[-70.623822877,-33.419183174],[-70.624080266,-33.419247979],[-70.624081122,-33.419248195],[-70.624394152,-33.41925006],[-70.62458617,-33.419247545],[-70.6247312359999,-33.419238487],[-70.624805153,-33.419235132],[-70.624969613,-33.419204344],[-70.6251533,-33.4191577],[-70.6253332209999,-33.4191413579999],[-70.6254695,-33.419125255],[-70.6255999109999,-33.4190996849999],[-70.625821176,-33.419063379],[-70.6259742559999,-33.4190327389999],[-70.626127336,-33.419002099],[-70.6263828259999,-33.418970116],[-70.626632448,-33.418928664],[-70.6268372649999,-33.418925977],[-70.626951143,-33.418929256],[-70.6271388919999,-33.4189267929999],[-70.627332332,-33.418924255],[-70.627588443,-33.418925666],[-70.627929807,-33.418921186],[-70.627993394,-33.4189169709999],[-70.628076424,-33.418906336],[-70.628115071,-33.4188807749999],[-70.628137904,-33.418846474],[-70.6281495489999,-33.418822459],[-70.6281583159999,-33.418796694],[-70.628166715,-33.418751248],[-70.628178691,-33.41866877],[-70.628168021,-33.4185925539999],[-70.6281651629999,-33.4185800729999],[-70.62816008,-33.418557871],[-70.628159868,-33.418557469],[-70.628145949,-33.41853104],[-70.628128843,-33.4184682709999],[-70.6281143689999,-33.418424557],[-70.6281135359999,-33.418417512],[-70.628113303,-33.418415534],[-70.628108963,-33.418378815],[-70.628092,-33.4182954999999],[-70.6280918109999,-33.4182950699999],[-70.628091028,-33.418293287],[-70.628073721,-33.4182539],[-70.628015122,-33.418193572],[-70.627936144,-33.418108709],[-70.627868188,-33.4180046129999],[-70.627770256,-33.4178799119999],[-70.627686734,-33.4177543059999],[-70.627653573,-33.4176545249999],[-70.627606279,-33.417559701],[-70.6275737409999,-33.417493318],[-70.627573582,-33.417484787],[-70.627573565,-33.417483891],[-70.6275732289999,-33.417465884],[-70.627572,-33.417429],[-70.62758774,-33.4174048479999],[-70.627610894,-33.417349663],[-70.6276521619999,-33.4172739589999],[-70.627688163,-33.4172209929999],[-70.627758322,-33.417168771],[-70.627828971,-33.417142789],[-70.627931066,-33.4171247469999],[-70.627992091,-33.4171167879999],[-70.628073075,-33.417110952],[-70.62819417,-33.4171064679999],[-70.6283136439999,-33.417104899],[-70.628433119,-33.41710333],[-70.628556354,-33.4171203239999],[-70.628679376,-33.417125867],[-70.628704808,-33.417130845],[-70.6288096,-33.417151359],[-70.628941208,-33.417159651],[-70.62905583,-33.4171724619999],[-70.629206057,-33.4171758869999],[-70.629383847,-33.4171735519999],[-70.629543914,-33.417174432],[-70.629668478,-33.4171787599999],[-70.629931098,-33.417224225],[-70.630120957,-33.4172587139999],[-70.63028468,-33.4172649129999],[-70.630434381,-33.417282034],[-70.630531187,-33.417285533],[-70.630745487,-33.4172757489999],[-70.630847358,-33.417245776],[-70.630962188,-33.417178409],[-70.631105525,-33.417083467],[-70.631207316,-33.4170492],[-70.6313499889999,-33.4170101],[-70.631489987,-33.416976462],[-70.6315583749999,-33.416967863],[-70.631805211,-33.416930017],[-70.631945618,-33.416906695],[-70.6322446519999,-33.4168870669999],[-70.632324457,-33.416859315],[-70.632593802,-33.4168080479999],[-70.632865189,-33.4167138029999],[-70.6330411609999,-33.416622081],[-70.6331839599999,-33.416590314],[-70.6333226309999,-33.4165503099999],[-70.633480544,-33.416474261],[-70.633593435,-33.416425052],[-70.633711658,-33.416356685],[-70.6338246829999,-33.416314632],[-70.633965974,-33.416262662],[-70.634104198,-33.4161988019999],[-70.634225309,-33.416132783],[-70.634321443,-33.416100496],[-70.634380644,-33.416071083],[-70.634473935,-33.4160388339999],[-70.634555623,-33.4159948079999],[-70.634665892,-33.415957563],[-70.6347535369999,-33.4159277739999],[-70.634815089,-33.415872083],[-70.6349139339999,-33.415832602],[-70.6349925549999,-33.4157766859999],[-70.6350772659999,-33.415742163],[-70.6351533989999,-33.415705368],[-70.6352206399999,-33.415649601],[-70.6352739719999,-33.4156107209999],[-70.635304815,-33.4155864529999],[-70.635338353,-33.415558691],[-70.635335673,-33.415542222],[-70.635329563,-33.415541708],[-70.6353135429999,-33.415541919],[-70.6352408119999,-33.4155428779999],[-70.6351367,-33.415544251],[-70.6350360019999,-33.415545578],[-70.634957411,-33.415542319],[-70.634899275,-33.4155373579999],[-70.634852898,-33.4155222219999],[-70.634823642,-33.415509722],[-70.634758517,-33.415496264],[-70.634686727,-33.415491484],[-70.634599682,-33.415492631],[-70.6345673499999,-33.415492103],[-70.6345325779999,-33.4154918319999],[-70.634521819,-33.415491748],[-70.634484217,-33.41548938],[-70.634445451,-33.415485596],[-70.63441184,-33.415483653],[-70.634392373,-33.415477322],[-70.634368948,-33.415467266],[-70.6343322879999,-33.415454388],[-70.6343145439999,-33.415451839],[-70.6342775099999,-33.4154465199999],[-70.6342272859999,-33.4154385919999],[-70.6341860379999,-33.4154238639999],[-70.634142246,-33.4153948529999],[-70.634106437,-33.415366692],[-70.634066256,-33.4153481319999],[-70.634025115,-33.41533913],[-70.6339600969999,-33.4153313969999],[-70.633893568,-33.4153036399999],[-70.633858897,-33.4152754639999],[-70.633831142,-33.4152519679999],[-70.6338113699999,-33.415229322],[-70.633761836,-33.415197523],[-70.633726098,-33.415173178],[-70.633694823,-33.415144003],[-70.6336658769999,-33.415117659],[-70.633625517,-33.415089558],[-70.6335897979999,-33.4150661679999],[-70.6335596599999,-33.415036976],[-70.633509744,-33.4149847419999],[-70.6334494719999,-33.414956903],[-70.6333631969999,-33.414907931],[-70.6332828339999,-33.4148708119999],[-70.633202383,-33.414828921],[-70.633110464,-33.414782409],[-70.633015789,-33.414740706],[-70.6329564229999,-33.414704205],[-70.632915974,-33.414671332],[-70.632863879,-33.4146242959999],[-70.632831853,-33.414585347],[-70.6328041369999,-33.4145487269999],[-70.6327777549999,-33.414507317],[-70.632744351,-33.4144707729999],[-70.6327138569999,-33.414437769],[-70.6326590749999,-33.4143991189999],[-70.632608781,-33.4143723409999],[-70.632549888,-33.414342097],[-70.632465192,-33.4143014539999],[-70.632410588,-33.4142723469999],[-70.632367363,-33.414243089],[-70.6323225579999,-33.414205502],[-70.632261908,-33.414157384],[-70.632201257,-33.4141092679999],[-70.632159343,-33.414074028],[-70.6321073139999,-33.41403057],[-70.632058177,-33.4139894589999],[-70.63202204,-33.413958916],[-70.631955768,-33.413914452],[-70.631902676,-33.4138900959999],[-70.631760645,-33.413832418],[-70.631716258,-33.4138161779999],[-70.631686012,-33.4137962949999],[-70.631642786,-33.413767037],[-70.631605405,-33.413746053],[-70.6315550909999,-33.4137180819999],[-70.631526267,-33.41369818],[-70.6314903529999,-33.413679563],[-70.6314543509999,-33.413656175],[-70.631418415,-33.413636367],[-70.631372567,-33.4136190739999],[-70.631310965,-33.413596023],[-70.631215071,-33.413565072],[-70.631173447,-33.413545337],[-70.631121822,-33.4135233479999],[-70.631084464,-33.4135035569999],[-70.631038572,-33.413483879],[-70.6309885919999,-33.413473799],[-70.6309315459999,-33.413466198],[-70.630877321,-33.4134573659999],[-70.6308286079999,-33.4134389179999],[-70.6307705789999,-33.413418291],[-70.630616747,-33.4133859579999],[-70.630506765,-33.4133623499999],[-70.6304225169999,-33.413345561],[-70.63031258,-33.4133243389999],[-70.630181176,-33.41329624],[-70.6300954829999,-33.413278277],[-70.6300098359999,-33.4132627],[-70.629925611,-33.4132471039999],[-70.629821764,-33.4132472749999],[-70.6297332949999,-33.413232928],[-70.6296762709999,-33.413226519],[-70.629603959,-33.4132394],[-70.629548713,-33.413252056],[-70.6294976679999,-33.4132610779999],[-70.629453601,-33.41326285],[-70.629396733,-33.413264791],[-70.629351221,-33.413265388],[-70.6292771299999,-33.4132592029999],[-70.629204551,-33.41325777],[-70.629141837,-33.413251436],[-70.629046146,-33.413231218],[-70.628910541,-33.413206752],[-70.6287622039999,-33.413186031],[-70.628649729,-33.413177487],[-70.628538394,-33.413157473],[-70.628364058,-33.413191975],[-70.62828379,-33.4132359779999],[-70.6281481889999,-33.413287867],[-70.628016052,-33.4132967589999],[-70.627870248,-33.413259303],[-70.6277334439999,-33.413246781],[-70.627562439,-33.4132311299999],[-70.6274045019999,-33.413229623],[-70.627238099,-33.4132318069999],[-70.627067428,-33.413234046],[-70.626918292,-33.4132467389999],[-70.626751887,-33.413248922],[-70.62658515,-33.413233213],[-70.626478414,-33.4132310329999],[-70.626350211,-33.413221977],[-70.6262480079999,-33.4132340539999],[-70.626055604,-33.413215102],[-70.6258289309999,-33.4131894399999],[-70.625691127,-33.413123242],[-70.625582924,-33.4130423399999],[-70.625478989,-33.412961381],[-70.625310918,-33.412874104],[-70.625155849,-33.412797395],[-70.624996513,-33.4127207409999],[-70.624768909,-33.412644981],[-70.624630574,-33.412550156],[-70.624569773,-33.4124936859999],[-70.624520907,-33.41239053],[-70.624519773,-33.412379304],[-70.624510441,-33.412286872],[-70.624507762,-33.412277458],[-70.624483042,-33.4121905929999],[-70.6244831819999,-33.412186923],[-70.624488776,-33.412040193],[-70.6244854139999,-33.412025158],[-70.6244523089999,-33.4118771029999],[-70.624450977,-33.411870173],[-70.624411986,-33.411667415],[-70.624383934,-33.411505527],[-70.6243740159999,-33.411339584],[-70.624377075,-33.41125937],[-70.624377502,-33.4111601019999],[-70.624389733,-33.4110424529999],[-70.624391015,-33.411030122],[-70.6243994439999,-33.410871573],[-70.624404281,-33.410764613],[-70.624407517,-33.410693942],[-70.624406167,-33.410621421],[-70.6244069859999,-33.410543147],[-70.624403596,-33.4105329459999],[-70.624380462,-33.410463321],[-70.624344445,-33.4103626209999],[-70.62434358,-33.410353648],[-70.624335984,-33.410274923],[-70.62432763,-33.41019295],[-70.624312129,-33.410093891],[-70.624305127,-33.4099622699999],[-70.624296097,-33.409844037],[-70.624292258,-33.409760096],[-70.6242891379999,-33.4097488199999],[-70.624265416,-33.4096630949999],[-70.624218164,-33.409570178],[-70.6241501499999,-33.409462262],[-70.6241049609999,-33.4093578649999],[-70.624028408,-33.409178477],[-70.6239522339999,-33.4090601689999],[-70.623875971,-33.40893709],[-70.62380522,-33.408804394],[-70.623774468,-33.408680719],[-70.6237743729999,-33.4086778669999],[-70.623771699,-33.408597146],[-70.623775184,-33.408539834],[-70.623787487,-33.408467134],[-70.623781835,-33.4084080339999],[-70.623789658,-33.408339211],[-70.623804628,-33.4082874749999],[-70.6238169659999,-33.408216685],[-70.62381992,-33.408130746],[-70.623818641,-33.408062043],[-70.623808083,-33.407983917],[-70.623806187,-33.407978663],[-70.623788885,-33.407930719],[-70.623787631,-33.407920608],[-70.6237808499999,-33.4078659219999],[-70.623768159,-33.4077954589999],[-70.6237674189999,-33.407793975],[-70.623739788,-33.4077385639999],[-70.623690831,-33.407676212],[-70.6236284349999,-33.407625488],[-70.623568491,-33.407584277],[-70.623539728,-33.4075613489999],[-70.6234582399999,-33.407463154],[-70.623392859,-33.4073742919999],[-70.6233371829999,-33.407317754],[-70.6232697739999,-33.407242281],[-70.6232067029999,-33.407155297],[-70.623122977,-33.40705904],[-70.623062465,-33.4069872929999],[-70.622980873,-33.406883372],[-70.622832784,-33.4066918759999],[-70.6227513699999,-33.406597496],[-70.622644534,-33.406482452],[-70.62254975,-33.4064035179999],[-70.62246183,-33.406326404],[-70.622374404,-33.406276007],[-70.6222753549999,-33.4062124],[-70.622178651,-33.40615258],[-70.622045612,-33.4060970529999],[-70.62191538,-33.4060701229999],[-70.6217718509999,-33.406062455],[-70.621626224,-33.406064359],[-70.621476329,-33.4060815889999],[-70.621367322,-33.406094468],[-70.621260908,-33.406124492],[-70.6211749029999,-33.406150432],[-70.6210527379999,-33.4061902069999],[-70.620973737,-33.406225599],[-70.6209127609999,-33.406251211],[-70.6209116859999,-33.4062518169999],[-70.6208429339999,-33.406290305],[-70.620841862,-33.406290915],[-70.6207888869999,-33.406321547],[-70.620788239,-33.4063221559999],[-70.620739676,-33.4063680039999],[-70.620739606,-33.4063680639999],[-70.620739026,-33.4063686109999],[-70.6207007149999,-33.4063989749999],[-70.620634996,-33.4064450559999],[-70.620576018,-33.40648639],[-70.620531174,-33.406522768],[-70.620437615,-33.406588358],[-70.6203092599999,-33.406606763],[-70.620184932,-33.406614352],[-70.620184513,-33.406614357],[-70.620074716,-33.406615791],[-70.620074296,-33.406615797],[-70.6199644989999,-33.406617231],[-70.61996408,-33.4066172359999],[-70.619772508,-33.406619738],[-70.619648236,-33.406630309],[-70.619647817,-33.40663032],[-70.6195635189999,-33.4066337799999],[-70.6195630999999,-33.406633797],[-70.619541629,-33.4066346779999],[-70.6194457999999,-33.406644882],[-70.6194453809999,-33.406644887],[-70.619356916,-33.406646042],[-70.619282418,-33.4066559629999],[-70.619281999,-33.4066559679999],[-70.6192219769999,-33.406656752],[-70.619140535,-33.4066757109999],[-70.619070718,-33.406688673],[-70.619070299,-33.406688672],[-70.6189910319999,-33.406687333],[-70.6188485069999,-33.406672484],[-70.618759714,-33.406640237],[-70.6186714519999,-33.406636617],[-70.618622789,-33.406620549],[-70.6185826139999,-33.406601984],[-70.618519067,-33.406550319],[-70.6184788039999,-33.4065269829999],[-70.618401432,-33.406496973],[-70.618338017,-33.406452464],[-70.618290528,-33.4063859339999],[-70.6182585619999,-33.4063190629999],[-70.61824222,-33.406266305],[-70.6182267469999,-33.406207405],[-70.618223854,-33.406196392],[-70.618215874,-33.406107538],[-70.6182152489999,-33.406100583],[-70.618199625,-33.40604911],[-70.618197069,-33.4060406899999],[-70.618194176,-33.4060128259999],[-70.618192912,-33.406000657],[-70.618177023,-33.405972231],[-70.6181598049999,-33.405929859],[-70.618157347,-33.405923811],[-70.618153032,-33.405875191],[-70.618148822,-33.405832296],[-70.618170053,-33.4057804789999],[-70.6181706799999,-33.405779937],[-70.618170705,-33.405779874],[-70.6182243069999,-33.405733498],[-70.618224466,-33.4057333599999],[-70.618312385,-33.405687831],[-70.618385449,-33.4056696969999],[-70.618436646,-33.405669029],[-70.6185235739999,-33.405662169],[-70.618598318,-33.4056425809999],[-70.618644236,-33.405633392],[-70.6187107389999,-33.405629661],[-70.618756683,-33.4056219039999],[-70.6187812479999,-33.4056118949999],[-70.618781881,-33.4056116369999],[-70.618782096,-33.4056115499999],[-70.6188000659999,-33.4055903119999],[-70.618800383,-33.405589937],[-70.618800469,-33.4055898359999],[-70.618855009,-33.405561684],[-70.618917843,-33.405539646],[-70.618918448,-33.4055394339999],[-70.618918607,-33.405539378],[-70.618976875,-33.405474485],[-70.618977141,-33.405474189],[-70.619031235,-33.405430983],[-70.619057744,-33.405381908],[-70.619095499,-33.405293726],[-70.619124168,-33.405228926],[-70.61915577,-33.405168862],[-70.6191856409999,-33.4050921159999],[-70.6192226439999,-33.4050164699999],[-70.6192423379999,-33.404927927],[-70.6192790759999,-33.404837968],[-70.6192989899999,-33.404761353],[-70.619305552,-33.40464226],[-70.61928676,-33.404549446],[-70.619272434,-33.4044673129999],[-70.619248837,-33.404293363],[-70.619247716,-33.4042850979999],[-70.6192288399999,-33.404220129],[-70.619224924,-33.404206653],[-70.6192487289999,-33.4041097049999],[-70.619242303,-33.403981058],[-70.6192419389999,-33.4039737849999],[-70.619187822,-33.403817008],[-70.619138503,-33.4036888009999],[-70.619064581,-33.403614604],[-70.618969726,-33.4035621539999],[-70.618893492,-33.4035166199999],[-70.61884752,-33.403492166],[-70.61879146,-33.403460685],[-70.618742313,-33.4034183759999],[-70.6186971659999,-33.403361699],[-70.6186763489999,-33.403313055],[-70.6186634909999,-33.40328141],[-70.618659954,-33.4032727049999],[-70.6186616909999,-33.403213029],[-70.618660253,-33.403135499],[-70.618656664,-33.403018627],[-70.618652603,-33.402953062],[-70.618647097,-33.402886322],[-70.6186475229999,-33.402839908],[-70.618647568,-33.4028350149999],[-70.6186402009999,-33.402811056],[-70.6186369709999,-33.402800554],[-70.618636156,-33.402756579],[-70.618636109,-33.402754036],[-70.6186299519999,-33.402729063],[-70.618619673,-33.402680211],[-70.618616339,-33.402664348],[-70.6185940679999,-33.4026139329999],[-70.618587713,-33.4025857409999],[-70.6185803559999,-33.402557204],[-70.618567932,-33.402531596],[-70.61854679,-33.4024960799999],[-70.6185396559999,-33.402476305],[-70.618535994,-33.402466155],[-70.618538458,-33.402423894],[-70.618538584,-33.40242174],[-70.618523844,-33.402363234],[-70.618488731,-33.4023107209999],[-70.618457775,-33.4022619209999],[-70.618445235,-33.402241772],[-70.618425541,-33.4022229409999],[-70.6183910569999,-33.402204301],[-70.6183439,-33.4021772369999],[-70.6183158699999,-33.4021384709999],[-70.6182913599999,-33.402105385],[-70.6182633129999,-33.402065664],[-70.61824659,-33.402022933],[-70.618228346,-33.4019801219999],[-70.6182263649999,-33.401975474],[-70.618220983,-33.401930685],[-70.618214874,-33.401846774],[-70.618214237,-33.401812422],[-70.618217622,-33.401761537],[-70.6182170979999,-33.4017288699999],[-70.618234967,-33.401679961],[-70.6182595019999,-33.401622374],[-70.618308283,-33.401491456],[-70.618330952,-33.4014253029999],[-70.61833677,-33.401370824],[-70.618347733,-33.401317709],[-70.6183639559999,-33.401180057],[-70.618416254,-33.40105482],[-70.618525457,-33.40086871],[-70.61858719,-33.400792026],[-70.6186587889999,-33.4006951699999],[-70.618659179,-33.40069492],[-70.618659442,-33.400694565],[-70.61878798,-33.400612238],[-70.6188509799999,-33.400573237],[-70.6189359489999,-33.400515149],[-70.6189363779999,-33.400514856],[-70.6190198209999,-33.4004736799999],[-70.619146175,-33.4004147649999],[-70.6192703949999,-33.400363512],[-70.619363328,-33.4003432109999],[-70.61942081,-33.400310604],[-70.619421882,-33.400309994],[-70.619500656,-33.400237025],[-70.619501309,-33.4002364199999],[-70.619558312,-33.400190962],[-70.619558496,-33.400190814],[-70.619609657,-33.400140758],[-70.619609908,-33.400140512],[-70.6196745619999,-33.4000826349999],[-70.619674823,-33.400082394],[-70.6197088449999,-33.400050102],[-70.619709493,-33.400049494],[-70.619736068,-33.400009895],[-70.619766635,-33.399970841],[-70.619788076,-33.399930474],[-70.6198101109999,-33.399891532],[-70.619827195,-33.399861721],[-70.6198489559999,-33.399807988],[-70.619867482,-33.399763841],[-70.6199326019999,-33.399686154],[-70.619976126,-33.399644671],[-70.619976774,-33.399644063],[-70.6199976079999,-33.399607219],[-70.6199977059999,-33.3996070439999],[-70.620052469,-33.399564488],[-70.620052672,-33.39956433],[-70.620095959,-33.3995417689999],[-70.6203186989999,-33.399465323],[-70.620319197,-33.399465152],[-70.620319633,-33.3994650019999],[-70.620371371,-33.399356106],[-70.6203657149999,-33.39934514],[-70.620330994,-33.3992778269999],[-70.620330455,-33.399278651],[-70.620330354,-33.399278806],[-70.620324512,-33.3992674799999],[-70.6203243109999,-33.399267091],[-70.620365078,-33.3992047639999],[-70.620387986,-33.399151494],[-70.6204095049999,-33.399115421],[-70.620432173,-33.3990492679999],[-70.620442843,-33.3989804089999],[-70.620441913,-33.3989303119999],[-70.6204410089999,-33.398881655],[-70.620434946,-33.39882792],[-70.6204348799999,-33.398827324],[-70.620427954,-33.398730061],[-70.620428969,-33.398692825],[-70.620441876,-33.398652569],[-70.620464571,-33.398587848],[-70.620479291,-33.3985532949999],[-70.620500385,-33.3984943209999],[-70.620518332,-33.398449705],[-70.620547905,-33.398387757],[-70.6205683599999,-33.3982944309999],[-70.620589109,-33.39821685],[-70.620594845,-33.3981580769999],[-70.6205974869999,-33.3981165239999],[-70.620607035,-33.398079176],[-70.620628342,-33.3980316519999],[-70.620646527,-33.397999918],[-70.620664634,-33.39796389],[-70.620689565,-33.3979277729999],[-70.6207044179999,-33.3979003769999],[-70.620733002,-33.3978770969999],[-70.620766439,-33.397839436],[-70.620798569,-33.3978232689999],[-70.62082206,-33.3978014859999],[-70.62084707,-33.397769663],[-70.62088912,-33.397736186],[-70.620924476,-33.3977099539999],[-70.6209716179999,-33.3976749779999],[-70.6210015359999,-33.397631636],[-70.6210319849999,-33.397616921],[-70.621083098,-33.397611959],[-70.621084235,-33.3976119439999],[-70.621159886,-33.397610956],[-70.621222836,-33.397600111],[-70.62127363,-33.397577973],[-70.62130552,-33.3975489219999],[-70.6213303709999,-33.397508511],[-70.6213651159999,-33.397449358],[-70.6214221769999,-33.397397073],[-70.621453934,-33.3973608649999],[-70.621483825,-33.397316094],[-70.62150201,-33.397284359],[-70.621538673,-33.397236635],[-70.62158347,-33.397167329],[-70.621633865,-33.397093178],[-70.621658531,-33.3970427479999],[-70.621711193,-33.39696809],[-70.621735459,-33.396896188],[-70.6217398439999,-33.3968474389999],[-70.621751232,-33.3968035199999],[-70.621759482,-33.396757599],[-70.621777009,-33.396721101],[-70.621790093,-33.396690388],[-70.6218145879999,-33.396661434],[-70.6218391899999,-33.396638206],[-70.6218728919999,-33.396614858],[-70.621899946,-33.396601143],[-70.621926929,-33.3965836099999],[-70.621949043,-33.396548961],[-70.621988968,-33.396493081],[-70.6220585409999,-33.396440631],[-70.622101201,-33.396409531],[-70.622157549,-33.396380161],[-70.6222049369999,-33.3963585439999],[-70.622231814,-33.396335286],[-70.622260753,-33.3963005479999],[-70.622291576,-33.396244786],[-70.622331891,-33.396209899],[-70.622347427,-33.3961886979999],[-70.6223738429999,-33.3961406299999],[-70.622384545,-33.396104221],[-70.62239969,-33.396062028],[-70.622403565,-33.396022704],[-70.622399107,-33.395955089],[-70.6223990829999,-33.39595473],[-70.622386439,-33.395883657],[-70.6223863769999,-33.3958833129999],[-70.622385647,-33.3958440019999],[-70.622385927,-33.395842757],[-70.622386955,-33.395841456],[-70.622386728,-33.3958409809999],[-70.62238668,-33.3958383669999],[-70.622386633,-33.395835824],[-70.622386593,-33.395833679],[-70.622385537,-33.395832637],[-70.622368701,-33.3957638809999],[-70.622357172,-33.395717087],[-70.6223539329999,-33.395703943],[-70.622353268,-33.395683982],[-70.6223514759999,-33.395630167],[-70.62235136,-33.3956266669999],[-70.622325368,-33.395526638],[-70.622321947,-33.3955134719999],[-70.622324154,-33.395448541],[-70.6223448809999,-33.3954005479999],[-70.622403949,-33.3953339189999],[-70.622404177,-33.395333794],[-70.622404569,-33.395333351],[-70.622404602,-33.395333314],[-70.6224789359999,-33.3952922549999],[-70.622517347,-33.395277436],[-70.622561305,-33.395254909],[-70.6226008209999,-33.39523817],[-70.6226380319999,-33.395217276],[-70.6226391069999,-33.3952166679999],[-70.6226908849999,-33.395186403],[-70.6227866529999,-33.395100632],[-70.622787137,-33.395100198],[-70.6228251049999,-33.395061524],[-70.6228604249999,-33.3950028409999],[-70.6228884829999,-33.394941296],[-70.622899047,-33.394930494],[-70.6229094179999,-33.39491455],[-70.622918306,-33.394895344],[-70.6229300049999,-33.394874313],[-70.622947949,-33.394852683],[-70.622968901,-33.394829758],[-70.622969138,-33.394829499],[-70.622998271,-33.394805256],[-70.623033128,-33.394782849],[-70.623063794,-33.394754411],[-70.6230644469999,-33.394753806],[-70.623082116,-33.3947249409999],[-70.623122057,-33.394670015],[-70.62314952,-33.3946171609999],[-70.6231749039999,-33.394574833],[-70.6231923949999,-33.3945364269999],[-70.623215592,-33.3944989],[-70.623232265,-33.394477684],[-70.6232555679999,-33.394445882],[-70.623283123,-33.394407585],[-70.6232832979999,-33.394407342],[-70.6233102269999,-33.394386946],[-70.623336088,-33.394370382],[-70.6234203339999,-33.394497342],[-70.623489698,-33.394524316],[-70.623508966,-33.394532023],[-70.623666961,-33.394505049],[-70.623794128,-33.3944703669999],[-70.623836517,-33.394435685],[-70.623952124,-33.394304664],[-70.624237286,-33.394212179],[-70.624445813,-33.3941255229999],[-70.624576399,-33.3940117939999],[-70.6246419089999,-33.39382297],[-70.624568692,-33.393661121],[-70.6244877669999,-33.393480004],[-70.624291236,-33.393379812],[-70.624021488,-33.3933875189999],[-70.623763128,-33.393430941],[-70.623706698,-33.393434388],[-70.623622848,-33.3934378709999],[-70.623559841,-33.3934432],[-70.623556106,-33.3934435159999],[-70.62354234,-33.393443696],[-70.623477899,-33.39344454],[-70.6234155559999,-33.3934572869999],[-70.6233238619999,-33.3934978569999],[-70.6232802919999,-33.393525867],[-70.6232111049999,-33.3935530199999],[-70.623161604,-33.393567984],[-70.623100859,-33.3935902539999],[-70.623051291,-33.3936016399999],[-70.6230002349999,-33.3936094659999],[-70.622927959,-33.393623535],[-70.622855729,-33.39363999],[-70.622782231,-33.3936648119999],[-70.622706001,-33.393695636],[-70.62265261,-33.393730933],[-70.622599086,-33.3937590729999],[-70.6225526269999,-33.3937847349999],[-70.622487639,-33.393808253],[-70.62242965,-33.3938257139999],[-70.6223579059999,-33.3938684089999],[-70.622315648,-33.393890437],[-70.622280573,-33.3939034279999],[-70.6222528169999,-33.3939326899999],[-70.622207111,-33.393998907],[-70.6221666289999,-33.39404],[-70.622161405,-33.3940444079999],[-70.6221106149999,-33.394087261],[-70.6221101049999,-33.394087821],[-70.622104635,-33.394092437],[-70.622070771,-33.39412967],[-70.622068396,-33.394132281],[-70.62203425,-33.3941565659999],[-70.6220290909999,-33.394160235],[-70.6220153369999,-33.39418547],[-70.6220065059999,-33.3942037159999],[-70.621968226,-33.3942602139999],[-70.621952956,-33.394295728],[-70.621923075,-33.394340977],[-70.621893265,-33.394390044],[-70.6218453019999,-33.39443533],[-70.621844063,-33.3944365],[-70.621802037,-33.394472003],[-70.621767228,-33.3945059],[-70.62171527,-33.3945877079999],[-70.621681139,-33.3946492379999],[-70.621646974,-33.39470886],[-70.6215721189999,-33.394844415],[-70.621565932,-33.3948788559999],[-70.6215618429999,-33.3949037259999],[-70.621553273,-33.394932471],[-70.621555233,-33.3950295339999],[-70.621543018,-33.395107004],[-70.6215304579999,-33.3951658669999],[-70.621518083,-33.395234749],[-70.6215026409999,-33.395322283],[-70.6214596849999,-33.395398722],[-70.621385961,-33.395472701],[-70.621260939,-33.3955416229999],[-70.621149595,-33.395611798],[-70.621085444,-33.3956498599999],[-70.620943457,-33.395709182],[-70.620829229,-33.395761975],[-70.6207421079999,-33.395819187],[-70.620551957,-33.395919502],[-70.6204324829999,-33.395996225],[-70.6203000789999,-33.3960659589999],[-70.620177363,-33.396121249],[-70.6199969199999,-33.3962083129999],[-70.6199294689999,-33.396238796],[-70.6197629229999,-33.3963165179999],[-70.6195406309999,-33.396454556],[-70.619436859,-33.3965036329999],[-70.619309691,-33.396601215],[-70.619214127,-33.396694089],[-70.619152583,-33.3967807929999],[-70.619035233,-33.396895426],[-70.618871279,-33.396982034],[-70.618776278,-33.397013339],[-70.61865912,-33.397046364],[-70.618533219,-33.39706805],[-70.618471896,-33.3970796739999],[-70.618230441,-33.3971113279999],[-70.6181471199999,-33.3971281629999],[-70.618058758,-33.397149359],[-70.617987407,-33.39716747],[-70.617912511,-33.3971784679999],[-70.617837536,-33.397185172],[-70.617752375,-33.3971948729999],[-70.617650124,-33.3972033649999],[-70.6175514449999,-33.3972203989999],[-70.617420549,-33.39726152],[-70.6173119219999,-33.397294433],[-70.6171780449999,-33.3973462869999],[-70.617103733,-33.397388773],[-70.6170599229999,-33.3974194099999],[-70.617024406,-33.397437053],[-70.616990729,-33.3974618299999],[-70.6169552119999,-33.397479473],[-70.616923189,-33.397501365],[-70.616880952,-33.397524822],[-70.616831785,-33.397542643],[-70.616769204,-33.397573524],[-70.616722008,-33.397605636],[-70.616671373,-33.39763636],[-70.616618898,-33.397659951],[-70.616561251,-33.3976807459999],[-70.616520668,-33.397701318],[-70.616470033,-33.397732043],[-70.6164195819999,-33.397772787],[-70.616382571,-33.397801902],[-70.616340467,-33.3978325159999],[-70.61629993,-33.3978632289999],[-70.616249215,-33.3978896589999],[-70.616203804,-33.3979260419999],[-70.6161514089999,-33.3979539269999],[-70.6161009309999,-33.39799324],[-70.616033284,-33.3980270489999],[-70.6159740639999,-33.398055023],[-70.615896098,-33.398084672],[-70.615811465,-33.398122997],[-70.6157438449999,-33.398158238],[-70.6156711309999,-33.398194976],[-70.615571114,-33.3982320709999],[-70.615505014,-33.3982572699999],[-70.6154599659999,-33.398267162],[-70.615415744,-33.3982756129999],[-70.615394441,-33.398277321],[-70.615344438,-33.398277062],[-70.615273362,-33.398284625],[-70.615147193,-33.398291994],[-70.61501929,-33.3982979539999],[-70.614923757,-33.398300629],[-70.614836439,-33.398286018],[-70.614719898,-33.398260333],[-70.614526411,-33.398227059],[-70.614457756,-33.398206478],[-70.614375292,-33.398177485],[-70.614316797,-33.398152477],[-70.614270168,-33.398123019],[-70.61421154,-33.3980908529999],[-70.6141325679999,-33.3980661099999],[-70.614062156,-33.398042688],[-70.6138728609999,-33.3979592499999],[-70.6137866399999,-33.3979116949999],[-70.613738067,-33.397869377],[-70.613684404,-33.397828795],[-70.613615222,-33.397779587],[-70.6135563569999,-33.397734538],[-70.613505893,-33.3976822229999],[-70.6134606529999,-33.397635566],[-70.6134274629999,-33.39759448],[-70.613382144,-33.397543529],[-70.61332283,-33.397474148],[-70.613268793,-33.3974132889999],[-70.613204678,-33.397361151],[-70.61313699,-33.397300469],[-70.613098656,-33.397258018],[-70.6130689129999,-33.3972347399999],[-70.6129877389999,-33.397188005],[-70.6129411379999,-33.3971599779999],[-70.612884218,-33.397127789],[-70.612835989,-33.397104078],[-70.6127963439999,-33.397083118],[-70.612754888,-33.397056456],[-70.61270658,-33.3970284499999],[-70.61266326,-33.396993221],[-70.612631751,-33.396950681],[-70.612596883,-33.396911047],[-70.6125673179999,-33.396881366],[-70.6125240229999,-33.3968475689999],[-70.612463163,-33.396786799],[-70.612428215,-33.396742871],[-70.6123831089999,-33.39670337],[-70.612351839,-33.396673711],[-70.612307883,-33.396604131],[-70.612269496,-33.396558816],[-70.612234364,-33.396504869],[-70.612197657,-33.3964581009999],[-70.612160898,-33.39640847],[-70.612087934,-33.396339267],[-70.612013158,-33.3962643589999],[-70.611974904,-33.3962262009999],[-70.6119296919999,-33.3961809749999],[-70.611856756,-33.396113203],[-70.611797001,-33.396057679],[-70.611726892,-33.395953779],[-70.611681628,-33.39590569],[-70.611639301,-33.3958317929999],[-70.611605744,-33.395770667],[-70.611580717,-33.395709431],[-70.611575825,-33.39562932],[-70.6115622949999,-33.395543596],[-70.611554069,-33.395467824],[-70.611573515,-33.395411736],[-70.6116093379999,-33.395318212],[-70.6116456889999,-33.3952533149999],[-70.611669805,-33.395172828],[-70.611692848,-33.395126715],[-70.611711977,-33.395053452],[-70.6117277979999,-33.394985957],[-70.611735035,-33.3949157109999],[-70.611732815,-33.39479548],[-70.6117226979999,-33.394709711],[-70.6116918129999,-33.3946084629999],[-70.611654659,-33.3945373619999],[-70.611623072,-33.394503167],[-70.611561025,-33.3944331599999],[-70.6115148609999,-33.394397967],[-70.611451371,-33.394348684],[-70.611393876,-33.394316025],[-70.6113218089999,-33.394264466],[-70.611270046,-33.394234119],[-70.611218284,-33.394203772],[-70.6111790049999,-33.3941755939999],[-70.611140597,-33.394135937],[-70.6111145799999,-33.394113368],[-70.6110955189999,-33.394097867],[-70.61107759,-33.394078916],[-70.611029152,-33.3940437529999],[-70.6109739409999,-33.3940115409999],[-70.610930807,-33.393986331],[-70.610863917,-33.393968588],[-70.610829552,-33.393956149],[-70.610800253,-33.393940781],[-70.610750003,-33.393899915],[-70.610723986,-33.3938773459999],[-70.610701433,-33.3938575949999],[-70.610694291,-33.393840508],[-70.6106748349999,-33.3938035369999],[-70.610660445,-33.3937636369999],[-70.61065288,-33.3937236479999],[-70.610643556,-33.3936808189999],[-70.6106308989999,-33.3936423279999],[-70.6106303449999,-33.3936122709999],[-70.6106296579999,-33.393575055],[-70.6106373969999,-33.3935320049999],[-70.61066052,-33.3934901869999],[-70.6106955079999,-33.3934439189999],[-70.6107274,-33.3934148719999],[-70.610765933,-33.393375716],[-70.610809479,-33.3933307679999],[-70.610836305,-33.39330465],[-70.610889507,-33.393228081],[-70.6109208189999,-33.393167544],[-70.610959324,-33.393126958],[-70.6110029229999,-33.393084873],[-70.611048307,-33.39304706],[-70.6110911659999,-33.3929648979999],[-70.6111391969999,-33.392885532],[-70.611151685,-33.392822376],[-70.6111573479999,-33.392759309],[-70.6111561069999,-33.392692037],[-70.611154733,-33.392617608],[-70.611160766,-33.392574579],[-70.611173518,-33.392525737],[-70.611193175,-33.3924810999999],[-70.611229473,-33.39241334],[-70.6112590769999,-33.3923528249999],[-70.611301988,-33.3922735259999],[-70.6113260509999,-33.3921901759999],[-70.6113573339999,-33.392128208],[-70.611383314,-33.3920562869999],[-70.611392337,-33.391990313],[-70.611385871,-33.3919173809999],[-70.611379642,-33.391857332],[-70.611364803,-33.3917931],[-70.611353693,-33.391745999],[-70.611340957,-33.391703214],[-70.6112989919999,-33.391619154],[-70.61128531,-33.391604768],[-70.611233307,-33.3915613],[-70.611181502,-33.391528567],[-70.611136916,-33.3915017059999],[-70.611106704,-33.3914830089999],[-70.6110034019999,-33.3914342409999],[-70.610954638,-33.391412206],[-70.610886078,-33.391396394],[-70.610836246,-33.391393461],[-70.610766572,-33.3913943659999],[-70.610712495,-33.3913926819999],[-70.610672681,-33.3913931979999],[-70.6106271149999,-33.3913902109999],[-70.61057877,-33.391390839],[-70.610547487,-33.391391245],[-70.610479631,-33.3914136],[-70.610441328,-33.3914188699999],[-70.61036405,-33.39142385],[-70.6102415129999,-33.391442621],[-70.610187017,-33.391449055],[-70.6101438269999,-33.391451523],[-70.610060641,-33.39145308],[-70.610047887,-33.3914482289999],[-70.6100270699999,-33.39144031],[-70.6100131489999,-33.391432784],[-70.6099997319999,-33.391421398],[-70.609983471,-33.391411493],[-70.609966116,-33.391404493],[-70.609942374,-33.391393722],[-70.6099094209999,-33.391381626],[-70.609882818,-33.391371374],[-70.6098607449999,-33.3913576919999],[-70.609833533,-33.391345521],[-70.609816574,-33.391328882],[-70.6097860909999,-33.391295078],[-70.609771393,-33.391276483],[-70.609746405,-33.3912604299999],[-70.609711632,-33.391243059],[-70.6096965099999,-33.391232658],[-70.609683076,-33.391220308],[-70.6096666299999,-33.391200291],[-70.609653088,-33.3911821629999],[-70.609641278,-33.3911644939999],[-70.6096276649999,-33.391142513],[-70.6096169589999,-33.391122421],[-70.609606925,-33.391107619],[-70.609589365,-33.391089542],[-70.609560341,-33.391072578],[-70.609452145,-33.3910282219999],[-70.609384499,-33.3910030879999],[-70.609312559,-33.390963079],[-70.6092719119999,-33.390938558],[-70.609220958,-33.390915616],[-70.609169413,-33.390891719],[-70.6091213019999,-33.390867296],[-70.609091033,-33.3908450489999],[-70.609070576,-33.390825565],[-70.609026886,-33.390795032],[-70.6089527079999,-33.390733621],[-70.608880042,-33.3906801589999],[-70.608835072,-33.390647814],[-70.608800287,-33.390612473],[-70.6087303739999,-33.390523184],[-70.608681465,-33.390462256],[-70.608636337,-33.390421322],[-70.608615281,-33.3903900989999],[-70.608595747,-33.3903488339999],[-70.6085762399999,-33.3903089999999],[-70.608537516,-33.3902450759999],[-70.6085138569999,-33.39016521],[-70.608507763,-33.390112316],[-70.608472661,-33.3900598],[-70.60843785,-33.390023027],[-70.6084030659999,-33.389987687],[-70.608361324,-33.389945277],[-70.608321422,-33.389910002],[-70.608291755,-33.389874596],[-70.608229835,-33.3898253689999],[-70.6081688849999,-33.389759348],[-70.608111088,-33.389709988],[-70.608056178,-33.3896629769999],[-70.607986872,-33.389606608],[-70.6078777549999,-33.389550755],[-70.6076802169999,-33.389481732],[-70.6075319019999,-33.389459792],[-70.607463476,-33.389451134],[-70.607352174,-33.389431101],[-70.6072325599999,-33.3894231049999],[-70.6071269459999,-33.389402999],[-70.6070411059999,-33.3893754769999],[-70.6069722409999,-33.389342963],[-70.6068941949999,-33.389292036],[-70.606861141,-33.389273375],[-70.606837953,-33.389249814],[-70.6068177609999,-33.389234566],[-70.606751344,-33.389180545],[-70.606699169,-33.389127533],[-70.606668585,-33.389088558],[-70.606603219,-33.389014241],[-70.60655229,-33.3889516679999],[-70.606512977,-33.388902069],[-70.606439299,-33.388839791],[-70.606377346,-33.388796449],[-70.60630078,-33.388731822],[-70.606251712,-33.3886930859999],[-70.6062111539999,-33.3886530469999],[-70.606189321,-33.388625889],[-70.60617311,-33.38859508],[-70.6061554779999,-33.3885642879999],[-70.606137318,-33.38850487],[-70.606122199,-33.38845615],[-70.6061074099999,-33.3884253219999],[-70.606083804,-33.388379098],[-70.6060601999999,-33.388332874],[-70.606023841,-33.388289201],[-70.606004545,-33.388245308],[-70.606000341,-33.388171392],[-70.605993513,-33.388109442],[-70.6059926569999,-33.388062924],[-70.6059978179999,-33.388034223],[-70.605997336,-33.388007982],[-70.6059970379999,-33.3879985899999],[-70.605996637,-33.387985944],[-70.6059900399999,-33.3879717259999],[-70.605987011,-33.387965196],[-70.605846476,-33.3876622839999],[-70.605844342,-33.387648988],[-70.605821846,-33.387508851],[-70.6058212849999,-33.3875053529999],[-70.605814579,-33.3875070719999],[-70.6049478959999,-33.387729177],[-70.6048486939999,-33.387748356],[-70.6047534309999,-33.387788362],[-70.6046190129999,-33.387825893],[-70.6045093669999,-33.387857137],[-70.604442376,-33.38788783],[-70.604375331,-33.387915541],[-70.60431534,-33.387940178],[-70.6042337599999,-33.387989552],[-70.604184598,-33.388022996],[-70.604153208,-33.388056212],[-70.604128819,-33.3880833699999],[-70.604072601,-33.38811989],[-70.604033993,-33.388147233],[-70.6039251139999,-33.3882202239999],[-70.60386906,-33.3882656879999],[-70.603748969,-33.388308997],[-70.603607165,-33.388331709],[-70.6034253399999,-33.3883900129999],[-70.603305537,-33.3884335569999],[-70.603081609,-33.38850708],[-70.602768606,-33.3885626639999],[-70.6026277669999,-33.3885759359999],[-70.6025237119999,-33.388609732],[-70.6024861939999,-33.38867321],[-70.6024875589999,-33.38874764],[-70.6024726099999,-33.3888423229999],[-70.602456949,-33.388918882],[-70.602402,-33.3890245809999],[-70.6023558649999,-33.389099147],[-70.6023118539999,-33.389180843],[-70.602249031,-33.3893612109999],[-70.6022310499999,-33.3894664329999],[-70.60219942,-33.389602849],[-70.602186602,-33.3896793709999],[-70.602170809,-33.389748773],[-70.602126272,-33.3898018429999],[-70.602021022,-33.389879081],[-70.6019581259999,-33.3898927779999],[-70.601736941,-33.389929993],[-70.601633147,-33.3899470819999],[-70.601462783,-33.3899635979999],[-70.601249498,-33.3899663499999],[-70.601152293,-33.3899704679999],[-70.6010123519999,-33.389970842]],[[-70.619824737,-33.416645988],[-70.619777213,-33.416660926],[-70.6197586769999,-33.416657977],[-70.619718996,-33.416651665],[-70.619679554,-33.4166421579999],[-70.619634487,-33.4166055229999],[-70.619632587,-33.416591168],[-70.619632536,-33.41659078],[-70.619630515,-33.41657551],[-70.61962963,-33.4165728899999],[-70.6196288099999,-33.416571919],[-70.619628311,-33.41657133],[-70.619623479,-33.4165656079999],[-70.619610924,-33.416540718],[-70.619604092,-33.4165175429999],[-70.619583441,-33.4164877169999],[-70.6195530099999,-33.4164708599999],[-70.6195473879999,-33.4164543709999],[-70.6195238619999,-33.4164209149999],[-70.619510751,-33.4164043829999],[-70.6195034839999,-33.416396127],[-70.619486162,-33.4163826329999],[-70.619471695,-33.416369698],[-70.619460784,-33.4163567169999],[-70.619452442,-33.416341753],[-70.619446238,-33.416329312],[-70.619442492,-33.4163134529999],[-70.6194400589999,-33.416303146],[-70.619439856,-33.416300516],[-70.6194391289999,-33.416291227],[-70.619441697,-33.41627628],[-70.6194639089999,-33.4162543159999],[-70.619477689,-33.416245546],[-70.619498869,-33.416236919],[-70.619521834,-33.4162325619999],[-70.619549143,-33.416232206],[-70.6195748109999,-33.416235449],[-70.6195958919999,-33.416241402],[-70.619616546,-33.4162504379999],[-70.619640706,-33.416264439],[-70.619665852,-33.416285585],[-70.619708921,-33.416306498],[-70.619746589,-33.416312449],[-70.6198163779999,-33.4163473289999],[-70.61986022,-33.416363936],[-70.619885354,-33.416384367],[-70.619906446,-33.41641702],[-70.6199284319999,-33.416451809],[-70.6199379569999,-33.4164646629999],[-70.6199439059999,-33.416472691],[-70.6199443689999,-33.4164733169999],[-70.6199468189999,-33.4164766229999],[-70.6199506459999,-33.416531242],[-70.619939229,-33.416560024],[-70.6199102479999,-33.416586829],[-70.6199084519999,-33.4165893269999],[-70.619879837,-33.416618931],[-70.6198537229999,-33.416630009],[-70.619844411,-33.41663375],[-70.619824737,-33.416645988]]]},"properties":{"FID":4,"Descripcio":"Formación Abanico","Codigo":"OlMa","Nombre":"Formación Abanico","Unidad":"Cerro San Cristóbal","Edad":"Oligoceno","Descripc_3":"Las rocas volcánicas que vemos desde el cerro San Cristóbal hasta el sector La Pirámide se originaron por la ocurrencia de sucesivas erupciones volcánicas muy violentas. Cuando ocurren este tipo de erupciones, se producen grandes explosiones, con exp","CodigoUnid":"UcSC","Shape__Area":4266963.19921875,"Shape__Length":20600.136902351689}}]}