{"type":"FeatureCollection","properties":{"fuente":"Acta Participación Ciudadana – Restauración Ladera, 24.09.2026 (Parquemet). Digitalizado de la lámina, precisión aprox. ±15 m","lamina":20,"capa":"recreacion"},"features":[{"type":"Feature","properties":{"clase":"Zona de recreación","ha":1.13},"geometry":{"type":"Polygon","coordinates":[[[-70.601111,-33.387449],[-70.601454,-33.388156],[-70.601549,-33.388233],[-70.6016,-33.38843],[-70.600997,-33.388912],[-70.600715,-33.388955],[-70.600383,-33.388801],[-70.600286,-33.388684],[-70.600282,-33.388447],[-70.600373,-33.388248],[-70.600883,-33.387847],[-70.601019,-33.387529],[-70.601111,-33.387449]]]}},{"type":"Feature","properties":{"clase":"Zona de recreación","ha":0.11},"geometry":{"type":"Polygon","coordinates":[[[-70.608372,-33.398217],[-70.607996,-33.398261],[-70.607901,-33.398223],[-70.607898,-33.398065],[-70.608038,-33.397984],[-70.608368,-33.39798],[-70.608372,-33.398217]]]}},{"type":"Feature","properties":{"clase":"Zona de recreación","ha":0.08},"geometry":{"type":"Polygon","coordinates":[[[-70.611223,-33.407264],[-70.61113,-33.407344],[-70.610943,-33.407386],[-70.610847,-33.407308],[-70.610845,-33.40719],[-70.610938,-33.40711],[-70.611221,-33.407145],[-70.611223,-33.407264]]]}},{"type":"Feature","properties":{"clase":"Zona de recreación","ha":0.03},"geometry":{"type":"Polygon","coordinates":[[[-70.611705,-33.40785],[-70.611562,-33.407773],[-70.611559,-33.407615],[-70.611701,-33.407653],[-70.611705,-33.40785]]]}},{"type":"Feature","properties":{"clase":"Zona de recreación","ha":0.15},"geometry":{"type":"Polygon","coordinates":[[[-70.611415,-33.407459],[-70.611366,-33.407381],[-70.611411,-33.407261],[-70.611736,-33.406981],[-70.611837,-33.407374],[-70.611745,-33.407455],[-70.611415,-33.407459]]]}},{"type":"Feature","properties":{"clase":"Zona de recreación","ha":11.1},"geometry":{"type":"Polygon","coordinates":[[[-70.61138,-33.377481],[-70.611238,-33.377483],[-70.611001,-33.377368],[-70.610577,-33.377334],[-70.610054,-33.377064],[-70.610052,-33.376946],[-70.609856,-33.376553],[-70.60985,-33.376237],[-70.609703,-33.375923],[-70.609747,-33.375765],[-70.609506,-33.375412],[-70.609545,-33.375017],[-70.608975,-33.374748],[-70.608784,-33.374592],[-70.608502,-33.374596],[-70.608453,-33.374518],[-70.608359,-33.374519],[-70.60822,-33.374639],[-70.607892,-33.374683],[-70.607796,-33.374605],[-70.607514,-33.374609],[-70.607467,-33.374649],[-70.607425,-33.374886],[-70.60752,-33.374964],[-70.607716,-33.375357],[-70.607481,-33.375399],[-70.607436,-33.375518],[-70.607484,-33.375557],[-70.607766,-33.375553],[-70.607862,-33.375631],[-70.608009,-33.375945],[-70.60821,-33.376654],[-70.608401,-33.37677],[-70.608215,-33.376891],[-70.60812,-33.376892],[-70.607409,-33.376585],[-70.607074,-33.376313],[-70.606503,-33.375965],[-70.606165,-33.375495],[-70.606207,-33.375258],[-70.605876,-33.375143],[-70.605682,-33.374869],[-70.605351,-33.374755],[-70.605301,-33.374598],[-70.605207,-33.374599],[-70.604779,-33.374368],[-70.60473,-33.37425],[-70.604822,-33.37417],[-70.605103,-33.374087],[-70.605242,-33.373967],[-70.605238,-33.37373],[-70.605094,-33.373613],[-70.604624,-33.373619],[-70.604574,-33.373462],[-70.605086,-33.373139],[-70.605368,-33.373136],[-70.605649,-33.373053],[-70.606022,-33.372851],[-70.60654,-33.372884],[-70.606773,-33.372723],[-70.607297,-33.373071],[-70.607299,-33.37319],[-70.607444,-33.373385],[-70.607922,-33.373774],[-70.607923,-33.373853],[-70.608065,-33.373891],[-70.608448,-33.374202],[-70.608683,-33.374199],[-70.608963,-33.374077],[-70.609102,-33.373956],[-70.609196,-33.373955],[-70.609442,-33.374544],[-70.609445,-33.374663],[-70.609925,-33.375209],[-70.609979,-33.375564],[-70.6105,-33.375755],[-70.611027,-33.376222],[-70.611028,-33.376301],[-70.611171,-33.376378],[-70.61122,-33.376496],[-70.611652,-33.376925],[-70.611422,-33.377204],[-70.61138,-33.377481]],[[-70.606006,-33.374549],[-70.605957,-33.374431],[-70.605722,-33.374474],[-70.605771,-33.374592],[-70.606006,-33.374549]],[[-70.606895,-33.374261],[-70.606939,-33.374103],[-70.60675,-33.374066],[-70.606706,-33.374224],[-70.606895,-33.374261]],[[-70.607059,-33.375484],[-70.60701,-33.375366],[-70.606632,-33.375292],[-70.606491,-33.375333],[-70.60654,-33.375451],[-70.606871,-33.375526],[-70.607059,-33.375484]]]}},{"type":"Feature","properties":{"clase":"Zona de recreación","ha":2.26},"geometry":{"type":"Polygon","coordinates":[[[-70.614467,-33.409513],[-70.614374,-33.409593],[-70.613574,-33.409603],[-70.613526,-33.409564],[-70.613149,-33.409569],[-70.613101,-33.409491],[-70.61296,-33.409532],[-70.612771,-33.409495],[-70.612386,-33.409026],[-70.612046,-33.408478],[-70.611895,-33.407966],[-70.611989,-33.407965],[-70.612231,-33.408278],[-70.612371,-33.408236],[-70.612368,-33.408078],[-70.612649,-33.407956],[-70.612884,-33.407953],[-70.613027,-33.40803],[-70.613404,-33.408065],[-70.613548,-33.408221],[-70.613599,-33.408418],[-70.613553,-33.408458],[-70.613269,-33.408422],[-70.613174,-33.408344],[-70.612985,-33.408307],[-70.612846,-33.408428],[-70.612849,-33.408625],[-70.612994,-33.408781],[-70.613088,-33.40878],[-70.613273,-33.40862],[-70.61384,-33.408691],[-70.614315,-33.408922],[-70.614459,-33.409078],[-70.614463,-33.409315],[-70.614511,-33.409354],[-70.614467,-33.409513]],[[-70.612471,-33.408551],[-70.612516,-33.408432],[-70.612374,-33.408394],[-70.612329,-33.408513],[-70.612471,-33.408551]],[[-70.61271,-33.408745],[-70.612755,-33.408626],[-70.612613,-33.408589],[-70.612568,-33.408708],[-70.61271,-33.408745]],[[-70.61394,-33.409006],[-70.613938,-33.408927],[-70.613653,-33.408773],[-70.613418,-33.408815],[-70.613421,-33.408973],[-70.613517,-33.409051],[-70.613657,-33.40901],[-70.613893,-33.409046],[-70.61394,-33.409006]],[[-70.614084,-33.409162],[-70.614129,-33.409043],[-70.613987,-33.409005],[-70.613942,-33.409124],[-70.614084,-33.409162]]]}},{"type":"Feature","properties":{"clase":"Zona de recreación","ha":0.31},"geometry":{"type":"Polygon","coordinates":[[[-70.614403,-33.4137],[-70.614166,-33.413624],[-70.614164,-33.413506],[-70.614257,-33.413425],[-70.614255,-33.413346],[-70.613921,-33.413074],[-70.613965,-33.412916],[-70.614059,-33.412915],[-70.614298,-33.413109],[-70.614486,-33.413106],[-70.614724,-33.413222],[-70.614728,-33.413419],[-70.614541,-33.413501],[-70.614403,-33.4137]]]}},{"type":"Feature","properties":{"clase":"Zona de recreación","ha":3.12},"geometry":{"type":"Polygon","coordinates":[[[-70.61863,-33.41558],[-70.618296,-33.415348],[-70.618059,-33.415272],[-70.617962,-33.415154],[-70.617868,-33.415156],[-70.617772,-33.415038],[-70.617536,-33.415042],[-70.617347,-33.414965],[-70.617205,-33.414967],[-70.617068,-33.415166],[-70.616876,-33.415011],[-70.615746,-33.415025],[-70.6157,-33.415065],[-70.615088,-33.415073],[-70.614997,-33.415272],[-70.613867,-33.415287],[-70.613867,-33.415247],[-70.614242,-33.415163],[-70.614334,-33.415044],[-70.614474,-33.415002],[-70.614757,-33.414999],[-70.614803,-33.414959],[-70.615228,-33.414993],[-70.615462,-33.414911],[-70.615838,-33.414866],[-70.615977,-33.414785],[-70.616208,-33.414506],[-70.616206,-33.414427],[-70.616111,-33.414389],[-70.6162,-33.414072],[-70.616057,-33.413994],[-70.615916,-33.414036],[-70.615779,-33.414235],[-70.615781,-33.414353],[-70.615311,-33.414399],[-70.61522,-33.414558],[-70.614749,-33.414564],[-70.614469,-33.414726],[-70.614234,-33.414729],[-70.614227,-33.414374],[-70.61465,-33.414329],[-70.615399,-33.414042],[-70.615771,-33.413801],[-70.615861,-33.413602],[-70.615955,-33.413561],[-70.61652,-33.413554],[-70.616709,-33.413591],[-70.616853,-33.413747],[-70.61681,-33.413985],[-70.616858,-33.414023],[-70.617377,-33.414056],[-70.617567,-33.414172],[-70.617764,-33.414644],[-70.617812,-33.414682],[-70.618047,-33.41464],[-70.618338,-33.415071],[-70.618339,-33.41515],[-70.618434,-33.415188],[-70.618627,-33.415462],[-70.61863,-33.41558]],[[-70.616912,-33.414378],[-70.616816,-33.4143],[-70.616675,-33.414302],[-70.616626,-33.414184],[-70.616531,-33.414186],[-70.616255,-33.414505],[-70.616211,-33.414664],[-70.616258,-33.414703],[-70.616494,-33.4147],[-70.616826,-33.414814],[-70.616915,-33.414576],[-70.616912,-33.414378]]]}},{"type":"Feature","properties":{"clase":"Zona de recreación","ha":0.52},"geometry":{"type":"Polygon","coordinates":[[[-70.619117,-33.416443],[-70.619024,-33.416523],[-70.61893,-33.416524],[-70.618547,-33.416213],[-70.618546,-33.416134],[-70.617589,-33.415357],[-70.617588,-33.415278],[-70.617823,-33.415235],[-70.617919,-33.415353],[-70.618013,-33.415351],[-70.618109,-33.415469],[-70.618491,-33.415701],[-70.619114,-33.416324],[-70.619117,-33.416443]]]}},{"type":"Feature","properties":{"clase":"Zona de recreación","ha":10.08},"geometry":{"type":"Polygon","coordinates":[[[-70.618952,-33.407558],[-70.618763,-33.407521],[-70.618618,-33.407326],[-70.618477,-33.407367],[-70.618335,-33.407329],[-70.618334,-33.40725],[-70.618095,-33.407095],[-70.617659,-33.40639],[-70.617751,-33.40631],[-70.61775,-33.406231],[-70.617561,-33.406194],[-70.617367,-33.405881],[-70.617218,-33.405488],[-70.617215,-33.40533],[-70.617399,-33.40509],[-70.617775,-33.405046],[-70.618107,-33.40516],[-70.618483,-33.405155],[-70.618809,-33.404953],[-70.618946,-33.404715],[-70.618938,-33.40428],[-70.618788,-33.403808],[-70.61855,-33.403653],[-70.618031,-33.403621],[-70.61784,-33.403505],[-70.617875,-33.402833],[-70.617486,-33.402166],[-70.617429,-33.401654],[-70.617563,-33.401257],[-70.618398,-33.400535],[-70.619002,-33.400132],[-70.619611,-33.399927],[-70.619752,-33.399925],[-70.619848,-33.400042],[-70.619852,-33.40024],[-70.619713,-33.40036],[-70.619118,-33.401316],[-70.618796,-33.401715],[-70.618659,-33.401954],[-70.618663,-33.402151],[-70.619299,-33.403446],[-70.619301,-33.403565],[-70.619545,-33.403996],[-70.619547,-33.404114],[-70.619692,-33.40431],[-70.619792,-33.404625],[-70.620084,-33.405134],[-70.620087,-33.405292],[-70.619431,-33.405498],[-70.618915,-33.405584],[-70.618729,-33.405705],[-70.618731,-33.405823],[-70.618925,-33.406137],[-70.61893,-33.406413],[-70.619028,-33.40657],[-70.619217,-33.406646],[-70.619358,-33.406605],[-70.619453,-33.406643],[-70.619409,-33.406802],[-70.619646,-33.406917],[-70.619795,-33.40731],[-70.619798,-33.407508],[-70.618952,-33.407558]]]}},{"type":"Feature","properties":{"clase":"Zona de recreación","ha":0.14},"geometry":{"type":"Polygon","coordinates":[[[-70.621056,-33.414364],[-70.621248,-33.414559],[-70.621249,-33.414638],[-70.620926,-33.414958],[-70.620825,-33.414604],[-70.62087,-33.414485],[-70.621056,-33.414364]]]}},{"type":"Feature","properties":{"clase":"Zona de recreación","ha":0.84},"geometry":{"type":"Polygon","coordinates":[[[-70.621467,-33.413687],[-70.620901,-33.413615],[-70.62047,-33.413265],[-70.620468,-33.413147],[-70.620746,-33.412867],[-70.62074,-33.41259],[-70.620832,-33.412431],[-70.621068,-33.412468],[-70.621255,-33.412426],[-70.621303,-33.412465],[-70.621317,-33.413215],[-70.621464,-33.413489],[-70.621467,-33.413687]]]}},{"type":"Feature","properties":{"clase":"Zona de recreación","ha":0.33},"geometry":{"type":"Polygon","coordinates":[[[-70.622235,-33.414467],[-70.621906,-33.414471],[-70.62186,-33.414551],[-70.621624,-33.414514],[-70.621623,-33.414435],[-70.621431,-33.41428],[-70.621337,-33.414281],[-70.621289,-33.414203],[-70.621428,-33.414122],[-70.621519,-33.413923],[-70.621707,-33.413921],[-70.62185,-33.413998],[-70.622138,-33.41431],[-70.622232,-33.414309],[-70.622235,-33.414467]]]}},{"type":"Feature","properties":{"clase":"Zona de recreación","ha":4.56},"geometry":{"type":"Polygon","coordinates":[[[-70.622554,-33.416398],[-70.62246,-33.416439],[-70.622411,-33.416321],[-70.622173,-33.416166],[-70.62189,-33.41617],[-70.621704,-33.41629],[-70.621186,-33.416297],[-70.620949,-33.416221],[-70.620374,-33.415676],[-70.62028,-33.415677],[-70.620235,-33.415796],[-70.619999,-33.41576],[-70.618658,-33.414592],[-70.618319,-33.414083],[-70.618317,-33.413965],[-70.618694,-33.41396],[-70.619443,-33.413713],[-70.619961,-33.413706],[-70.620481,-33.413818],[-70.621188,-33.413888],[-70.621238,-33.414006],[-70.62091,-33.414129],[-70.620587,-33.414488],[-70.620689,-33.414882],[-70.620695,-33.415237],[-70.620839,-33.415354],[-70.621313,-33.415506],[-70.621931,-33.415814],[-70.622403,-33.415886],[-70.622546,-33.416003],[-70.622554,-33.416398]],[[-70.620462,-33.415359],[-70.620461,-33.41528],[-70.620365,-33.415202],[-70.620128,-33.415126],[-70.619896,-33.415327],[-70.619899,-33.415445],[-70.620138,-33.41564],[-70.620232,-33.415638],[-70.620276,-33.41548],[-70.620462,-33.415359]]]}},{"type":"Feature","properties":{"clase":"Zona de recreación","ha":0.5},"geometry":{"type":"Polygon","coordinates":[[[-70.624261,-33.417007],[-70.624167,-33.417048],[-70.624169,-33.417127],[-70.624029,-33.417208],[-70.623888,-33.41721],[-70.623796,-33.41733],[-70.623655,-33.417371],[-70.623464,-33.417215],[-70.623271,-33.416981],[-70.62327,-33.416902],[-70.623364,-33.416901],[-70.623457,-33.416821],[-70.623546,-33.416582],[-70.623828,-33.416539],[-70.624259,-33.416928],[-70.624261,-33.417007]]]}},{"type":"Feature","properties":{"clase":"Zona de recreación","ha":1.93},"geometry":{"type":"Polygon","coordinates":[[[-70.624339,-33.416177],[-70.624247,-33.416257],[-70.623819,-33.416026],[-70.623536,-33.41603],[-70.622969,-33.415918],[-70.622588,-33.415686],[-70.622069,-33.415654],[-70.621357,-33.415347],[-70.621356,-33.415308],[-70.621592,-33.415305],[-70.621638,-33.415264],[-70.621679,-33.414948],[-70.621912,-33.414787],[-70.62234,-33.415018],[-70.622434,-33.415017],[-70.622619,-33.414857],[-70.622903,-33.414892],[-70.62338,-33.415242],[-70.623474,-33.41524],[-70.623905,-33.41559],[-70.624141,-33.415627],[-70.62424,-33.415902],[-70.624336,-33.41598],[-70.624339,-33.416177]],[[-70.623485,-33.415793],[-70.623435,-33.415675],[-70.623293,-33.415638],[-70.623153,-33.415679],[-70.623154,-33.415758],[-70.623297,-33.415835],[-70.623485,-33.415793]],[[-70.623627,-33.41587],[-70.623672,-33.415751],[-70.62353,-33.415714],[-70.623485,-33.415833],[-70.623627,-33.41587]]]}},{"type":"Feature","properties":{"clase":"Zona de recreación","ha":0.13},"geometry":{"type":"Polygon","coordinates":[[[-70.624607,-33.425495],[-70.624608,-33.425534],[-70.62414,-33.425698],[-70.623857,-33.425702],[-70.623714,-33.425585],[-70.623712,-33.425506],[-70.624607,-33.425495]]]}},{"type":"Feature","properties":{"clase":"Zona de recreación","ha":0.17},"geometry":{"type":"Polygon","coordinates":[[[-70.632009,-33.425871],[-70.631818,-33.425716],[-70.631622,-33.425284],[-70.631615,-33.424929],[-70.631707,-33.424809],[-70.631794,-33.424413],[-70.631934,-33.424372],[-70.631936,-33.42445],[-70.631753,-33.424769],[-70.631764,-33.425361],[-70.632009,-33.425871]]]}},{"type":"Feature","properties":{"clase":"Zona de recreación","ha":0.65},"geometry":{"type":"Polygon","coordinates":[[[-70.63186,-33.422911],[-70.632049,-33.422948],[-70.632192,-33.423065],[-70.632616,-33.423059],[-70.633043,-33.423212],[-70.633044,-33.423291],[-70.632861,-33.423569],[-70.632674,-33.423611],[-70.632675,-33.42369],[-70.632817,-33.423728],[-70.632913,-33.423845],[-70.632964,-33.424042],[-70.632824,-33.424123],[-70.632683,-33.424125],[-70.632546,-33.424324],[-70.632405,-33.424365],[-70.632266,-33.424486],[-70.632172,-33.424487],[-70.632306,-33.42413],[-70.632399,-33.424049],[-70.63254,-33.424048],[-70.63268,-33.423967],[-70.632674,-33.423651],[-70.631815,-33.42303],[-70.63186,-33.422911]]]}},{"type":"Feature","properties":{"clase":"Zona de recreación","ha":0.66},"geometry":{"type":"Polygon","coordinates":[[[-70.634412,-33.425879],[-70.634463,-33.426116],[-70.633997,-33.426398],[-70.634,-33.426556],[-70.633248,-33.426606],[-70.633201,-33.426646],[-70.633012,-33.426609],[-70.632959,-33.426254],[-70.633194,-33.426251],[-70.633334,-33.42617],[-70.633709,-33.426086],[-70.634223,-33.425842],[-70.634412,-33.425879]]]}},{"type":"Feature","properties":{"clase":"Zona de recreación","ha":0.86},"geometry":{"type":"Polygon","coordinates":[[[-70.634538,-33.420032],[-70.634254,-33.419996],[-70.634158,-33.419879],[-70.633828,-33.419884],[-70.633638,-33.419768],[-70.633497,-33.419809],[-70.633499,-33.419888],[-70.633642,-33.420004],[-70.633548,-33.420006],[-70.63331,-33.419851],[-70.633215,-33.419852],[-70.633165,-33.419695],[-70.63326,-33.419694],[-70.633403,-33.41981],[-70.633497,-33.419809],[-70.633542,-33.41969],[-70.633303,-33.419495],[-70.633109,-33.419182],[-70.633106,-33.419064],[-70.633435,-33.41902],[-70.63353,-33.419058],[-70.633532,-33.419137],[-70.633675,-33.419254],[-70.634335,-33.419284],[-70.634338,-33.419442],[-70.634527,-33.419479],[-70.634487,-33.419835],[-70.634582,-33.419913],[-70.634538,-33.420032]]]}},{"type":"Feature","properties":{"clase":"Zona de recreación","ha":1.07},"geometry":{"type":"Polygon","coordinates":[[[-70.635878,-33.418672],[-70.63569,-33.418714],[-70.635506,-33.418953],[-70.635224,-33.418957],[-70.634604,-33.41853],[-70.634507,-33.418374],[-70.634502,-33.418137],[-70.63469,-33.418095],[-70.634735,-33.417976],[-70.634828,-33.417935],[-70.635439,-33.417887],[-70.635726,-33.418121],[-70.635731,-33.418358],[-70.635874,-33.418435],[-70.635878,-33.418672]]]}},{"type":"Feature","properties":{"clase":"Zona de recreación","ha":0.05},"geometry":{"type":"Polygon","coordinates":[[[-70.638315,-33.42804],[-70.638037,-33.42832],[-70.637616,-33.428444],[-70.637615,-33.428404],[-70.638315,-33.42804]]]}},{"type":"Feature","properties":{"clase":"Zona de recreación","ha":2.21},"geometry":{"type":"Polygon","coordinates":[[[-70.639648,-33.421268],[-70.639364,-33.421232],[-70.639314,-33.421075],[-70.639453,-33.420915],[-70.639639,-33.420834],[-70.639673,-33.420122],[-70.639577,-33.420045],[-70.638964,-33.419974],[-70.638438,-33.419586],[-70.638437,-33.419507],[-70.639184,-33.419141],[-70.639323,-33.419021],[-70.639319,-33.418824],[-70.639221,-33.418627],[-70.639361,-33.418547],[-70.639455,-33.418545],[-70.640085,-33.419485],[-70.640092,-33.41984],[-70.640328,-33.419877],[-70.640425,-33.420033],[-70.64043,-33.42031],[-70.640296,-33.420707],[-70.640155,-33.420708],[-70.640017,-33.420868],[-70.639923,-33.420869],[-70.639648,-33.421268]]]}},{"type":"Feature","properties":{"clase":"Infraestructura gris","ha":0.56},"geometry":{"type":"Polygon","coordinates":[[[-70.608606,-33.398135],[-70.608795,-33.398172],[-70.608802,-33.398567],[-70.608756,-33.398607],[-70.608762,-33.398962],[-70.608716,-33.399002],[-70.608723,-33.399358],[-70.608771,-33.399436],[-70.608581,-33.399359],[-70.608532,-33.399242],[-70.608295,-33.399126],[-70.608198,-33.398969],[-70.608193,-33.398732],[-70.607954,-33.398538],[-70.607953,-33.398499],[-70.608377,-33.398493],[-70.608562,-33.398293],[-70.608606,-33.398135]]]}},{"type":"Feature","properties":{"clase":"Infraestructura gris","ha":0.08},"geometry":{"type":"Polygon","coordinates":[[[-70.609607,-33.403928],[-70.609423,-33.404128],[-70.609141,-33.404171],[-70.60914,-33.404092],[-70.609326,-33.403971],[-70.609371,-33.403852],[-70.609512,-33.40385],[-70.609607,-33.403928]]]}},{"type":"Feature","properties":{"clase":"Infraestructura gris","ha":1.31},"geometry":{"type":"Polygon","coordinates":[[[-70.609561,-33.375846],[-70.609419,-33.375848],[-70.609327,-33.375968],[-70.609184,-33.375851],[-70.60909,-33.375852],[-70.608905,-33.376013],[-70.608902,-33.375894],[-70.608994,-33.375735],[-70.609134,-33.375694],[-70.609179,-33.375575],[-70.609083,-33.375457],[-70.608847,-33.37546],[-70.608799,-33.375382],[-70.608705,-33.375383],[-70.60866,-33.375502],[-70.608566,-33.375504],[-70.60852,-33.375583],[-70.60838,-33.375624],[-70.608383,-33.375822],[-70.608528,-33.376018],[-70.608716,-33.376015],[-70.608765,-33.376093],[-70.609002,-33.376169],[-70.609003,-33.376248],[-70.608863,-33.376329],[-70.608768,-33.376251],[-70.608627,-33.376253],[-70.608582,-33.376372],[-70.608488,-33.376374],[-70.608438,-33.376256],[-70.608297,-33.376258],[-70.608147,-33.375785],[-70.608238,-33.375587],[-70.608,-33.375471],[-70.607997,-33.375313],[-70.60809,-33.375233],[-70.608088,-33.375115],[-70.607852,-33.375078],[-70.607803,-33.375],[-70.607709,-33.375001],[-70.6078,-33.374803],[-70.608035,-33.3748],[-70.607991,-33.374958],[-70.608133,-33.374996],[-70.608364,-33.374756],[-70.608787,-33.37475],[-70.609122,-33.375022],[-70.609405,-33.375058],[-70.609364,-33.375414],[-70.609561,-33.375846]],[[-70.608794,-33.375145],[-70.608839,-33.375026],[-70.608697,-33.374988],[-70.608653,-33.375107],[-70.608794,-33.375145]],[[-70.609078,-33.375181],[-70.609122,-33.375022],[-70.60898,-33.374985],[-70.608936,-33.375143],[-70.609078,-33.375181]]]}},{"type":"Feature","properties":{"clase":"Infraestructura gris","ha":0.03},"geometry":{"type":"Polygon","coordinates":[[[-70.610366,-33.409289],[-70.610316,-33.409171],[-70.610361,-33.409013],[-70.610454,-33.408972],[-70.610459,-33.409249],[-70.610366,-33.409289]]]}},{"type":"Feature","properties":{"clase":"Infraestructura gris","ha":0.06},"geometry":{"type":"Polygon","coordinates":[[[-70.610574,-33.407825],[-70.610435,-33.407946],[-70.610392,-33.408144],[-70.610345,-33.408144],[-70.610247,-33.407987],[-70.610245,-33.40783],[-70.610385,-33.407788],[-70.610574,-33.407825]]]}},{"type":"Feature","properties":{"clase":"Infraestructura gris","ha":0.42},"geometry":{"type":"Polygon","coordinates":[[[-70.611164,-33.40916],[-70.610647,-33.409246],[-70.610642,-33.40897],[-70.610547,-33.408932],[-70.610589,-33.408654],[-70.610539,-33.408458],[-70.610444,-33.408419],[-70.610442,-33.408301],[-70.610535,-33.40826],[-70.610818,-33.408296],[-70.610819,-33.408336],[-70.610584,-33.408378],[-70.610586,-33.408457],[-70.610728,-33.408534],[-70.610823,-33.408533],[-70.610961,-33.408373],[-70.611012,-33.40861],[-70.611203,-33.408726],[-70.611112,-33.408885],[-70.611164,-33.40916]]]}},{"type":"Feature","properties":{"clase":"Infraestructura gris","ha":0.28},"geometry":{"type":"Polygon","coordinates":[[[-70.614627,-33.40797],[-70.614486,-33.407972],[-70.614153,-33.407818],[-70.614104,-33.40774],[-70.613915,-33.407663],[-70.613723,-33.407468],[-70.613721,-33.407389],[-70.614004,-33.407425],[-70.614053,-33.407504],[-70.614194,-33.407502],[-70.614333,-33.407381],[-70.614527,-33.407655],[-70.614669,-33.407693],[-70.614627,-33.40797]]]}},{"type":"Feature","properties":{"clase":"Infraestructura gris","ha":0.02},"geometry":{"type":"Polygon","coordinates":[[[-70.614989,-33.414838],[-70.614755,-33.41488],[-70.614752,-33.414762],[-70.614988,-33.414759],[-70.614989,-33.414838]]]}},{"type":"Feature","properties":{"clase":"Infraestructura gris","ha":0.02},"geometry":{"type":"Polygon","coordinates":[[[-70.616187,-33.410833],[-70.615951,-33.410836],[-70.61595,-33.410757],[-70.61609,-33.410716],[-70.616187,-33.410833]]]}},{"type":"Feature","properties":{"clase":"Infraestructura gris","ha":3.44},"geometry":{"type":"Polygon","coordinates":[[[-70.620465,-33.412989],[-70.620373,-33.413069],[-70.620278,-33.41307],[-70.619992,-33.412837],[-70.619707,-33.412722],[-70.619283,-33.412728],[-70.619235,-33.412689],[-70.618717,-33.412656],[-70.618478,-33.412501],[-70.618384,-33.412503],[-70.618335,-33.412385],[-70.618097,-33.412269],[-70.617665,-33.411801],[-70.617562,-33.411368],[-70.617657,-33.411367],[-70.617752,-33.411445],[-70.618034,-33.411401],[-70.618507,-33.411514],[-70.618555,-33.411553],[-70.618513,-33.41183],[-70.618372,-33.411871],[-70.618324,-33.411793],[-70.618088,-33.411796],[-70.618044,-33.411915],[-70.618091,-33.411954],[-70.618327,-33.41195],[-70.618377,-33.412108],[-70.618846,-33.412023],[-70.618939,-33.411943],[-70.618936,-33.411785],[-70.618794,-33.411747],[-70.618793,-33.411707],[-70.619028,-33.411665],[-70.619026,-33.411586],[-70.618884,-33.411548],[-70.618836,-33.41147],[-70.618929,-33.41139],[-70.619155,-33.410913],[-70.619531,-33.410868],[-70.619669,-33.410669],[-70.619667,-33.410551],[-70.620467,-33.41054],[-70.620609,-33.410578],[-70.620706,-33.410735],[-70.620612,-33.410736],[-70.62038,-33.410936],[-70.620429,-33.411054],[-70.620571,-33.411052],[-70.620528,-33.41129],[-70.620434,-33.411291],[-70.620295,-33.411411],[-70.620296,-33.41149],[-70.620438,-33.411528],[-70.620672,-33.411446],[-70.620808,-33.411128],[-70.620805,-33.41097],[-70.620899,-33.411008],[-70.620906,-33.411364],[-70.62086,-33.411404],[-70.620823,-33.411957],[-70.620734,-33.412235],[-70.620593,-33.412276],[-70.620596,-33.412434],[-70.620357,-33.41224],[-70.620263,-33.412241],[-70.620218,-33.41236],[-70.619936,-33.412364],[-70.619796,-33.412445],[-70.619846,-33.412602],[-70.620034,-33.4126],[-70.620127,-33.412519],[-70.620553,-33.412632],[-70.620465,-33.412989]],[[-70.617899,-33.411759],[-70.617943,-33.4116],[-70.617707,-33.411564],[-70.617663,-33.411722],[-70.617899,-33.411759]],[[-70.618851,-33.41226],[-70.618895,-33.412141],[-70.618753,-33.412103],[-70.618709,-33.412222],[-70.618851,-33.41226]],[[-70.619225,-33.412136],[-70.619318,-33.412056],[-70.619314,-33.411859],[-70.619266,-33.41182],[-70.619031,-33.411823],[-70.618984,-33.411863],[-70.618989,-33.4121],[-70.619225,-33.412136]],[[-70.619684,-33.411498],[-70.619729,-33.411379],[-70.619587,-33.411342],[-70.619542,-33.411461],[-70.619684,-33.411498]],[[-70.619873,-33.411535],[-70.619732,-33.411537],[-70.619686,-33.411617],[-70.619591,-33.411539],[-70.61945,-33.41158],[-70.619452,-33.411659],[-70.619594,-33.411697],[-70.619502,-33.411856],[-70.619552,-33.411974],[-70.619693,-33.411972],[-70.619786,-33.411892],[-70.619922,-33.411653],[-70.619873,-33.411535]],[[-70.620334,-33.410976],[-70.620238,-33.410899],[-70.620097,-33.4109],[-70.620006,-33.41106],[-70.620008,-33.411178],[-70.619914,-33.411179],[-70.619912,-33.4111],[-70.620005,-33.41102],[-70.620046,-33.410704],[-70.619809,-33.410628],[-70.619717,-33.410708],[-70.619676,-33.411064],[-70.619582,-33.411065],[-70.619537,-33.411184],[-70.619681,-33.41134],[-70.619917,-33.411337],[-70.619965,-33.411416],[-70.620201,-33.411452],[-70.620246,-33.411333],[-70.620104,-33.411295],[-70.620103,-33.411256],[-70.620291,-33.411214],[-70.620334,-33.410976]],[[-70.620393,-33.411647],[-70.620252,-33.411649],[-70.620162,-33.411887],[-70.619976,-33.412008],[-70.619978,-33.412126],[-70.620075,-33.412244],[-70.620309,-33.412201],[-70.620351,-33.411924],[-70.62049,-33.411804],[-70.620489,-33.411725],[-70.620393,-33.411647]]]}},{"type":"Feature","properties":{"clase":"Infraestructura gris","ha":0.1},"geometry":{"type":"Polygon","coordinates":[[[-70.621769,-33.41471],[-70.62177,-33.414749],[-70.621675,-33.41475],[-70.621489,-33.414871],[-70.621494,-33.415148],[-70.621259,-33.415151],[-70.621258,-33.415072],[-70.621116,-33.415034],[-70.62116,-33.414915],[-70.621349,-33.414913],[-70.621394,-33.414794],[-70.621769,-33.41471]]]}},{"type":"Feature","properties":{"clase":"Infraestructura gris","ha":0.05},"geometry":{"type":"Polygon","coordinates":[[[-70.621837,-33.413327],[-70.621933,-33.413404],[-70.62184,-33.413445],[-70.62189,-33.413602],[-70.621797,-33.413683],[-70.621794,-33.413525],[-70.621652,-33.413487],[-70.62165,-33.413368],[-70.621837,-33.413327]]]}},{"type":"Feature","properties":{"clase":"Infraestructura gris","ha":0.03},"geometry":{"type":"Polygon","coordinates":[[[-70.622803,-33.414617],[-70.622567,-33.414581],[-70.622563,-33.414383],[-70.622658,-33.414382],[-70.62266,-33.414501],[-70.622803,-33.414617]]]}},{"type":"Feature","properties":{"clase":"Infraestructura gris","ha":0.02},"geometry":{"type":"Polygon","coordinates":[[[-70.629356,-33.420021],[-70.629168,-33.420024],[-70.629119,-33.419906],[-70.629355,-33.419942],[-70.629356,-33.420021]]]}},{"type":"Feature","properties":{"clase":"Infraestructura gris","ha":0.07},"geometry":{"type":"Polygon","coordinates":[[[-70.629828,-33.420055],[-70.629877,-33.420172],[-70.629599,-33.420413],[-70.629551,-33.420374],[-70.629548,-33.420177],[-70.629642,-33.420176],[-70.629687,-33.420056],[-70.629828,-33.420055]]]}},{"type":"Feature","properties":{"clase":"Infraestructura gris","ha":0.08},"geometry":{"type":"Polygon","coordinates":[[[-70.630452,-33.420678],[-70.630076,-33.420723],[-70.629839,-33.420647],[-70.629791,-33.420569],[-70.62993,-33.420488],[-70.62998,-33.420606],[-70.630356,-33.420561],[-70.630452,-33.420678]]]}},{"type":"Feature","properties":{"clase":"Infraestructura gris","ha":0.04},"geometry":{"type":"Polygon","coordinates":[[[-70.631069,-33.420907],[-70.63107,-33.420986],[-70.630791,-33.421187],[-70.630743,-33.421148],[-70.630788,-33.421029],[-70.630881,-33.420949],[-70.631069,-33.420907]]]}},{"type":"Feature","properties":{"clase":"Infraestructura gris","ha":0.12},"geometry":{"type":"Polygon","coordinates":[[[-70.631058,-33.422843],[-70.630822,-33.422806],[-70.63058,-33.422494],[-70.630626,-33.422414],[-70.630815,-33.422451],[-70.63096,-33.422647],[-70.631149,-33.422684],[-70.631058,-33.422843]]]}},{"type":"Feature","properties":{"clase":"Infraestructura gris","ha":0.03},"geometry":{"type":"Polygon","coordinates":[[[-70.631476,-33.427577],[-70.631334,-33.427539],[-70.631236,-33.427343],[-70.631378,-33.427381],[-70.631476,-33.427577]]]}},{"type":"Feature","properties":{"clase":"Infraestructura gris","ha":0.33},"geometry":{"type":"Polygon","coordinates":[[[-70.631744,-33.424256],[-70.631602,-33.424218],[-70.631552,-33.424061],[-70.631457,-33.424062],[-70.631365,-33.424142],[-70.631346,-33.423155],[-70.631582,-33.423152],[-70.631774,-33.423386],[-70.631634,-33.423428],[-70.631685,-33.423624],[-70.631545,-33.423705],[-70.631548,-33.423863],[-70.631643,-33.423941],[-70.631785,-33.423939],[-70.631881,-33.424056],[-70.631744,-33.424256]]]}},{"type":"Feature","properties":{"clase":"Infraestructura gris","ha":0.03},"geometry":{"type":"Polygon","coordinates":[[[-70.632111,-33.423737],[-70.631921,-33.423661],[-70.631918,-33.423503],[-70.632108,-33.423619],[-70.632111,-33.423737]]]}},{"type":"Feature","properties":{"clase":"Infraestructura gris","ha":0.24},"geometry":{"type":"Polygon","coordinates":[[[-70.632222,-33.422116],[-70.631984,-33.422001],[-70.63198,-33.421804],[-70.631932,-33.421765],[-70.631698,-33.421807],[-70.631649,-33.421729],[-70.631507,-33.421691],[-70.6316,-33.421611],[-70.631598,-33.421532],[-70.631456,-33.421455],[-70.631314,-33.421457],[-70.631266,-33.421379],[-70.63131,-33.42122],[-70.631404,-33.421219],[-70.631454,-33.421376],[-70.631738,-33.421451],[-70.631834,-33.421529],[-70.631835,-33.421608],[-70.631977,-33.421646],[-70.632074,-33.421763],[-70.632262,-33.42176],[-70.632405,-33.421838],[-70.632406,-33.421877],[-70.632171,-33.42192],[-70.632222,-33.422116]]]}},{"type":"Feature","properties":{"clase":"Infraestructura gris","ha":0.02},"geometry":{"type":"Polygon","coordinates":[[[-70.63249,-33.42389],[-70.632348,-33.423853],[-70.632345,-33.423695],[-70.63244,-33.423693],[-70.63249,-33.42389]]]}},{"type":"Feature","properties":{"clase":"Infraestructura gris","ha":0.27},"geometry":{"type":"Polygon","coordinates":[[[-70.633227,-33.427988],[-70.632946,-33.42811],[-70.632714,-33.428311],[-70.632432,-33.428315],[-70.632001,-33.427965],[-70.631812,-33.427928],[-70.631763,-33.42781],[-70.631904,-33.427769],[-70.63219,-33.427962],[-70.632284,-33.427961],[-70.63238,-33.428078],[-70.632663,-33.428075],[-70.63299,-33.427952],[-70.633226,-33.427949],[-70.633227,-33.427988]]]}},{"type":"Feature","properties":{"clase":"Infraestructura gris","ha":0.95},"geometry":{"type":"Polygon","coordinates":[[[-70.63366,-33.425968],[-70.633518,-33.42597],[-70.633191,-33.426093],[-70.633094,-33.425936],[-70.632953,-33.425938],[-70.632907,-33.426018],[-70.632577,-33.425982],[-70.63229,-33.425789],[-70.632193,-33.425593],[-70.632189,-33.425395],[-70.632375,-33.425274],[-70.632373,-33.425156],[-70.632558,-33.424995],[-70.632509,-33.424877],[-70.632415,-33.424879],[-70.632322,-33.424959],[-70.632415,-33.424879],[-70.63241,-33.424642],[-70.632504,-33.424601],[-70.632548,-33.424442],[-70.632642,-33.424441],[-70.632692,-33.424599],[-70.632649,-33.424797],[-70.633078,-33.425107],[-70.632986,-33.425187],[-70.632987,-33.425266],[-70.633271,-33.425341],[-70.633228,-33.425579],[-70.633276,-33.425618],[-70.633559,-33.425614],[-70.633656,-33.425771],[-70.633891,-33.425768],[-70.633892,-33.425807],[-70.633704,-33.42581],[-70.63366,-33.425968]],[[-70.632662,-33.425507],[-70.632706,-33.425349],[-70.632564,-33.425311],[-70.63252,-33.42547],[-70.632662,-33.425507]],[[-70.633045,-33.425818],[-70.633089,-33.425699],[-70.6329,-33.425662],[-70.6329,-33.425623],[-70.633041,-33.425621],[-70.633086,-33.425502],[-70.632988,-33.425306],[-70.632846,-33.425268],[-70.632753,-33.425348],[-70.632755,-33.425467],[-70.632662,-33.425507],[-70.632664,-33.425626],[-70.632761,-33.425782],[-70.633045,-33.425818]]]}},{"type":"Feature","properties":{"clase":"Infraestructura gris","ha":0.33},"geometry":{"type":"Polygon","coordinates":[[[-70.635509,-33.426615],[-70.635465,-33.426813],[-70.635328,-33.427013],[-70.635234,-33.427053],[-70.635099,-33.427371],[-70.634864,-33.427374],[-70.634539,-33.427655],[-70.634677,-33.427495],[-70.634627,-33.427298],[-70.634766,-33.427217],[-70.635042,-33.426819],[-70.635229,-33.426737],[-70.635319,-33.426539],[-70.635509,-33.426615]]]}},{"type":"Feature","properties":{"clase":"Infraestructura gris","ha":0.06},"geometry":{"type":"Polygon","coordinates":[[[-70.636309,-33.419061],[-70.636214,-33.419023],[-70.636165,-33.418905],[-70.636024,-33.418907],[-70.63598,-33.419065],[-70.635838,-33.419067],[-70.635835,-33.41887],[-70.636116,-33.418826],[-70.636307,-33.418942],[-70.636309,-33.419061]]]}}]}