{"type":"FeatureCollection","properties":{"fuente":"Acta Participación Ciudadana – Restauración Ladera, 24.09.2026 (Parquemet). Digitalizado de la lámina, precisión aprox. ±15 m","lamina":22,"capa":"parque"},"features":[{"type":"Feature","properties":{"clase":"Parque Metropolitano de Santiago","ha":1.6},"geometry":{"type":"Polygon","coordinates":[[[-70.601209,-33.38744],[-70.601315,-33.387526],[-70.601388,-33.387672],[-70.60139,-33.38776],[-70.601285,-33.387761],[-70.601252,-33.387879],[-70.601323,-33.387937],[-70.601498,-33.387934],[-70.601714,-33.388283],[-70.601752,-33.388459],[-70.60158,-33.388608],[-70.601335,-33.388611],[-70.601302,-33.388699],[-70.601198,-33.38873],[-70.6012,-33.388876],[-70.600956,-33.388909],[-70.600924,-33.389027],[-70.60075,-33.389087],[-70.600609,-33.389031],[-70.600606,-33.388884],[-70.6005,-33.388798],[-70.600291,-33.38883],[-70.600184,-33.388743],[-70.600145,-33.38848],[-70.600212,-33.388361],[-70.60021,-33.388215],[-70.600449,-33.387919],[-70.600621,-33.38777],[-70.60076,-33.387739],[-70.600898,-33.38762],[-70.600929,-33.387414],[-70.601209,-33.38744]]]}},{"type":"Feature","properties":{"clase":"Parque Metropolitano de Santiago","ha":107.8},"geometry":{"type":"Polygon","coordinates":[[[-70.600442,-33.362734],[-70.600616,-33.362732],[-70.601038,-33.362873],[-70.601143,-33.362871],[-70.601215,-33.362959],[-70.601284,-33.362958],[-70.601426,-33.363044],[-70.601463,-33.363161],[-70.601637,-33.363158],[-70.601779,-33.363274],[-70.60178,-33.363332],[-70.601465,-33.363307],[-70.601429,-33.36322],[-70.601219,-33.363222],[-70.601185,-33.363252],[-70.601189,-33.363487],[-70.601119,-33.363487],[-70.601016,-33.363577],[-70.601089,-33.363752],[-70.601264,-33.363779],[-70.601267,-33.363925],[-70.601197,-33.363926],[-70.601061,-33.364133],[-70.600957,-33.364135],[-70.600889,-33.364282],[-70.60082,-33.364283],[-70.600751,-33.364342],[-70.600752,-33.364401],[-70.600682,-33.364431],[-70.600688,-33.364724],[-70.600793,-33.364752],[-70.600726,-33.3649],[-70.600761,-33.364929],[-70.600936,-33.364926],[-70.60097,-33.364867],[-70.60104,-33.364867],[-70.601043,-33.365042],[-70.600799,-33.365075],[-70.600763,-33.364987],[-70.600588,-33.36499],[-70.600486,-33.365138],[-70.600416,-33.365138],[-70.60038,-33.36508],[-70.600276,-33.365111],[-70.600283,-33.365521],[-70.600214,-33.365551],[-70.600148,-33.365758],[-70.600185,-33.365874],[-70.600361,-33.365931],[-70.600362,-33.365989],[-70.600292,-33.36602],[-70.600294,-33.366137],[-70.600155,-33.366139],[-70.600017,-33.366258],[-70.600019,-33.366375],[-70.600126,-33.366462],[-70.600196,-33.366461],[-70.600229,-33.366372],[-70.600299,-33.366371],[-70.600302,-33.366577],[-70.600057,-33.36655],[-70.600024,-33.366609],[-70.599884,-33.366641],[-70.599886,-33.366728],[-70.599782,-33.366759],[-70.599719,-33.367141],[-70.59965,-33.367201],[-70.599651,-33.367259],[-70.599582,-33.367289],[-70.599589,-33.36767],[-70.599485,-33.36773],[-70.599492,-33.368112],[-70.599389,-33.368201],[-70.599364,-33.368729],[-70.599436,-33.368875],[-70.599648,-33.368989],[-70.599685,-33.369135],[-70.599619,-33.369312],[-70.599657,-33.369487],[-70.599763,-33.369574],[-70.599868,-33.369573],[-70.599969,-33.369366],[-70.599968,-33.369278],[-70.600037,-33.369248],[-70.600065,-33.368866],[-70.599959,-33.368809],[-70.599957,-33.368721],[-70.600026,-33.368662],[-70.600123,-33.368221],[-70.600227,-33.36819],[-70.60019,-33.368073],[-70.600223,-33.367985],[-70.600216,-33.367604],[-70.600319,-33.367456],[-70.600388,-33.367426],[-70.600385,-33.367279],[-70.60049,-33.367278],[-70.600523,-33.36716],[-70.600592,-33.36713],[-70.600587,-33.366866],[-70.600691,-33.366806],[-70.600654,-33.366719],[-70.600686,-33.366542],[-70.600929,-33.366422],[-70.600892,-33.366334],[-70.600924,-33.366158],[-70.600992,-33.366069],[-70.601096,-33.366039],[-70.601128,-33.365862],[-70.600988,-33.365835],[-70.600985,-33.365688],[-70.601159,-33.365657],[-70.601262,-33.365567],[-70.601261,-33.365509],[-70.601366,-33.365507],[-70.601469,-33.365418],[-70.601467,-33.365301],[-70.601536,-33.365271],[-70.601459,-33.364861],[-70.601562,-33.364742],[-70.60156,-33.364625],[-70.601629,-33.364624],[-70.601698,-33.364565],[-70.601697,-33.364477],[-70.601765,-33.364417],[-70.601763,-33.364271],[-70.601867,-33.364269],[-70.601971,-33.36418],[-70.602,-33.363887],[-70.602419,-33.363881],[-70.602452,-33.363734],[-70.602557,-33.363762],[-70.603535,-33.36375],[-70.603571,-33.363778],[-70.603745,-33.363776],[-70.603746,-33.363835],[-70.603607,-33.363866],[-70.603609,-33.363954],[-70.60368,-33.364012],[-70.603784,-33.36401],[-70.603855,-33.364068],[-70.603925,-33.364067],[-70.603958,-33.363949],[-70.604097,-33.363918],[-70.60406,-33.363772],[-70.604164,-33.363771],[-70.60427,-33.363828],[-70.604379,-33.364032],[-70.604593,-33.364293],[-70.604596,-33.364469],[-70.604667,-33.364497],[-70.604637,-33.364761],[-70.604707,-33.36479],[-70.604744,-33.364877],[-70.604917,-33.364816],[-70.60524,-33.365252],[-70.605241,-33.36534],[-70.605312,-33.365398],[-70.605493,-33.365747],[-70.605495,-33.365835],[-70.605426,-33.365865],[-70.605427,-33.365924],[-70.605532,-33.365952],[-70.605639,-33.366038],[-70.605747,-33.366242],[-70.605749,-33.36633],[-70.605679,-33.36636],[-70.60568,-33.366419],[-70.605856,-33.366446],[-70.606001,-33.366737],[-70.606003,-33.366855],[-70.606073,-33.366883],[-70.606075,-33.366971],[-70.606146,-33.367029],[-70.606219,-33.367204],[-70.606289,-33.367232],[-70.606292,-33.367349],[-70.6064,-33.367524],[-70.606402,-33.367641],[-70.606472,-33.36767],[-70.60658,-33.367844],[-70.606582,-33.367961],[-70.606478,-33.367992],[-70.60648,-33.36808],[-70.606515,-33.368109],[-70.606689,-33.368077],[-70.607372,-33.369124],[-70.607374,-33.369212],[-70.607516,-33.369327],[-70.607769,-33.369764],[-70.60784,-33.369821],[-70.607842,-33.369968],[-70.607948,-33.369996],[-70.60795,-33.370113],[-70.608092,-33.370229],[-70.608059,-33.370376],[-70.6082,-33.370403],[-70.608236,-33.370461],[-70.608239,-33.370637],[-70.608136,-33.370726],[-70.607961,-33.370699],[-70.607894,-33.370876],[-70.607719,-33.370849],[-70.60765,-33.370909],[-70.607688,-33.371055],[-70.607619,-33.371114],[-70.607549,-33.371115],[-70.607376,-33.371235],[-70.607133,-33.371297],[-70.607064,-33.371356],[-70.606889,-33.371358],[-70.606821,-33.371418],[-70.606823,-33.371564],[-70.606548,-33.371803],[-70.606478,-33.371803],[-70.606202,-33.371983],[-70.606062,-33.371985],[-70.60596,-33.372103],[-70.605855,-33.372105],[-70.605822,-33.372193],[-70.605682,-33.372224],[-70.605233,-33.372494],[-70.604989,-33.372526],[-70.604922,-33.372674],[-70.604748,-33.372705],[-70.604711,-33.372618],[-70.603839,-33.372688],[-70.60377,-33.372747],[-70.603772,-33.372865],[-70.603984,-33.372979],[-70.604229,-33.373005],[-70.60423,-33.373064],[-70.604161,-33.373123],[-70.603951,-33.373097],[-70.603779,-33.373246],[-70.603605,-33.373277],[-70.603608,-33.373424],[-70.603538,-33.373454],[-70.603539,-33.373513],[-70.603367,-33.373632],[-70.603368,-33.373691],[-70.603231,-33.373839],[-70.603024,-33.373959],[-70.603025,-33.374047],[-70.602956,-33.374106],[-70.602957,-33.374165],[-70.602853,-33.374196],[-70.602859,-33.374489],[-70.60293,-33.374576],[-70.602932,-33.374693],[-70.602898,-33.374723],[-70.602723,-33.374696],[-70.602688,-33.374726],[-70.602691,-33.374872],[-70.602587,-33.374932],[-70.602589,-33.37502],[-70.602417,-33.375198],[-70.602278,-33.375229],[-70.602068,-33.375203],[-70.602035,-33.37532],[-70.601895,-33.375322],[-70.601863,-33.375469],[-70.601794,-33.375499],[-70.601697,-33.375941],[-70.6017,-33.376116],[-70.601986,-33.376435],[-70.602023,-33.376581],[-70.602234,-33.376637],[-70.602236,-33.376754],[-70.60252,-33.376985],[-70.602488,-33.377132],[-70.602502,-33.377894],[-70.602467,-33.377924],[-70.602397,-33.377925],[-70.602361,-33.377867],[-70.602222,-33.377898],[-70.602261,-33.378103],[-70.602122,-33.378134],[-70.602125,-33.378339],[-70.602301,-33.378366],[-70.602303,-33.378483],[-70.602374,-33.378541],[-70.602514,-33.378539],[-70.602556,-33.378949],[-70.60263,-33.379183],[-70.602702,-33.37927],[-70.602672,-33.379534],[-70.602849,-33.379678],[-70.60285,-33.379737],[-70.602781,-33.379767],[-70.602782,-33.379855],[-70.602853,-33.379913],[-70.602993,-33.379911],[-70.603064,-33.379998],[-70.603032,-33.380145],[-70.603349,-33.380288],[-70.603351,-33.380405],[-70.603781,-33.380956],[-70.60389,-33.38116],[-70.604102,-33.381333],[-70.604248,-33.381625],[-70.604218,-33.381918],[-70.604148,-33.381919],[-70.60408,-33.382008],[-70.604081,-33.382096],[-70.604152,-33.382124],[-70.604154,-33.382242],[-70.604088,-33.382477],[-70.604098,-33.383005],[-70.604135,-33.383092],[-70.60407,-33.383357],[-70.603934,-33.383593],[-70.603694,-33.383831],[-70.603695,-33.383889],[-70.603557,-33.383979],[-70.603452,-33.38398],[-70.603485,-33.383892],[-70.603449,-33.383805],[-70.603274,-33.383807],[-70.603271,-33.383631],[-70.603468,-33.382954],[-70.603605,-33.382776],[-70.603603,-33.382659],[-70.603532,-33.382631],[-70.603531,-33.382543],[-70.603387,-33.382339],[-70.603271,-33.381755],[-70.603127,-33.381522],[-70.602774,-33.381292],[-70.602667,-33.381176],[-70.602491,-33.38112],[-70.60242,-33.381062],[-70.602419,-33.381003],[-70.602242,-33.380859],[-70.602172,-33.38086],[-70.602136,-33.380802],[-70.601925,-33.380775],[-70.601854,-33.380688],[-70.601607,-33.380545],[-70.601392,-33.380254],[-70.601143,-33.380052],[-70.600932,-33.379967],[-70.60079,-33.379852],[-70.600616,-33.379854],[-70.600615,-33.379795],[-70.600367,-33.379623],[-70.600258,-33.379419],[-70.600187,-33.379361],[-70.600117,-33.379362],[-70.600116,-33.379303],[-70.599832,-33.379043],[-70.599577,-33.378489],[-70.59957,-33.378108],[-70.599535,-33.378079],[-70.599528,-33.377698],[-70.599492,-33.377669],[-70.599558,-33.377434],[-70.599551,-33.377053],[-70.599617,-33.376876],[-70.599646,-33.376524],[-70.599746,-33.376259],[-70.599742,-33.376054],[-70.599598,-33.375821],[-70.599548,-33.375001],[-70.599401,-33.374621],[-70.599399,-33.374504],[-70.599041,-33.37401],[-70.59904,-33.373952],[-70.599144,-33.373921],[-70.599142,-33.373804],[-70.599001,-33.373747],[-70.598827,-33.373808],[-70.59865,-33.373664],[-70.598647,-33.373488],[-70.598577,-33.373459],[-70.598574,-33.373342],[-70.598429,-33.373021],[-70.598322,-33.372935],[-70.598318,-33.3727],[-70.598212,-33.372614],[-70.59821,-33.372526],[-70.598315,-33.372524],[-70.598348,-33.372436],[-70.598313,-33.372407],[-70.598138,-33.372409],[-70.598135,-33.372263],[-70.59803,-33.372235],[-70.598028,-33.372147],[-70.598133,-33.372116],[-70.59813,-33.371999],[-70.598235,-33.371968],[-70.598233,-33.371881],[-70.598162,-33.371823],[-70.598092,-33.371824],[-70.597984,-33.371649],[-70.597808,-33.371564],[-70.597666,-33.371419],[-70.597281,-33.371424],[-70.597248,-33.371512],[-70.597143,-33.371513],[-70.597037,-33.371456],[-70.597036,-33.371368],[-70.59693,-33.37134],[-70.596962,-33.371164],[-70.597031,-33.371134],[-70.597059,-33.370723],[-70.597159,-33.370458],[-70.597186,-33.370047],[-70.597284,-33.369635],[-70.597198,-33.368786],[-70.597163,-33.368757],[-70.597159,-33.368552],[-70.597084,-33.368289],[-70.597077,-33.367879],[-70.597041,-33.36785],[-70.596981,-33.366473],[-70.596802,-33.366211],[-70.596932,-33.365682],[-70.596891,-33.36536],[-70.596959,-33.365271],[-70.596991,-33.365124],[-70.597061,-33.365094],[-70.597094,-33.365005],[-70.597197,-33.364916],[-70.597441,-33.364884],[-70.597751,-33.364645],[-70.598059,-33.36426],[-70.598266,-33.36414],[-70.598576,-33.363872],[-70.598644,-33.363754],[-70.598782,-33.363664],[-70.598781,-33.363606],[-70.599747,-33.362948],[-70.600442,-33.362734]]]}},{"type":"Feature","properties":{"clase":"Parque Metropolitano de Santiago","ha":50.2},"geometry":{"type":"Polygon","coordinates":[[[-70.608741,-33.371364],[-70.608891,-33.371919],[-70.608895,-33.372095],[-70.608721,-33.372126],[-70.608723,-33.372273],[-70.608794,-33.37233],[-70.608802,-33.37277],[-70.608838,-33.372799],[-70.609082,-33.372767],[-70.609123,-33.373118],[-70.609018,-33.373119],[-70.608986,-33.373237],[-70.609023,-33.373354],[-70.609198,-33.373381],[-70.609234,-33.373439],[-70.609238,-33.373644],[-70.609312,-33.373878],[-70.609173,-33.373909],[-70.609176,-33.374085],[-70.609106,-33.374086],[-70.609003,-33.374175],[-70.609005,-33.374263],[-70.609146,-33.374349],[-70.609286,-33.374347],[-70.609389,-33.374258],[-70.609459,-33.374257],[-70.60946,-33.374345],[-70.609287,-33.374435],[-70.609221,-33.374641],[-70.609362,-33.374698],[-70.609398,-33.374756],[-70.609642,-33.374724],[-70.609891,-33.374984],[-70.609893,-33.375072],[-70.609998,-33.3751],[-70.609999,-33.375159],[-70.60993,-33.37516],[-70.609827,-33.375308],[-70.609829,-33.375366],[-70.609899,-33.375395],[-70.609868,-33.3756],[-70.610043,-33.375627],[-70.610076,-33.37551],[-70.610146,-33.375509],[-70.610182,-33.375567],[-70.610604,-33.375708],[-70.610887,-33.37591],[-70.610888,-33.375968],[-70.611101,-33.376141],[-70.611138,-33.376287],[-70.611315,-33.376373],[-70.611423,-33.376548],[-70.611636,-33.37675],[-70.61171,-33.376954],[-70.611713,-33.377101],[-70.611539,-33.377162],[-70.611511,-33.377543],[-70.611442,-33.377603],[-70.611233,-33.377606],[-70.611159,-33.377401],[-70.611089,-33.377402],[-70.611056,-33.377491],[-70.610741,-33.377495],[-70.610531,-33.377439],[-70.610318,-33.377266],[-70.610143,-33.377268],[-70.610107,-33.37721],[-70.610002,-33.377211],[-70.60983,-33.37736],[-70.609797,-33.377448],[-70.609727,-33.377449],[-70.609691,-33.377391],[-70.609516,-33.377393],[-70.609448,-33.377453],[-70.609452,-33.377687],[-70.609209,-33.377749],[-70.609034,-33.377751],[-70.609031,-33.377605],[-70.608996,-33.377576],[-70.608891,-33.377577],[-70.608822,-33.377637],[-70.608823,-33.377695],[-70.608648,-33.377698],[-70.608543,-33.37764],[-70.608539,-33.377435],[-70.608503,-33.377406],[-70.608329,-33.377409],[-70.608255,-33.377234],[-70.60815,-33.377176],[-70.608045,-33.377178],[-70.608007,-33.377032],[-70.607902,-33.377033],[-70.607831,-33.376946],[-70.607726,-33.376947],[-70.607692,-33.377006],[-70.607587,-33.377008],[-70.607375,-33.376864],[-70.607305,-33.376865],[-70.607022,-33.376663],[-70.606984,-33.376517],[-70.606914,-33.376518],[-70.606881,-33.376606],[-70.60667,-33.376551],[-70.606597,-33.376376],[-70.606423,-33.376378],[-70.606246,-33.376263],[-70.606245,-33.376204],[-70.606138,-33.376118],[-70.605998,-33.37609],[-70.605931,-33.376238],[-70.606037,-33.376295],[-70.606039,-33.376412],[-70.606005,-33.376471],[-70.605935,-33.376472],[-70.605866,-33.376532],[-70.605869,-33.376678],[-70.605801,-33.376767],[-70.605628,-33.376887],[-70.605314,-33.37692],[-70.605177,-33.377039],[-70.605145,-33.377215],[-70.604831,-33.377219],[-70.604589,-33.377398],[-70.604171,-33.377433],[-70.604136,-33.377463],[-70.604143,-33.377815],[-70.604073,-33.377816],[-70.603727,-33.377996],[-70.603693,-33.378084],[-70.603311,-33.378207],[-70.603313,-33.378294],[-70.603384,-33.378352],[-70.603841,-33.378493],[-70.60398,-33.378491],[-70.604227,-33.378605],[-70.604333,-33.378692],[-70.604335,-33.37875],[-70.604195,-33.378752],[-70.604162,-33.37887],[-70.604302,-33.378897],[-70.604303,-33.378956],[-70.604374,-33.379014],[-70.604479,-33.379012],[-70.604547,-33.378894],[-70.604617,-33.378893],[-70.604759,-33.379009],[-70.60476,-33.379097],[-70.604655,-33.379069],[-70.604551,-33.379099],[-70.604555,-33.379334],[-70.604661,-33.37942],[-70.604628,-33.379509],[-70.604667,-33.379743],[-70.60481,-33.379888],[-70.60488,-33.379887],[-70.605021,-33.379973],[-70.605091,-33.379972],[-70.60516,-33.379912],[-70.605158,-33.379824],[-70.604982,-33.379768],[-70.60498,-33.379622],[-70.604909,-33.379593],[-70.604906,-33.379417],[-70.604976,-33.379416],[-70.604979,-33.379592],[-70.605085,-33.37965],[-70.605122,-33.379766],[-70.605298,-33.379823],[-70.605334,-33.37991],[-70.60544,-33.379967],[-70.605584,-33.380171],[-70.605586,-33.380288],[-70.605726,-33.380316],[-70.605797,-33.380373],[-70.605798,-33.380432],[-70.605659,-33.380463],[-70.605697,-33.380609],[-70.605905,-33.380548],[-70.605976,-33.380606],[-70.606221,-33.380632],[-70.606804,-33.380038],[-70.607082,-33.379917],[-70.6075,-33.379853],[-70.607708,-33.379762],[-70.607953,-33.379759],[-70.608269,-33.379872],[-70.608828,-33.379865],[-70.609249,-33.379947],[-70.609494,-33.379944],[-70.609495,-33.380003],[-70.609566,-33.380061],[-70.609953,-33.380202],[-70.610059,-33.380289],[-70.610136,-33.380669],[-70.610033,-33.380758],[-70.609928,-33.38076],[-70.609859,-33.380819],[-70.60986,-33.380878],[-70.609688,-33.380997],[-70.609689,-33.381085],[-70.609551,-33.381146],[-70.609552,-33.381233],[-70.609413,-33.381265],[-70.609381,-33.381441],[-70.609311,-33.381442],[-70.609278,-33.38153],[-70.609141,-33.381649],[-70.609001,-33.381651],[-70.608898,-33.38174],[-70.60873,-33.382124],[-70.608558,-33.382273],[-70.608453,-33.382274],[-70.60842,-33.382362],[-70.608315,-33.382364],[-70.608247,-33.382452],[-70.608108,-33.382484],[-70.607936,-33.382632],[-70.607799,-33.38281],[-70.607695,-33.38287],[-70.607697,-33.382987],[-70.607595,-33.383106],[-70.607385,-33.383109],[-70.607173,-33.382994],[-70.606332,-33.382829],[-70.606331,-33.38277],[-70.606435,-33.382769],[-70.606469,-33.382681],[-70.606433,-33.382652],[-70.60639,-33.382183],[-70.606284,-33.382155],[-70.606215,-33.382215],[-70.606183,-33.382362],[-70.606224,-33.382655],[-70.606119,-33.382685],[-70.606122,-33.382832],[-70.606017,-33.382833],[-70.605913,-33.382893],[-70.605563,-33.382868],[-70.605529,-33.382898],[-70.605532,-33.383074],[-70.605394,-33.383134],[-70.605396,-33.383252],[-70.605328,-33.383341],[-70.605049,-33.383373],[-70.605014,-33.383403],[-70.605017,-33.38355],[-70.604773,-33.383612],[-70.604779,-33.383934],[-70.604683,-33.384375],[-70.604579,-33.384464],[-70.60458,-33.384523],[-70.604406,-33.384555],[-70.604408,-33.384642],[-70.604061,-33.384764],[-70.603958,-33.384883],[-70.603759,-33.385442],[-70.603654,-33.385444],[-70.603619,-33.385474],[-70.603622,-33.38562],[-70.603448,-33.385652],[-70.603415,-33.385769],[-70.603345,-33.38577],[-70.603276,-33.38583],[-70.603277,-33.385888],[-70.603208,-33.385889],[-70.603206,-33.385801],[-70.603099,-33.385715],[-70.602854,-33.385659],[-70.602779,-33.385367],[-70.602605,-33.385428],[-70.602637,-33.385281],[-70.602776,-33.38525],[-70.602809,-33.385132],[-70.602947,-33.385013],[-70.603017,-33.385012],[-70.60305,-33.384924],[-70.603738,-33.384329],[-70.60377,-33.384182],[-70.603942,-33.384033],[-70.60394,-33.383916],[-70.604079,-33.383884],[-70.604286,-33.383706],[-70.604285,-33.383647],[-70.604388,-33.383587],[-70.604494,-33.383615],[-70.604633,-33.383584],[-70.604631,-33.383467],[-70.604526,-33.383439],[-70.604523,-33.383292],[-70.604621,-33.382939],[-70.604689,-33.38285],[-70.604687,-33.382704],[-70.604819,-33.382292],[-70.604811,-33.381881],[-70.604738,-33.381706],[-70.604631,-33.38159],[-70.604593,-33.381386],[-70.604449,-33.381153],[-70.604447,-33.381065],[-70.604052,-33.380484],[-70.603912,-33.380456],[-70.60391,-33.380368],[-70.603766,-33.380165],[-70.603765,-33.380106],[-70.603481,-33.379846],[-70.603408,-33.379671],[-70.603301,-33.379585],[-70.603332,-33.37935],[-70.603227,-33.379322],[-70.60312,-33.379235],[-70.602935,-33.37868],[-70.602909,-33.377215],[-70.603011,-33.377096],[-70.602971,-33.376804],[-70.603309,-33.376184],[-70.603307,-33.376066],[-70.603375,-33.375977],[-70.603372,-33.375831],[-70.603407,-33.375801],[-70.603402,-33.375537],[-70.603364,-33.375391],[-70.603222,-33.375276],[-70.603218,-33.375041],[-70.603494,-33.374833],[-70.603702,-33.374771],[-70.603874,-33.374622],[-70.604078,-33.374297],[-70.604077,-33.374239],[-70.604146,-33.374179],[-70.604179,-33.374061],[-70.604247,-33.374002],[-70.604246,-33.373914],[-70.604348,-33.373766],[-70.604345,-33.373619],[-70.60448,-33.373325],[-70.604721,-33.373145],[-70.605137,-33.372994],[-70.605312,-33.372991],[-70.605485,-33.372901],[-70.605694,-33.372869],[-70.605832,-33.372779],[-70.605937,-33.372778],[-70.606076,-33.372717],[-70.606355,-33.372714],[-70.60663,-33.372476],[-70.606629,-33.372417],[-70.606801,-33.372268],[-70.6068,-33.37221],[-70.607041,-33.372001],[-70.607976,-33.371549],[-70.608221,-33.371546],[-70.608223,-33.371693],[-70.608259,-33.371722],[-70.608329,-33.371721],[-70.608363,-33.371662],[-70.608467,-33.37166],[-70.608504,-33.371777],[-70.608679,-33.371775],[-70.608748,-33.371715],[-70.608746,-33.371627],[-70.608641,-33.371599],[-70.608569,-33.371512],[-70.60836,-33.371515],[-70.608358,-33.371427],[-70.608463,-33.371426],[-70.608567,-33.371366],[-70.608741,-33.371364]]]}},{"type":"Feature","properties":{"clase":"Parque Metropolitano de Santiago","ha":534.5},"geometry":{"type":"Polygon","coordinates":[[[-70.636131,-33.430756],[-70.635992,-33.430788],[-70.635432,-33.430766],[-70.635431,-33.430678],[-70.63557,-33.430647],[-70.635603,-33.430558],[-70.635427,-33.430502],[-70.635391,-33.430444],[-70.635147,-33.430476],[-70.635111,-33.430418],[-70.635041,-33.430419],[-70.635039,-33.430302],[-70.634899,-33.430274],[-70.634864,-33.430304],[-70.634867,-33.43048],[-70.634729,-33.43057],[-70.634659,-33.430571],[-70.634522,-33.430719],[-70.634452,-33.43072],[-70.634415,-33.430603],[-70.634485,-33.430573],[-70.634482,-33.430456],[-70.634272,-33.4304],[-70.6342,-33.430313],[-70.63406,-33.430315],[-70.633991,-33.430374],[-70.633993,-33.430462],[-70.633748,-33.430436],[-70.633713,-33.430466],[-70.63375,-33.430553],[-70.633961,-33.430609],[-70.633997,-33.430667],[-70.634242,-33.430664],[-70.634209,-33.430811],[-70.634104,-33.430812],[-70.634034,-33.430784],[-70.633997,-33.430667],[-70.633822,-33.43067],[-70.633224,-33.430472],[-70.633117,-33.430386],[-70.632908,-33.430388],[-70.632869,-33.430213],[-70.632799,-33.430185],[-70.632762,-33.430068],[-70.632657,-33.430099],[-70.63266,-33.430245],[-70.632485,-33.430247],[-70.632344,-33.430191],[-70.632308,-33.430103],[-70.631993,-33.430078],[-70.631956,-33.429961],[-70.63132,-33.429647],[-70.631177,-33.429473],[-70.631072,-33.429474],[-70.630966,-33.429417],[-70.63093,-33.42933],[-70.63079,-33.429332],[-70.630789,-33.429273],[-70.630683,-33.429245],[-70.630682,-33.429157],[-70.63054,-33.429042],[-70.630538,-33.428954],[-70.630503,-33.428925],[-70.630328,-33.428957],[-70.630326,-33.428839],[-70.630221,-33.428811],[-70.63022,-33.428753],[-70.630078,-33.428637],[-70.63004,-33.428521],[-70.629901,-33.428552],[-70.629833,-33.428641],[-70.629729,-33.428671],[-70.629448,-33.428646],[-70.629341,-33.42853],[-70.629304,-33.428413],[-70.629163,-33.428356],[-70.629127,-33.428269],[-70.629057,-33.42827],[-70.629055,-33.428182],[-70.62895,-33.428154],[-70.628912,-33.428008],[-70.628804,-33.427862],[-70.628698,-33.427805],[-70.628796,-33.427423],[-70.628725,-33.427336],[-70.628655,-33.427337],[-70.628651,-33.427161],[-70.628616,-33.427132],[-70.628406,-33.427135],[-70.62837,-33.427047],[-70.628192,-33.426903],[-70.628052,-33.426876],[-70.628049,-33.426729],[-70.627733,-33.426674],[-70.627556,-33.42653],[-70.627555,-33.426472],[-70.627449,-33.426444],[-70.627412,-33.426327],[-70.627202,-33.42633],[-70.626924,-33.426392],[-70.626853,-33.426334],[-70.626783,-33.426335],[-70.626747,-33.426277],[-70.626607,-33.426279],[-70.626605,-33.426191],[-70.626464,-33.426105],[-70.626324,-33.426107],[-70.626288,-33.426048],[-70.626007,-33.425964],[-70.6259,-33.425878],[-70.625899,-33.42579],[-70.626002,-33.42573],[-70.626035,-33.425612],[-70.625822,-33.425439],[-70.625752,-33.42544],[-70.625718,-33.425499],[-70.625368,-33.425474],[-70.625332,-33.425416],[-70.625262,-33.425417],[-70.625229,-33.425505],[-70.62502,-33.425537],[-70.625017,-33.425391],[-70.624842,-33.425364],[-70.624808,-33.425452],[-70.624879,-33.42551],[-70.62488,-33.425568],[-70.624811,-33.425569],[-70.624742,-33.425658],[-70.624534,-33.42572],[-70.624358,-33.425693],[-70.624325,-33.425781],[-70.624082,-33.425872],[-70.623837,-33.425846],[-70.62373,-33.425759],[-70.623729,-33.425671],[-70.623623,-33.425644],[-70.623359,-33.424621],[-70.62325,-33.424358],[-70.623246,-33.424183],[-70.623133,-33.423715],[-70.623273,-33.423713],[-70.623305,-33.423566],[-70.623269,-33.423537],[-70.623095,-33.423569],[-70.623128,-33.42348],[-70.623081,-33.422807],[-70.623009,-33.42272],[-70.623006,-33.422544],[-70.622934,-33.422428],[-70.622896,-33.422252],[-70.622825,-33.422224],[-70.622822,-33.422077],[-70.622751,-33.422019],[-70.622682,-33.42202],[-70.622678,-33.421845],[-70.622534,-33.421612],[-70.622463,-33.421554],[-70.622282,-33.421234],[-70.622141,-33.421148],[-70.622139,-33.421031],[-70.621848,-33.420448],[-70.621693,-33.419629],[-70.621509,-33.419104],[-70.621506,-33.418987],[-70.621646,-33.418956],[-70.621607,-33.418751],[-70.621571,-33.418722],[-70.621397,-33.418754],[-70.621396,-33.418695],[-70.621325,-33.418637],[-70.62101,-33.418641],[-70.620868,-33.418526],[-70.620867,-33.418467],[-70.620796,-33.41841],[-70.620795,-33.418322],[-70.620688,-33.418235],[-70.620618,-33.418236],[-70.620581,-33.418119],[-70.62044,-33.418062],[-70.620404,-33.417975],[-70.620084,-33.417686],[-70.619979,-33.417687],[-70.619977,-33.417599],[-70.619871,-33.417513],[-70.619801,-33.417514],[-70.619764,-33.417397],[-70.618982,-33.416703],[-70.618841,-33.416676],[-70.618839,-33.416559],[-70.618698,-33.416502],[-70.618697,-33.416443],[-70.618837,-33.416442],[-70.618838,-33.4165],[-70.618943,-33.416528],[-70.618977,-33.416469],[-70.619186,-33.416408],[-70.619185,-33.416349],[-70.619044,-33.416292],[-70.619042,-33.416175],[-70.619181,-33.416144],[-70.619143,-33.415998],[-70.619037,-33.415911],[-70.618967,-33.415912],[-70.618934,-33.41603],[-70.618864,-33.416031],[-70.618757,-33.415915],[-70.618756,-33.415827],[-70.61858,-33.4158],[-70.618548,-33.415947],[-70.618619,-33.415975],[-70.618656,-33.416121],[-70.618832,-33.416178],[-70.618833,-33.416236],[-70.618623,-33.41621],[-70.61859,-33.416327],[-70.61852,-33.416328],[-70.618483,-33.416212],[-70.618413,-33.416212],[-70.6182,-33.416039],[-70.61813,-33.41604],[-70.618056,-33.415807],[-70.617916,-33.415779],[-70.617525,-33.415462],[-70.617489,-33.415374],[-70.615706,-33.415398],[-70.615705,-33.41531],[-70.615843,-33.415249],[-70.61584,-33.415073],[-70.615735,-33.415045],[-70.615698,-33.414958],[-70.615593,-33.414959],[-70.61535,-33.41505],[-70.615392,-33.415402],[-70.614727,-33.41541],[-70.614724,-33.415234],[-70.614584,-33.415207],[-70.614446,-33.415297],[-70.614448,-33.415414],[-70.613434,-33.415427],[-70.6134,-33.415457],[-70.61319,-33.41546],[-70.613188,-33.415342],[-70.613083,-33.415314],[-70.613081,-33.415256],[-70.61322,-33.415166],[-70.613219,-33.415107],[-70.613323,-33.415106],[-70.613461,-33.414958],[-70.613635,-33.414955],[-70.613668,-33.414838],[-70.613808,-33.414836],[-70.613877,-33.414776],[-70.613909,-33.414659],[-70.614013,-33.414569],[-70.613938,-33.414306],[-70.614041,-33.414188],[-70.614175,-33.413893],[-70.614138,-33.413776],[-70.613995,-33.413631],[-70.613994,-33.413543],[-70.614097,-33.413454],[-70.614095,-33.413337],[-70.614024,-33.413309],[-70.613987,-33.413192],[-70.613882,-33.413193],[-70.613776,-33.413107],[-70.613601,-33.413109],[-70.613567,-33.413139],[-70.613568,-33.413227],[-70.613396,-33.413346],[-70.613329,-33.413523],[-70.613157,-33.413672],[-70.61316,-33.413818],[-70.613267,-33.413934],[-70.613305,-33.414109],[-70.613201,-33.41414],[-70.613168,-33.414258],[-70.613098,-33.414259],[-70.61296,-33.414378],[-70.61289,-33.414379],[-70.612854,-33.414321],[-70.612679,-33.414294],[-70.612572,-33.414178],[-70.612398,-33.414209],[-70.612292,-33.414152],[-70.611897,-33.413571],[-70.61179,-33.413484],[-70.611609,-33.413135],[-70.611253,-33.412817],[-70.610302,-33.412389],[-70.610127,-33.412392],[-70.610091,-33.412363],[-70.609847,-33.412395],[-70.60967,-33.412251],[-70.60897,-33.412201],[-70.608898,-33.412114],[-70.608654,-33.412118],[-70.608124,-33.411831],[-70.607803,-33.411513],[-70.607766,-33.411367],[-70.607871,-33.411365],[-70.607903,-33.411248],[-70.607868,-33.411219],[-70.607658,-33.411222],[-70.607584,-33.410988],[-70.607571,-33.410285],[-70.60746,-33.409934],[-70.607352,-33.409789],[-70.607351,-33.409701],[-70.607067,-33.40947],[-70.60703,-33.409383],[-70.606749,-33.409328],[-70.60643,-33.409068],[-70.606356,-33.408834],[-70.606284,-33.408747],[-70.606214,-33.408748],[-70.606176,-33.408544],[-70.606315,-33.408542],[-70.606349,-33.408453],[-70.606206,-33.408309],[-70.606032,-33.40834],[-70.605924,-33.408166],[-70.605921,-33.408019],[-70.605851,-33.407991],[-70.605706,-33.407729],[-70.605705,-33.40767],[-70.605845,-33.407668],[-70.605914,-33.407609],[-70.605912,-33.407521],[-70.605806,-33.407434],[-70.605768,-33.407317],[-70.605698,-33.40726],[-70.605488,-33.407292],[-70.605486,-33.407174],[-70.605625,-33.407143],[-70.605623,-33.406997],[-70.605587,-33.406968],[-70.605585,-33.406821],[-70.605407,-33.406677],[-70.605405,-33.40656],[-70.605509,-33.406529],[-70.605545,-33.406587],[-70.60579,-33.406584],[-70.605823,-33.406466],[-70.605717,-33.406409],[-70.605507,-33.406412],[-70.605471,-33.406324],[-70.605191,-33.406328],[-70.605158,-33.406416],[-70.605228,-33.406445],[-70.60523,-33.406533],[-70.60516,-33.406534],[-70.605158,-33.406446],[-70.605088,-33.406417],[-70.605085,-33.406241],[-70.605012,-33.406125],[-70.6049,-33.405716],[-70.60504,-33.405714],[-70.605109,-33.405655],[-70.605108,-33.405596],[-70.605037,-33.405538],[-70.605035,-33.405451],[-70.604963,-33.405364],[-70.60479,-33.405424],[-70.604642,-33.405016],[-70.604639,-33.404811],[-70.604568,-33.404782],[-70.60442,-33.404344],[-70.604418,-33.404227],[-70.604346,-33.404111],[-70.604344,-33.403994],[-70.604198,-33.403644],[-70.604149,-33.402911],[-70.604184,-33.402882],[-70.604179,-33.402618],[-70.604246,-33.402441],[-70.604242,-33.402236],[-70.604341,-33.401912],[-70.604338,-33.401765],[-70.604614,-33.401586],[-70.604716,-33.401409],[-70.604635,-33.398888],[-70.604563,-33.398801],[-70.604547,-33.397922],[-70.604581,-33.397892],[-70.604594,-33.396661],[-70.604767,-33.39657],[-70.604869,-33.396423],[-70.604938,-33.396392],[-70.604936,-33.396246],[-70.604865,-33.396217],[-70.604863,-33.396071],[-70.604789,-33.395896],[-70.604718,-33.395838],[-70.604579,-33.39584],[-70.604471,-33.395695],[-70.604429,-33.395314],[-70.604358,-33.395256],[-70.604288,-33.395257],[-70.604287,-33.395199],[-70.604392,-33.395168],[-70.60439,-33.39508],[-70.604354,-33.395051],[-70.60404,-33.395085],[-70.604039,-33.395026],[-70.604109,-33.394996],[-70.604107,-33.394879],[-70.604036,-33.394821],[-70.603862,-33.394882],[-70.603825,-33.394794],[-70.60372,-33.394766],[-70.603716,-33.394561],[-70.603463,-33.394095],[-70.603392,-33.394038],[-70.602672,-33.392903],[-70.602563,-33.39267],[-70.60256,-33.392524],[-70.602455,-33.392496],[-70.602382,-33.392321],[-70.602276,-33.392264],[-70.602274,-33.392176],[-70.602166,-33.392001],[-70.601845,-33.391624],[-70.601807,-33.391449],[-70.601663,-33.391216],[-70.601521,-33.391101],[-70.60152,-33.391042],[-70.601449,-33.391013],[-70.601448,-33.390926],[-70.601302,-33.390634],[-70.601293,-33.390107],[-70.601392,-33.389812],[-70.601529,-33.389634],[-70.601736,-33.389485],[-70.601841,-33.389484],[-70.601944,-33.389395],[-70.601943,-33.389336],[-70.602013,-33.389335],[-70.602014,-33.389423],[-70.60212,-33.389451],[-70.602152,-33.389304],[-70.602257,-33.389303],[-70.602507,-33.389593],[-70.602716,-33.38959],[-70.60296,-33.389528],[-70.602956,-33.389323],[-70.602778,-33.389149],[-70.602631,-33.38877],[-70.602349,-33.388627],[-70.602237,-33.388247],[-70.602129,-33.388044],[-70.602051,-33.387605],[-70.601942,-33.387372],[-70.601964,-33.386668],[-70.602064,-33.386403],[-70.602168,-33.386401],[-70.60238,-33.386516],[-70.602485,-33.386514],[-70.602521,-33.386573],[-70.602661,-33.386571],[-70.602908,-33.386714],[-70.602912,-33.386919],[-70.603017,-33.386947],[-70.60316,-33.387092],[-70.603299,-33.38709],[-70.603237,-33.387472],[-70.603308,-33.387559],[-70.60331,-33.387676],[-70.603382,-33.387793],[-70.603389,-33.388145],[-70.603461,-33.388261],[-70.603429,-33.388437],[-70.603535,-33.388494],[-70.603572,-33.388582],[-70.603711,-33.38858],[-70.603745,-33.388521],[-70.603851,-33.388549],[-70.603922,-33.388636],[-70.603926,-33.388841],[-70.604641,-33.389712],[-70.604889,-33.389914],[-70.605101,-33.390028],[-70.606544,-33.390596],[-70.60697,-33.390913],[-70.606902,-33.39106],[-70.606938,-33.391089],[-70.607148,-33.391086],[-70.607289,-33.391202],[-70.607398,-33.391376],[-70.6074,-33.391494],[-70.607471,-33.391551],[-70.607515,-33.392049],[-70.607587,-33.392166],[-70.607589,-33.392283],[-70.60745,-33.392314],[-70.607418,-33.392461],[-70.607523,-33.392518],[-70.607663,-33.392516],[-70.608052,-33.392775],[-70.608055,-33.392922],[-70.608126,-33.392979],[-70.60823,-33.392949],[-70.608229,-33.392861],[-70.608334,-33.392859],[-70.60858,-33.392974],[-70.60865,-33.392973],[-70.608863,-33.393146],[-70.608864,-33.393204],[-70.608935,-33.393262],[-70.608903,-33.393409],[-70.608941,-33.393585],[-70.608628,-33.393647],[-70.608629,-33.393706],[-70.608699,-33.393734],[-70.608702,-33.39391],[-70.608773,-33.393968],[-70.608811,-33.394085],[-70.608815,-33.394348],[-70.608886,-33.394377],[-70.608924,-33.394552],[-70.608995,-33.39461],[-70.609068,-33.394785],[-70.609139,-33.394843],[-70.609209,-33.394842],[-70.609246,-33.394929],[-70.609491,-33.394955],[-70.609597,-33.395013],[-70.609882,-33.395302],[-70.609884,-33.395419],[-70.60999,-33.395477],[-70.610027,-33.395623],[-70.610072,-33.396179],[-70.610252,-33.396411],[-70.610464,-33.396585],[-70.610779,-33.396581],[-70.61099,-33.396666],[-70.611168,-33.396839],[-70.61135,-33.397218],[-70.611354,-33.397423],[-70.611319,-33.397453],[-70.611325,-33.397775],[-70.611539,-33.397978],[-70.611821,-33.398121],[-70.612278,-33.398262],[-70.612383,-33.39826],[-70.612559,-33.398346],[-70.612808,-33.398577],[-70.612878,-33.398576],[-70.612916,-33.398722],[-70.613236,-33.399011],[-70.613305,-33.39901],[-70.613307,-33.399069],[-70.613624,-33.399241],[-70.613764,-33.399239],[-70.613765,-33.399298],[-70.614014,-33.3995],[-70.614118,-33.399498],[-70.61412,-33.399586],[-70.614264,-33.39979],[-70.614656,-33.400195],[-70.614866,-33.400222],[-70.6149,-33.400162],[-70.615039,-33.400131],[-70.614999,-33.399868],[-70.615206,-33.399719],[-70.615273,-33.399571],[-70.615377,-33.399511],[-70.615959,-33.398829],[-70.616131,-33.39871],[-70.61637,-33.398384],[-70.616439,-33.398354],[-70.616471,-33.398207],[-70.616919,-33.397849],[-70.617405,-33.397667],[-70.617719,-33.397604],[-70.618488,-33.397624],[-70.618699,-33.397709],[-70.618737,-33.397855],[-70.618914,-33.39797],[-70.61909,-33.398026],[-70.620219,-33.398598],[-70.620429,-33.398654],[-70.620504,-33.398887],[-70.620574,-33.398886],[-70.620607,-33.398827],[-70.620712,-33.398826],[-70.620753,-33.399119],[-70.620649,-33.399179],[-70.62065,-33.399237],[-70.620444,-33.399416],[-70.620379,-33.39971],[-70.62024,-33.399741],[-70.620207,-33.399859],[-70.620138,-33.399918],[-70.620033,-33.39989],[-70.619894,-33.399921],[-70.619897,-33.400097],[-70.619726,-33.400275],[-70.619766,-33.400568],[-70.619662,-33.400599],[-70.61963,-33.400775],[-70.619491,-33.400806],[-70.619493,-33.400953],[-70.619426,-33.401071],[-70.619286,-33.401102],[-70.61929,-33.401278],[-70.619187,-33.401397],[-70.619188,-33.401455],[-70.619017,-33.401633],[-70.618949,-33.401781],[-70.618846,-33.40187],[-70.618847,-33.401929],[-70.618778,-33.401959],[-70.618817,-33.402193],[-70.618713,-33.402224],[-70.61875,-33.402311],[-70.618925,-33.402338],[-70.618963,-33.402514],[-70.618859,-33.402544],[-70.61886,-33.402632],[-70.619001,-33.40266],[-70.619038,-33.402776],[-70.619108,-33.402805],[-70.619111,-33.402951],[-70.619216,-33.402979],[-70.619218,-33.403038],[-70.619325,-33.403154],[-70.619364,-33.403388],[-70.619653,-33.403912],[-70.619873,-33.404466],[-70.61998,-33.404553],[-70.619982,-33.404699],[-70.620054,-33.404786],[-70.620128,-33.40502],[-70.620199,-33.405048],[-70.620239,-33.405341],[-70.620032,-33.405461],[-70.619335,-33.405617],[-70.619056,-33.40562],[-70.618918,-33.405739],[-70.618921,-33.405886],[-70.619029,-33.40606],[-70.61903,-33.406119],[-70.618926,-33.40615],[-70.618929,-33.406325],[-70.619069,-33.406353],[-70.619103,-33.406265],[-70.619172,-33.406264],[-70.619139,-33.406352],[-70.619176,-33.40644],[-70.619491,-33.406465],[-70.619839,-33.406372],[-70.620188,-33.406368],[-70.620292,-33.406337],[-70.620326,-33.406249],[-70.62078,-33.406243],[-70.620814,-33.406184],[-70.620988,-33.406123],[-70.621092,-33.406121],[-70.621266,-33.406031],[-70.62144,-33.406029],[-70.621614,-33.405968],[-70.622069,-33.406021],[-70.622245,-33.406077],[-70.622423,-33.406221],[-70.622493,-33.40622],[-70.622494,-33.406279],[-70.622992,-33.406771],[-70.623171,-33.407003],[-70.623208,-33.40712],[-70.62335,-33.407206],[-70.623528,-33.407409],[-70.62353,-33.407497],[-70.623636,-33.407554],[-70.623781,-33.407845],[-70.623784,-33.407992],[-70.623856,-33.408079],[-70.623859,-33.408255],[-70.623929,-33.408283],[-70.623931,-33.4084],[-70.623828,-33.40846],[-70.623339,-33.408496],[-70.6232,-33.408556],[-70.623239,-33.408761],[-70.623348,-33.408965],[-70.62335,-33.409112],[-70.623422,-33.409199],[-70.623427,-33.409492],[-70.623463,-33.409521],[-70.623408,-33.410342],[-70.623483,-33.410605],[-70.623529,-33.41122],[-70.623321,-33.411282],[-70.623115,-33.411489],[-70.623045,-33.41149],[-70.623013,-33.411637],[-70.622909,-33.411668],[-70.62291,-33.411756],[-70.623085,-33.411783],[-70.623094,-33.412223],[-70.623129,-33.412252],[-70.623099,-33.412486],[-70.623206,-33.412602],[-70.623345,-33.412601],[-70.623385,-33.412835],[-70.623492,-33.41298],[-70.62399,-33.413442],[-70.624234,-33.41341],[-70.624239,-33.413644],[-70.624807,-33.414106],[-70.625164,-33.414541],[-70.625305,-33.414569],[-70.625342,-33.414715],[-70.625484,-33.41483],[-70.625624,-33.414828],[-70.62566,-33.414886],[-70.625975,-33.414912],[-70.626776,-33.414725],[-70.627056,-33.414721],[-70.627263,-33.414601],[-70.627368,-33.4146],[-70.627369,-33.414659],[-70.627299,-33.41466],[-70.627266,-33.414748],[-70.627407,-33.414834],[-70.627547,-33.414832],[-70.627833,-33.41518],[-70.627903,-33.415179],[-70.627974,-33.415237],[-70.628079,-33.415236],[-70.628252,-33.415146],[-70.628596,-33.414819],[-70.628803,-33.414699],[-70.629187,-33.414635],[-70.629255,-33.414546],[-70.62936,-33.414545],[-70.629807,-33.414187],[-70.629944,-33.414009],[-70.630078,-33.413714],[-70.630214,-33.413507],[-70.630386,-33.413358],[-70.630385,-33.4133],[-70.630489,-33.41324],[-70.630594,-33.413238],[-70.63063,-33.413326],[-70.631049,-33.413291],[-70.631083,-33.413203],[-70.631153,-33.413202],[-70.631541,-33.413402],[-70.631647,-33.413488],[-70.631649,-33.413576],[-70.631509,-33.413578],[-70.631476,-33.413667],[-70.631372,-33.413697],[-70.631375,-33.413902],[-70.631446,-33.413931],[-70.631447,-33.413989],[-70.631308,-33.41405],[-70.63131,-33.414167],[-70.631207,-33.414227],[-70.631209,-33.414344],[-70.631107,-33.414492],[-70.631145,-33.414668],[-70.63118,-33.414697],[-70.631355,-33.414694],[-70.631499,-33.414898],[-70.631604,-33.414896],[-70.631889,-33.415186],[-70.631959,-33.415185],[-70.631995,-33.415243],[-70.632278,-33.415415],[-70.632279,-33.415503],[-70.632563,-33.415734],[-70.632565,-33.415822],[-70.632742,-33.415937],[-70.632998,-33.416549],[-70.633068,-33.416548],[-70.63321,-33.416664],[-70.63335,-33.416691],[-70.633979,-33.416653],[-70.634262,-33.416826],[-70.635032,-33.416874],[-70.635348,-33.416929],[-70.635912,-33.417185],[-70.635984,-33.417301],[-70.636194,-33.417299],[-70.63623,-33.417386],[-70.636371,-33.417413],[-70.636373,-33.41756],[-70.636514,-33.417587],[-70.636657,-33.417762],[-70.636763,-33.417819],[-70.636765,-33.417936],[-70.636874,-33.41814],[-70.637373,-33.418661],[-70.637375,-33.418749],[-70.63748,-33.418777],[-70.638014,-33.419268],[-70.638153,-33.419266],[-70.638918,-33.419022],[-70.639125,-33.418872],[-70.639123,-33.418784],[-70.639017,-33.418698],[-70.639015,-33.41861],[-70.639431,-33.418429],[-70.639501,-33.418428],[-70.639572,-33.418485],[-70.639753,-33.418805],[-70.639823,-33.418834],[-70.640005,-33.419183],[-70.640076,-33.419241],[-70.640146,-33.41924],[-70.640148,-33.419387],[-70.640256,-33.419532],[-70.640257,-33.41959],[-70.640153,-33.419621],[-70.640155,-33.419709],[-70.640226,-33.419767],[-70.6404,-33.419735],[-70.640403,-33.419882],[-70.640508,-33.41991],[-70.640544,-33.419968],[-70.640585,-33.42029],[-70.640552,-33.420378],[-70.640447,-33.420409],[-70.640486,-33.420613],[-70.640242,-33.420617],[-70.640207,-33.420646],[-70.640178,-33.42094],[-70.640073,-33.420941],[-70.63997,-33.421031],[-70.639971,-33.421089],[-70.639866,-33.42112],[-70.639868,-33.421208],[-70.639799,-33.421238],[-70.639731,-33.421356],[-70.639699,-33.421533],[-70.639526,-33.421623],[-70.639528,-33.421711],[-70.639391,-33.421889],[-70.639182,-33.421891],[-70.639146,-33.421833],[-70.639076,-33.421834],[-70.639042,-33.421923],[-70.638449,-33.421989],[-70.638448,-33.421901],[-70.638342,-33.421873],[-70.638276,-33.42205],[-70.638034,-33.4222],[-70.638036,-33.422346],[-70.637862,-33.422349],[-70.637829,-33.422466],[-70.637726,-33.422556],[-70.637551,-33.422558],[-70.637483,-33.422676],[-70.637379,-33.422707],[-70.63738,-33.422765],[-70.637205,-33.422768],[-70.637171,-33.422797],[-70.637175,-33.423003],[-70.637035,-33.423004],[-70.636966,-33.423064],[-70.636967,-33.423123],[-70.637038,-33.423151],[-70.637009,-33.423474],[-70.63708,-33.423561],[-70.63715,-33.42356],[-70.637292,-33.423675],[-70.637607,-33.423671],[-70.637711,-33.423611],[-70.637921,-33.423638],[-70.637954,-33.423549],[-70.638304,-33.423574],[-70.638375,-33.423632],[-70.638377,-33.423749],[-70.63831,-33.423897],[-70.638388,-33.424306],[-70.638459,-33.424364],[-70.638499,-33.424627],[-70.63857,-33.424685],[-70.638575,-33.424948],[-70.63865,-33.425241],[-70.638721,-33.425269],[-70.638725,-33.425474],[-70.638621,-33.425534],[-70.638625,-33.425739],[-70.63859,-33.425769],[-70.6386,-33.426267],[-70.638706,-33.426354],[-70.638677,-33.426677],[-70.638713,-33.426706],[-70.638718,-33.42697],[-70.63879,-33.427115],[-70.638723,-33.427263],[-70.638829,-33.42732],[-70.638831,-33.427408],[-70.638901,-33.427436],[-70.638976,-33.42767],[-70.638944,-33.427846],[-70.638979,-33.427875],[-70.639189,-33.427872],[-70.63919,-33.427931],[-70.639017,-33.428021],[-70.639019,-33.428138],[-70.638844,-33.428111],[-70.638777,-33.428288],[-70.638499,-33.42838],[-70.638431,-33.428469],[-70.638433,-33.428557],[-70.638363,-33.428557],[-70.638325,-33.428411],[-70.638184,-33.428355],[-70.637975,-33.428357],[-70.63794,-33.428387],[-70.637943,-33.428534],[-70.637663,-33.428537],[-70.637662,-33.428449],[-70.637521,-33.428422],[-70.637487,-33.428452],[-70.637528,-33.428774],[-70.637353,-33.428776],[-70.63725,-33.428865],[-70.637251,-33.428924],[-70.637147,-33.428984],[-70.636937,-33.428957],[-70.636904,-33.429075],[-70.636765,-33.429106],[-70.636768,-33.429282],[-70.636699,-33.429342],[-70.636525,-33.429373],[-70.636489,-33.429315],[-70.636419,-33.429316],[-70.636315,-33.429376],[-70.636316,-33.429435],[-70.636177,-33.429466],[-70.636214,-33.429583],[-70.63639,-33.42961],[-70.636392,-33.429727],[-70.636462,-33.429755],[-70.636465,-33.429902],[-70.636291,-33.429933],[-70.636188,-33.430023],[-70.63619,-33.43014],[-70.636261,-33.430198],[-70.636262,-33.430286],[-70.636193,-33.430287],[-70.636124,-33.430375],[-70.635949,-33.430378],[-70.635847,-33.430496],[-70.635673,-33.430557],[-70.63571,-33.430674],[-70.63599,-33.43067],[-70.636093,-33.430552],[-70.636163,-33.430551],[-70.636131,-33.430756]]]}}]}