{"type":"FeatureCollection","properties":{"fuente":"Acta Participación Ciudadana – Restauración Ladera, 24.09.2026 (Parquemet). Digitalizado de la lámina, precisión aprox. ±15 m","lamina":19,"capa":"proteccion"},"features":[{"type":"Feature","properties":{"clase":"Protección de suelos, canteras y cursos de agua","ha":0.06},"geometry":{"type":"Polygon","coordinates":[[[-70.605006,-33.401406],[-70.604899,-33.401363],[-70.604844,-33.401187],[-70.604891,-33.400921],[-70.604997,-33.40092],[-70.605006,-33.401406]]]}},{"type":"Feature","properties":{"clase":"Protección de suelos, canteras y cursos de agua","ha":0.02},"geometry":{"type":"Polygon","coordinates":[[[-70.604895,-33.39253],[-70.604736,-33.392488],[-70.604682,-33.3924],[-70.604893,-33.392397],[-70.604895,-33.39253]]]}},{"type":"Feature","properties":{"clase":"Protección de suelos, canteras y cursos de agua","ha":0.06},"geometry":{"type":"Polygon","coordinates":[[[-70.610629,-33.412241],[-70.610525,-33.412331],[-70.610261,-33.41229],[-70.610259,-33.412158],[-70.610311,-33.412113],[-70.610575,-33.412154],[-70.610629,-33.412241]]]}},{"type":"Feature","properties":{"clase":"Protección de suelos, canteras y cursos de agua","ha":0.04},"geometry":{"type":"Polygon","coordinates":[[[-70.612612,-33.414115],[-70.612401,-33.414073],[-70.612346,-33.413941],[-70.612555,-33.413895],[-70.612612,-33.414115]]]}},{"type":"Feature","properties":{"clase":"Protección de suelos, canteras y cursos de agua","ha":0.64},"geometry":{"type":"Polygon","coordinates":[[[-70.615066,-33.407281],[-70.614857,-33.407372],[-70.614647,-33.407375],[-70.614538,-33.4072],[-70.614432,-33.407157],[-70.614268,-33.40685],[-70.614,-33.406589],[-70.61426,-33.406409],[-70.614575,-33.40636],[-70.614582,-33.406758],[-70.614636,-33.406801],[-70.614897,-33.406709],[-70.615161,-33.406706],[-70.61522,-33.407059],[-70.615064,-33.407193],[-70.615066,-33.407281]]]}},{"type":"Feature","properties":{"clase":"Protección de suelos, canteras y cursos de agua","ha":0.1},"geometry":{"type":"Polygon","coordinates":[[[-70.617418,-33.406323],[-70.617421,-33.4065],[-70.617264,-33.406546],[-70.617213,-33.406635],[-70.616845,-33.406684],[-70.617052,-33.406461],[-70.617418,-33.406323]]]}},{"type":"Feature","properties":{"clase":"Protección de suelos, canteras y cursos de agua","ha":0.56},"geometry":{"type":"Polygon","coordinates":[[[-70.619082,-33.408024],[-70.618768,-33.408161],[-70.618191,-33.408256],[-70.61798,-33.408215],[-70.617868,-33.407863],[-70.617972,-33.407818],[-70.617971,-33.407729],[-70.618235,-33.40777],[-70.618443,-33.407635],[-70.618601,-33.407633],[-70.618813,-33.407718],[-70.618971,-33.407716],[-70.619078,-33.407803],[-70.619082,-33.408024]]]}},{"type":"Feature","properties":{"clase":"Protección de suelos, canteras y cursos de agua","ha":0.05},"geometry":{"type":"Polygon","coordinates":[[[-70.622648,-33.41288],[-70.622542,-33.412837],[-70.622484,-33.412573],[-70.622696,-33.412658],[-70.622648,-33.41288]]]}},{"type":"Feature","properties":{"clase":"Protección de suelos, canteras y cursos de agua","ha":0.07},"geometry":{"type":"Polygon","coordinates":[[[-70.622925,-33.413627],[-70.622658,-33.413454],[-70.622604,-33.413366],[-70.622655,-33.413277],[-70.622813,-33.413275],[-70.622922,-33.41345],[-70.622925,-33.413627]]]}},{"type":"Feature","properties":{"clase":"Protección de suelos, canteras y cursos de agua","ha":0.07},"geometry":{"type":"Polygon","coordinates":[[[-70.623726,-33.414235],[-70.623412,-33.414327],[-70.623199,-33.414197],[-70.623144,-33.414066],[-70.623249,-33.414064],[-70.623303,-33.414152],[-70.623725,-33.41419],[-70.623726,-33.414235]]]}},{"type":"Feature","properties":{"clase":"Protección de suelos, canteras y cursos de agua","ha":0.02},"geometry":{"type":"Polygon","coordinates":[[[-70.623942,-33.414541],[-70.623787,-33.414675],[-70.623784,-33.414543],[-70.623942,-33.414541]]]}},{"type":"Feature","properties":{"clase":"Protección de suelos, canteras y cursos de agua","ha":0.12},"geometry":{"type":"Polygon","coordinates":[[[-70.62442,-33.414711],[-70.624112,-33.415157],[-70.623848,-33.415116],[-70.623846,-33.415028],[-70.623951,-33.414982],[-70.624104,-33.41476],[-70.62442,-33.414711]]]}},{"type":"Feature","properties":{"clase":"Protección de suelos, canteras y cursos de agua","ha":2.43},"geometry":{"type":"Polygon","coordinates":[[[-70.623863,-33.421564],[-70.623654,-33.421655],[-70.623442,-33.421614],[-70.623439,-33.421437],[-70.623222,-33.421131],[-70.623272,-33.420953],[-70.623427,-33.420819],[-70.623311,-33.420246],[-70.623204,-33.420159],[-70.623148,-33.419984],[-70.62299,-33.419941],[-70.622829,-33.419811],[-70.622717,-33.419459],[-70.622343,-33.419155],[-70.621921,-33.419116],[-70.62197,-33.418895],[-70.622233,-33.418891],[-70.622493,-33.418711],[-70.622598,-33.41871],[-70.622811,-33.41884],[-70.622819,-33.419237],[-70.623136,-33.419321],[-70.623349,-33.419451],[-70.623355,-33.41976],[-70.623673,-33.419888],[-70.624729,-33.420007],[-70.624785,-33.420183],[-70.624314,-33.420366],[-70.624374,-33.420762],[-70.624221,-33.421029],[-70.624012,-33.42112],[-70.623863,-33.421564]]]}},{"type":"Feature","properties":{"clase":"Protección de suelos, canteras y cursos de agua","ha":0.02},"geometry":{"type":"Polygon","coordinates":[[[-70.624977,-33.424862],[-70.624819,-33.424864],[-70.624869,-33.424687],[-70.624974,-33.424685],[-70.624977,-33.424862]]]}},{"type":"Feature","properties":{"clase":"Protección de suelos, canteras y cursos de agua","ha":0.07},"geometry":{"type":"Polygon","coordinates":[[[-70.625032,-33.422123],[-70.625033,-33.422211],[-70.624929,-33.422257],[-70.62493,-33.422345],[-70.624827,-33.422435],[-70.624667,-33.422348],[-70.624509,-33.422351],[-70.624508,-33.422306],[-70.624823,-33.422258],[-70.624873,-33.422081],[-70.625032,-33.422123]]]}},{"type":"Feature","properties":{"clase":"Protección de suelos, canteras y cursos de agua","ha":0.41},"geometry":{"type":"Polygon","coordinates":[[[-70.62513,-33.424595],[-70.625023,-33.424508],[-70.624865,-33.42451],[-70.624911,-33.424156],[-70.624805,-33.424113],[-70.624693,-33.423761],[-70.624428,-33.423632],[-70.624426,-33.423544],[-70.624689,-33.423541],[-70.624796,-33.423628],[-70.625218,-33.423622],[-70.62522,-33.423754],[-70.625065,-33.423889],[-70.625066,-33.423977],[-70.625227,-33.424108],[-70.62549,-33.424104],[-70.625491,-33.424148],[-70.625176,-33.424241],[-70.62513,-33.424595]]]}},{"type":"Feature","properties":{"clase":"Protección de suelos, canteras y cursos de agua","ha":0.16},"geometry":{"type":"Polygon","coordinates":[[[-70.626583,-33.423427],[-70.626531,-33.423472],[-70.626005,-33.423479],[-70.62579,-33.423261],[-70.625894,-33.423172],[-70.626052,-33.423169],[-70.626211,-33.423256],[-70.626528,-33.423296],[-70.626583,-33.423427]]]}},{"type":"Feature","properties":{"clase":"Protección de suelos, canteras y cursos de agua","ha":0.06},"geometry":{"type":"Polygon","coordinates":[[[-70.627669,-33.425136],[-70.627669,-33.42518],[-70.627197,-33.425274],[-70.627349,-33.424963],[-70.627563,-33.425137],[-70.627669,-33.425136]]]}},{"type":"Feature","properties":{"clase":"Protección de suelos, canteras y cursos de agua","ha":0.02},"geometry":{"type":"Polygon","coordinates":[[[-70.628154,-33.417268],[-70.627996,-33.41727],[-70.627994,-33.417182],[-70.628151,-33.417136],[-70.628154,-33.417268]]]}},{"type":"Feature","properties":{"clase":"Protección de suelos, canteras y cursos de agua","ha":0.03},"geometry":{"type":"Polygon","coordinates":[[[-70.630881,-33.425138],[-70.630931,-33.42496],[-70.631035,-33.424915],[-70.631039,-33.425136],[-70.630881,-33.425138]]]}},{"type":"Feature","properties":{"clase":"Protección de suelos, canteras y cursos de agua","ha":0.16},"geometry":{"type":"Polygon","coordinates":[[[-70.631047,-33.419924],[-70.63094,-33.419837],[-70.630989,-33.419616],[-70.630879,-33.419396],[-70.63093,-33.419263],[-70.631088,-33.419305],[-70.631091,-33.419438],[-70.631197,-33.41948],[-70.631308,-33.419788],[-70.631203,-33.419789],[-70.631047,-33.419924]]]}},{"type":"Feature","properties":{"clase":"Protección de suelos, canteras y cursos de agua","ha":0.15},"geometry":{"type":"Polygon","coordinates":[[[-70.631523,-33.425659],[-70.631471,-33.425704],[-70.631208,-33.425707],[-70.631104,-33.425797],[-70.631096,-33.425356],[-70.631306,-33.425309],[-70.631413,-33.425396],[-70.631523,-33.425659]]]}},{"type":"Feature","properties":{"clase":"Protección de suelos, canteras y cursos de agua","ha":0.29},"geometry":{"type":"Polygon","coordinates":[[[-70.631778,-33.419561],[-70.631619,-33.419519],[-70.631563,-33.419343],[-70.631352,-33.419302],[-70.631135,-33.418995],[-70.631133,-33.418863],[-70.631342,-33.418816],[-70.631769,-33.419075],[-70.631874,-33.419074],[-70.63183,-33.419516],[-70.631778,-33.419561]]]}},{"type":"Feature","properties":{"clase":"Protección de suelos, canteras y cursos de agua","ha":0.26},"geometry":{"type":"Polygon","coordinates":[[[-70.634369,-33.425754],[-70.634052,-33.425714],[-70.633891,-33.42554],[-70.633626,-33.425455],[-70.633625,-33.425411],[-70.63394,-33.425318],[-70.633935,-33.425097],[-70.634093,-33.425095],[-70.6342,-33.425182],[-70.63431,-33.425402],[-70.634369,-33.425754]]]}},{"type":"Feature","properties":{"clase":"Protección de suelos, canteras y cursos de agua","ha":0.44},"geometry":{"type":"Polygon","coordinates":[[[-70.635272,-33.42614],[-70.635273,-33.426228],[-70.63501,-33.426231],[-70.634335,-33.42677],[-70.634393,-33.427035],[-70.634236,-33.427081],[-70.634233,-33.426904],[-70.634124,-33.426729],[-70.634118,-33.42642],[-70.634691,-33.426059],[-70.634849,-33.426057],[-70.635008,-33.426143],[-70.635272,-33.42614]]]}}]}