{"type":"FeatureCollection","properties":{"fuente":"Acta Participación Ciudadana – Restauración Ladera, 24.09.2026 (Parquemet). Digitalizado de la lámina, precisión aprox. ±15 m","lamina":18,"capa":"conservacion"},"features":[{"type":"Feature","properties":{"clase":"Alto valor ecológico (bosque esclerófilo)","ha":0.26},"geometry":{"type":"Polygon","coordinates":[[[-70.603479,-33.390447],[-70.603159,-33.390451],[-70.603092,-33.390344],[-70.6029,-33.390347],[-70.602768,-33.390133],[-70.602379,-33.389923],[-70.602313,-33.389816],[-70.602764,-33.389918],[-70.603084,-33.38986],[-70.603086,-33.389968],[-70.602958,-33.390023],[-70.602961,-33.390185],[-70.603155,-33.390236],[-70.603216,-33.390074],[-70.60341,-33.390179],[-70.603479,-33.390447]]]}},{"type":"Feature","properties":{"clase":"Alto valor ecológico (bosque esclerófilo)","ha":7.24},"geometry":{"type":"Polygon","coordinates":[[[-70.604967,-33.373693],[-70.605099,-33.373853],[-70.604973,-33.374016],[-70.604656,-33.374181],[-70.60466,-33.374397],[-70.605048,-33.374607],[-70.605894,-33.375242],[-70.60629,-33.375882],[-70.607136,-33.376517],[-70.607007,-33.376519],[-70.606877,-33.376413],[-70.606685,-33.376415],[-70.605838,-33.375727],[-70.605646,-33.375729],[-70.605587,-33.375999],[-70.605848,-33.376265],[-70.605851,-33.376426],[-70.605726,-33.376589],[-70.605473,-33.376754],[-70.605217,-33.376811],[-70.604777,-33.377301],[-70.604649,-33.377302],[-70.603634,-33.377908],[-70.60306,-33.378076],[-70.603047,-33.377377],[-70.603233,-33.377052],[-70.603165,-33.376837],[-70.603415,-33.376457],[-70.603536,-33.376079],[-70.603522,-33.375326],[-70.603389,-33.375059],[-70.603963,-33.37489],[-70.604153,-33.374726],[-70.604149,-33.374511],[-70.604399,-33.374185],[-70.60452,-33.373753],[-70.604583,-33.373698],[-70.604967,-33.373693]]]}},{"type":"Feature","properties":{"clase":"Alto valor ecológico (bosque esclerófilo)","ha":0.03},"geometry":{"type":"Polygon","coordinates":[[[-70.607612,-33.395398],[-70.607353,-33.395294],[-70.607351,-33.395186],[-70.607479,-33.395184],[-70.607612,-33.395398]]]}},{"type":"Feature","properties":{"clase":"Alto valor ecológico (bosque esclerófilo)","ha":2.22},"geometry":{"type":"Polygon","coordinates":[[[-70.607907,-33.394049],[-70.607711,-33.393836],[-70.607129,-33.393575],[-70.606932,-33.393308],[-70.606609,-33.393205],[-70.606478,-33.393045],[-70.606349,-33.393047],[-70.606339,-33.392455],[-70.60627,-33.39224],[-70.60614,-33.392135],[-70.606068,-33.391705],[-70.605808,-33.391493],[-70.605356,-33.391338],[-70.604778,-33.391291],[-70.604647,-33.391185],[-70.604326,-33.391136],[-70.604194,-33.390922],[-70.604001,-33.390925],[-70.603995,-33.390602],[-70.604255,-33.39076],[-70.6049,-33.390967],[-70.604966,-33.391074],[-70.60535,-33.391015],[-70.605865,-33.391116],[-70.606253,-33.391272],[-70.606513,-33.391484],[-70.606645,-33.391698],[-70.60692,-33.392663],[-70.607247,-33.393035],[-70.607572,-33.393246],[-70.607644,-33.393676],[-70.607904,-33.393887],[-70.607907,-33.394049]]]}},{"type":"Feature","properties":{"clase":"Alto valor ecológico (bosque esclerófilo)","ha":0.04},"geometry":{"type":"Polygon","coordinates":[[[-70.608237,-33.394529],[-70.608109,-33.39453],[-70.607977,-33.394371],[-70.607975,-33.394209],[-70.608104,-33.394261],[-70.608237,-33.394529]]]}},{"type":"Feature","properties":{"clase":"Alto valor ecológico (bosque esclerófilo)","ha":98.76},"geometry":{"type":"Polygon","coordinates":[[[-70.600344,-33.362883],[-70.600729,-33.362878],[-70.601181,-33.363034],[-70.601897,-33.363617],[-70.602479,-33.363878],[-70.604017,-33.363858],[-70.604213,-33.364017],[-70.604543,-33.364551],[-70.604804,-33.364817],[-70.604939,-33.365192],[-70.605135,-33.365351],[-70.605536,-33.36626],[-70.6058,-33.366633],[-70.605936,-33.367062],[-70.606199,-33.367435],[-70.606666,-33.368398],[-70.607191,-33.369037],[-70.607192,-33.369144],[-70.60805,-33.370425],[-70.607989,-33.370587],[-70.60761,-33.370915],[-70.60691,-33.371247],[-70.606532,-33.371574],[-70.60621,-33.371525],[-70.60615,-33.371741],[-70.605834,-33.372014],[-70.604563,-33.372622],[-70.603932,-33.373168],[-70.603486,-33.373336],[-70.603046,-33.373826],[-70.602666,-33.3741],[-70.602671,-33.374369],[-70.602736,-33.374422],[-70.602677,-33.374691],[-70.602487,-33.374801],[-70.602362,-33.375018],[-70.601789,-33.375241],[-70.60154,-33.375621],[-70.601549,-33.376159],[-70.601747,-33.376425],[-70.602202,-33.376796],[-70.602337,-33.377117],[-70.602299,-33.37857],[-70.602364,-33.378623],[-70.602371,-33.379],[-70.602502,-33.37916],[-70.60251,-33.37959],[-70.602836,-33.379855],[-70.602904,-33.380069],[-70.603296,-33.380495],[-70.603298,-33.380602],[-70.604021,-33.381508],[-70.604028,-33.381938],[-70.603908,-33.38237],[-70.603924,-33.383231],[-70.603548,-33.38372],[-70.60342,-33.383722],[-70.603415,-33.383453],[-70.603536,-33.383074],[-70.603724,-33.382803],[-70.60372,-33.382588],[-70.603521,-33.382268],[-70.603448,-33.381784],[-70.603315,-33.381517],[-70.603119,-33.381304],[-70.602471,-33.380936],[-70.602274,-33.380723],[-70.601758,-33.380515],[-70.601625,-33.380301],[-70.600843,-33.379612],[-70.600587,-33.379615],[-70.600259,-33.379243],[-70.60013,-33.37919],[-70.599866,-33.378817],[-70.599732,-33.378496],[-70.599706,-33.377043],[-70.599945,-33.376126],[-70.599745,-33.375698],[-70.599736,-33.375214],[-70.599529,-33.374409],[-70.598744,-33.373558],[-70.598673,-33.373182],[-70.598542,-33.373023],[-70.598205,-33.372166],[-70.597618,-33.371582],[-70.597489,-33.371583],[-70.5971,-33.371319],[-70.597282,-33.370779],[-70.597391,-33.369701],[-70.597454,-33.369647],[-70.597375,-33.368841],[-70.597238,-33.368358],[-70.597221,-33.367444],[-70.597156,-33.367391],[-70.597206,-33.366583],[-70.597006,-33.366209],[-70.597055,-33.365347],[-70.597369,-33.36502],[-70.59769,-33.365016],[-70.598004,-33.364635],[-70.598762,-33.364034],[-70.598886,-33.363817],[-70.599265,-33.363489],[-70.599457,-33.363433],[-70.599582,-33.36327],[-70.600026,-33.362995],[-70.600344,-33.362883]],[[-70.600888,-33.378589],[-70.6014,-33.378528],[-70.6021,-33.378196],[-70.602093,-33.37782],[-70.601765,-33.377447],[-70.601565,-33.377019],[-70.60137,-33.376861],[-70.600985,-33.376866],[-70.600796,-33.377029],[-70.600798,-33.377137],[-70.600547,-33.377463],[-70.600294,-33.377628],[-70.6003,-33.378004],[-70.600888,-33.378589]],[[-70.603166,-33.369896],[-70.60175,-33.369591],[-70.601497,-33.36981],[-70.600876,-33.370894],[-70.600885,-33.371378],[-70.601414,-33.372286],[-70.601736,-33.372336],[-70.60249,-33.371519],[-70.603176,-33.370434],[-70.603296,-33.370002],[-70.603166,-33.369896]]]}},{"type":"Feature","properties":{"clase":"Alto valor ecológico (bosque esclerófilo)","ha":4.84},"geometry":{"type":"Polygon","coordinates":[[[-70.608727,-33.393285],[-70.607693,-33.392868],[-70.607498,-33.392709],[-70.607496,-33.392601],[-70.607301,-33.392442],[-70.607093,-33.391638],[-70.606895,-33.391318],[-70.606568,-33.390999],[-70.606309,-33.390841],[-70.605729,-33.390687],[-70.6047,-33.390539],[-70.603921,-33.390065],[-70.60314,-33.389429],[-70.603138,-33.389321],[-70.602876,-33.389056],[-70.602873,-33.388894],[-70.602741,-33.388681],[-70.602417,-33.38847],[-70.602413,-33.388255],[-70.602213,-33.387881],[-70.602075,-33.387344],[-70.602126,-33.38659],[-70.602641,-33.386691],[-70.603093,-33.386901],[-70.603106,-33.3876],[-70.603239,-33.387867],[-70.603246,-33.388244],[-70.603701,-33.388561],[-70.603771,-33.388883],[-70.604099,-33.389255],[-70.604101,-33.389363],[-70.60423,-33.389415],[-70.604819,-33.390053],[-70.606369,-33.390625],[-70.607084,-33.391154],[-70.607284,-33.391528],[-70.607495,-33.392547],[-70.60782,-33.392812],[-70.608595,-33.393071],[-70.608727,-33.393285]]]}},{"type":"Feature","properties":{"clase":"Alto valor ecológico (bosque esclerófilo)","ha":0.12},"geometry":{"type":"Polygon","coordinates":[[[-70.608896,-33.395489],[-70.608767,-33.395437],[-70.60857,-33.39517],[-70.608312,-33.39512],[-70.608117,-33.394961],[-70.608177,-33.394745],[-70.608698,-33.395169],[-70.608896,-33.395489]]]}},{"type":"Feature","properties":{"clase":"Alto valor ecológico (bosque esclerófilo)","ha":3.52},"geometry":{"type":"Polygon","coordinates":[[[-70.608695,-33.374129],[-70.608567,-33.374131],[-70.607983,-33.373762],[-70.607591,-33.37339],[-70.607457,-33.373069],[-70.607066,-33.372751],[-70.606873,-33.3727],[-70.606807,-33.372593],[-70.606868,-33.372431],[-70.60731,-33.372049],[-70.608009,-33.371717],[-70.608138,-33.371715],[-70.608454,-33.371496],[-70.608648,-33.371547],[-70.608793,-33.37246],[-70.608927,-33.372781],[-70.608933,-33.373104],[-70.609067,-33.373425],[-70.609074,-33.373801],[-70.609139,-33.373854],[-70.609077,-33.373963],[-70.608949,-33.373964],[-70.608695,-33.374129]]]}},{"type":"Feature","properties":{"clase":"Alto valor ecológico (bosque esclerófilo)","ha":0.04},"geometry":{"type":"Polygon","coordinates":[[[-70.609556,-33.396503],[-70.609427,-33.39645],[-70.609422,-33.396181],[-70.609291,-33.396022],[-70.609486,-33.396181],[-70.609556,-33.396503]]]}},{"type":"Feature","properties":{"clase":"Alto valor ecológico (bosque esclerófilo)","ha":0.03},"geometry":{"type":"Polygon","coordinates":[[[-70.610013,-33.396927],[-70.609885,-33.396929],[-70.609816,-33.396661],[-70.609945,-33.396713],[-70.610013,-33.396927]]]}},{"type":"Feature","properties":{"clase":"Alto valor ecológico (bosque esclerófilo)","ha":1.53},"geometry":{"type":"Polygon","coordinates":[[[-70.609778,-33.377236],[-70.609271,-33.377565],[-70.608694,-33.377573],[-70.608236,-33.377041],[-70.607915,-33.377045],[-70.607591,-33.376888],[-70.607524,-33.376727],[-70.608233,-33.376879],[-70.608679,-33.376712],[-70.609438,-33.376164],[-70.609566,-33.376163],[-70.609574,-33.376593],[-70.609643,-33.376861],[-70.609775,-33.377021],[-70.609778,-33.377236]]]}},{"type":"Feature","properties":{"clase":"Alto valor ecológico (bosque esclerófilo)","ha":12.6},"geometry":{"type":"Polygon","coordinates":[[[-70.609966,-33.380462],[-70.609905,-33.380624],[-70.609087,-33.381496],[-70.608644,-33.381825],[-70.608459,-33.382204],[-70.608013,-33.382371],[-70.60751,-33.382915],[-70.607253,-33.382919],[-70.60693,-33.382762],[-70.606673,-33.382765],[-70.606415,-33.382661],[-70.60603,-33.382666],[-70.605521,-33.382887],[-70.604954,-33.383433],[-70.604636,-33.383598],[-70.604512,-33.383815],[-70.604583,-33.384191],[-70.604459,-33.384408],[-70.604014,-33.384629],[-70.603761,-33.384847],[-70.603517,-33.385496],[-70.603075,-33.385879],[-70.602495,-33.385778],[-70.602494,-33.385671],[-70.602682,-33.385453],[-70.603125,-33.385125],[-70.603312,-33.384853],[-70.603881,-33.384361],[-70.604067,-33.384036],[-70.604193,-33.383927],[-70.604449,-33.38387],[-70.604445,-33.383655],[-70.604694,-33.383275],[-70.604691,-33.383113],[-70.604997,-33.382302],[-70.60499,-33.381926],[-70.604655,-33.381123],[-70.604324,-33.380589],[-70.604129,-33.38043],[-70.603471,-33.379524],[-70.603467,-33.379309],[-70.60314,-33.378936],[-70.603065,-33.378345],[-70.603903,-33.378604],[-70.604486,-33.378919],[-70.604748,-33.379185],[-70.604821,-33.379668],[-70.605537,-33.380251],[-70.605801,-33.380678],[-70.606124,-33.380781],[-70.606018,-33.38202],[-70.606278,-33.382178],[-70.607045,-33.38206],[-70.607678,-33.381568],[-70.607928,-33.381242],[-70.607924,-33.381027],[-70.60753,-33.380494],[-70.607075,-33.380177],[-70.6072,-33.380014],[-70.607585,-33.380009],[-70.607711,-33.3799],[-70.608032,-33.379895],[-70.60829,-33.38],[-70.60906,-33.37999],[-70.609705,-33.380197],[-70.609966,-33.380462]]]}},{"type":"Feature","properties":{"clase":"Alto valor ecológico (bosque esclerófilo)","ha":0.03},"geometry":{"type":"Polygon","coordinates":[[[-70.610532,-33.397243],[-70.61021,-33.39714],[-70.610209,-33.397086],[-70.610401,-33.397084],[-70.610532,-33.397243]]]}},{"type":"Feature","properties":{"clase":"Alto valor ecológico (bosque esclerófilo)","ha":0.02},"geometry":{"type":"Polygon","coordinates":[[[-70.610798,-33.397724],[-70.610675,-33.398049],[-70.610611,-33.398049],[-70.61067,-33.39778],[-70.610798,-33.397724]]]}},{"type":"Feature","properties":{"clase":"Alto valor ecológico (bosque esclerófilo)","ha":0.07},"geometry":{"type":"Polygon","coordinates":[[[-70.611458,-33.398738],[-70.611394,-33.398739],[-70.611326,-33.398524],[-70.611197,-33.398526],[-70.610873,-33.398315],[-70.610871,-33.398207],[-70.610999,-33.398206],[-70.611455,-33.398576],[-70.611458,-33.398738]]]}},{"type":"Feature","properties":{"clase":"Alto valor ecológico (bosque esclerófilo)","ha":20.23},"geometry":{"type":"Polygon","coordinates":[[[-70.611228,-33.407135],[-70.610843,-33.40714],[-70.610841,-33.407032],[-70.610648,-33.406981],[-70.610333,-33.407308],[-70.609882,-33.407206],[-70.609421,-33.406567],[-70.609417,-33.406351],[-70.609095,-33.406248],[-70.608833,-33.405982],[-70.60856,-33.405071],[-70.607713,-33.404383],[-70.607642,-33.404007],[-70.607766,-33.40379],[-70.608207,-33.403354],[-70.608192,-33.402547],[-70.608443,-33.402221],[-70.608436,-33.401844],[-70.608305,-33.401684],[-70.608301,-33.401469],[-70.608034,-33.400935],[-70.608026,-33.400504],[-70.608523,-33.399583],[-70.608908,-33.399632],[-70.609425,-33.39984],[-70.610258,-33.399776],[-70.610388,-33.399882],[-70.610394,-33.400205],[-70.61027,-33.400421],[-70.610349,-33.401227],[-70.610614,-33.401655],[-70.61133,-33.402237],[-70.611595,-33.402664],[-70.611663,-33.402879],[-70.611609,-33.403417],[-70.611424,-33.40385],[-70.611046,-33.404232],[-70.611054,-33.404662],[-70.611121,-33.404823],[-70.611317,-33.404982],[-70.611769,-33.405137],[-70.612032,-33.40551],[-70.612037,-33.405779],[-70.611534,-33.406324],[-70.611601,-33.406485],[-70.611544,-33.406862],[-70.611228,-33.407135]],[[-70.61011,-33.405643],[-70.610171,-33.405481],[-70.610041,-33.405375],[-70.609912,-33.405376],[-70.609851,-33.405539],[-70.609982,-33.405645],[-70.61011,-33.405643]],[[-70.610533,-33.404238],[-70.610531,-33.404131],[-70.610336,-33.403972],[-70.610207,-33.403974],[-70.610077,-33.403868],[-70.609821,-33.403871],[-70.609626,-33.403766],[-70.60937,-33.403769],[-70.609117,-33.403988],[-70.609184,-33.404148],[-70.609505,-33.404144],[-70.609567,-33.404036],[-70.609759,-33.404033],[-70.610019,-33.404191],[-70.610275,-33.404188],[-70.610342,-33.404295],[-70.610533,-33.404238]],[[-70.610517,-33.403378],[-70.610577,-33.403162],[-70.61032,-33.403111],[-70.610259,-33.403273],[-70.610389,-33.403379],[-70.610517,-33.403378]],[[-70.611031,-33.406869],[-70.611156,-33.406706],[-70.611215,-33.406436],[-70.611342,-33.40638],[-70.611207,-33.406005],[-70.611015,-33.406008],[-70.610949,-33.405901],[-70.61082,-33.405903],[-70.610694,-33.406012],[-70.610637,-33.406389],[-70.610897,-33.406601],[-70.610837,-33.406817],[-70.611031,-33.406869]]]}},{"type":"Feature","properties":{"clase":"Alto valor ecológico (bosque esclerófilo)","ha":0.08},"geometry":{"type":"Polygon","coordinates":[[[-70.61249,-33.399047],[-70.611847,-33.398948],[-70.611587,-33.39879],[-70.61178,-33.398788],[-70.611974,-33.398893],[-70.612295,-33.398888],[-70.61249,-33.399047]]]}},{"type":"Feature","properties":{"clase":"Alto valor ecológico (bosque esclerófilo)","ha":0.05},"geometry":{"type":"Polygon","coordinates":[[[-70.613526,-33.399572],[-70.613334,-33.399574],[-70.613139,-33.399469],[-70.613072,-33.399309],[-70.613266,-33.39936],[-70.613526,-33.399572]]]}},{"type":"Feature","properties":{"clase":"Alto valor ecológico (bosque esclerófilo)","ha":0.16},"geometry":{"type":"Polygon","coordinates":[[[-70.614959,-33.400737],[-70.614509,-33.400689],[-70.614184,-33.400424],[-70.61392,-33.400051],[-70.613918,-33.399944],[-70.613723,-33.399785],[-70.61372,-33.399623],[-70.613849,-33.399675],[-70.614508,-33.400635],[-70.614829,-33.400631],[-70.614959,-33.400737]]]}},{"type":"Feature","properties":{"clase":"Alto valor ecológico (bosque esclerófilo)","ha":0.07},"geometry":{"type":"Polygon","coordinates":[[[-70.615771,-33.402987],[-70.615641,-33.402934],[-70.615507,-33.402613],[-70.615564,-33.402236],[-70.615628,-33.402235],[-70.615638,-33.402773],[-70.615771,-33.402987]]]}},{"type":"Feature","properties":{"clase":"Alto valor ecológico (bosque esclerófilo)","ha":0.08},"geometry":{"type":"Polygon","coordinates":[[[-70.616933,-33.403402],[-70.616935,-33.403509],[-70.616809,-33.403619],[-70.616553,-33.403676],[-70.61655,-33.403514],[-70.616677,-33.403405],[-70.616933,-33.403402]]]}},{"type":"Feature","properties":{"clase":"Alto valor ecológico (bosque esclerófilo)","ha":0.03},"geometry":{"type":"Polygon","coordinates":[[[-70.62026,-33.39943],[-70.620134,-33.399593],[-70.619942,-33.399596],[-70.620131,-33.399432],[-70.62026,-33.39943]]]}},{"type":"Feature","properties":{"clase":"Alto valor ecológico (bosque esclerófilo)","ha":6.92},"geometry":{"type":"Polygon","coordinates":[[[-70.62057,-33.398888],[-70.620573,-33.39905],[-70.620383,-33.39916],[-70.620187,-33.399001],[-70.619417,-33.398957],[-70.618965,-33.398802],[-70.618644,-33.398806],[-70.617499,-33.399305],[-70.616996,-33.39985],[-70.616814,-33.400444],[-70.615865,-33.401156],[-70.615871,-33.401479],[-70.616,-33.401531],[-70.616006,-33.401853],[-70.615879,-33.401909],[-70.615882,-33.40207],[-70.615755,-33.402126],[-70.615936,-33.401532],[-70.615807,-33.401479],[-70.615804,-33.401318],[-70.615544,-33.40116],[-70.615352,-33.401162],[-70.615155,-33.400896],[-70.615153,-33.400788],[-70.615279,-33.400679],[-70.615264,-33.399872],[-70.615517,-33.399707],[-70.616019,-33.399055],[-70.616398,-33.398781],[-70.616646,-33.398294],[-70.617279,-33.397855],[-70.617662,-33.397742],[-70.618368,-33.397733],[-70.619017,-33.398155],[-70.62057,-33.398888]]]}},{"type":"Feature","properties":{"clase":"Alto valor ecológico (bosque esclerófilo)","ha":0.14},"geometry":{"type":"Polygon","coordinates":[[[-70.622643,-33.413766],[-70.622516,-33.413822],[-70.622066,-33.413774],[-70.622063,-33.413612],[-70.622189,-33.413503],[-70.62251,-33.413499],[-70.622643,-33.413766]]]}},{"type":"Feature","properties":{"clase":"Alto valor ecológico (bosque esclerófilo)","ha":0.09},"geometry":{"type":"Polygon","coordinates":[[[-70.623296,-33.41435],[-70.622844,-33.414194],[-70.622772,-33.413818],[-70.622901,-33.413817],[-70.622905,-33.414032],[-70.623296,-33.41435]]]}},{"type":"Feature","properties":{"clase":"Alto valor ecológico (bosque esclerófilo)","ha":0.27},"geometry":{"type":"Polygon","coordinates":[[[-70.624088,-33.415577],[-70.62396,-33.415578],[-70.623635,-33.415367],[-70.623567,-33.415153],[-70.623371,-33.41494],[-70.623497,-33.414831],[-70.623493,-33.414616],[-70.623753,-33.414774],[-70.623694,-33.415044],[-70.624084,-33.415362],[-70.624088,-33.415577]]]}},{"type":"Feature","properties":{"clase":"Alto valor ecológico (bosque esclerófilo)","ha":0.79},"geometry":{"type":"Polygon","coordinates":[[[-70.628961,-33.415351],[-70.628708,-33.41557],[-70.628322,-33.415521],[-70.628005,-33.415741],[-70.627813,-33.415743],[-70.627357,-33.415372],[-70.62646,-33.415438],[-70.626397,-33.415493],[-70.625562,-33.41545],[-70.62543,-33.41529],[-70.625425,-33.415021],[-70.625618,-33.415019],[-70.625687,-33.415287],[-70.625817,-33.415393],[-70.626523,-33.415383],[-70.62671,-33.415112],[-70.627096,-33.415161],[-70.627287,-33.415051],[-70.627415,-33.415049],[-70.627871,-33.41542],[-70.62832,-33.415414],[-70.628446,-33.415304],[-70.62864,-33.415356],[-70.62896,-33.415298],[-70.628961,-33.415351]]]}},{"type":"Feature","properties":{"clase":"Alto valor ecológico (bosque esclerófilo)","ha":0.28},"geometry":{"type":"Polygon","coordinates":[[[-70.631007,-33.415002],[-70.631008,-33.415055],[-70.63088,-33.415057],[-70.630555,-33.414846],[-70.630299,-33.41485],[-70.630172,-33.414959],[-70.62915,-33.415188],[-70.629211,-33.415025],[-70.629403,-33.414969],[-70.629462,-33.414699],[-70.62959,-33.414697],[-70.629722,-33.414911],[-70.630043,-33.414907],[-70.630297,-33.414742],[-70.630489,-33.414739],[-70.631007,-33.415002]]]}},{"type":"Feature","properties":{"clase":"Alto valor ecológico (bosque esclerófilo)","ha":0.68},"geometry":{"type":"Polygon","coordinates":[[[-70.63124,-33.413707],[-70.631245,-33.413976],[-70.630931,-33.414357],[-70.630739,-33.41436],[-70.630157,-33.414152],[-70.630154,-33.413991],[-70.630279,-33.413774],[-70.630594,-33.4135],[-70.63124,-33.413707]]]}},{"type":"Feature","properties":{"clase":"Alto valor ecológico (bosque esclerófilo)","ha":0.08},"geometry":{"type":"Polygon","coordinates":[[[-70.631662,-33.415693],[-70.631467,-33.415588],[-70.631139,-33.415161],[-70.631332,-33.415213],[-70.63166,-33.415585],[-70.631662,-33.415693]]]}},{"type":"Feature","properties":{"clase":"Alto valor ecológico (bosque esclerófilo)","ha":12.78},"geometry":{"type":"Polygon","coordinates":[[[-70.639513,-33.420324],[-70.639324,-33.420542],[-70.639067,-33.420492],[-70.63817,-33.420557],[-70.6381,-33.420289],[-70.636797,-33.41923],[-70.636468,-33.418804],[-70.636144,-33.418593],[-70.636015,-33.418595],[-70.635755,-33.418383],[-70.635751,-33.418168],[-70.635489,-33.417902],[-70.634783,-33.417911],[-70.634469,-33.418238],[-70.633889,-33.418138],[-70.633185,-33.418202],[-70.632605,-33.418102],[-70.632023,-33.41784],[-70.631694,-33.417414],[-70.631624,-33.417092],[-70.631427,-33.416879],[-70.630978,-33.416885],[-70.630661,-33.417051],[-70.630022,-33.417221],[-70.628419,-33.417296],[-70.628161,-33.417191],[-70.628158,-33.41703],[-70.628027,-33.41687],[-70.628342,-33.416597],[-70.628336,-33.416274],[-70.628589,-33.416056],[-70.628845,-33.416052],[-70.629104,-33.416157],[-70.630194,-33.416089],[-70.630447,-33.415924],[-70.630568,-33.415546],[-70.630761,-33.415543],[-70.631021,-33.415755],[-70.631221,-33.416129],[-70.631416,-33.416288],[-70.631609,-33.416285],[-70.631799,-33.416175],[-70.631728,-33.415799],[-70.632051,-33.415903],[-70.632369,-33.415737],[-70.632697,-33.416163],[-70.632966,-33.416805],[-70.633351,-33.4168],[-70.633416,-33.416853],[-70.633992,-33.416792],[-70.634188,-33.416951],[-70.634381,-33.417002],[-70.635087,-33.416993],[-70.635345,-33.417043],[-70.635993,-33.417411],[-70.636121,-33.41741],[-70.636579,-33.417888],[-70.636649,-33.418156],[-70.637892,-33.419431],[-70.63893,-33.420063],[-70.639445,-33.42011],[-70.639513,-33.420324]]]}},{"type":"Feature","properties":{"clase":"Alto valor ecológico (bosque esclerófilo)","ha":0.47},"geometry":{"type":"Polygon","coordinates":[[[-70.639531,-33.421293],[-70.639533,-33.4214],[-70.639218,-33.421727],[-70.639091,-33.421783],[-70.638449,-33.421791],[-70.638447,-33.421683],[-70.638638,-33.421573],[-70.638635,-33.421412],[-70.638951,-33.421139],[-70.639143,-33.421136],[-70.639531,-33.421293]]]}},{"type":"Feature","properties":{"clase":"Especies en categoría de conservación","ha":1.27},"geometry":{"type":"Polygon","coordinates":[[[-70.60095,-33.378426],[-70.600491,-33.377894],[-70.600488,-33.377733],[-70.600867,-33.377405],[-70.600989,-33.377081],[-70.601245,-33.377024],[-70.60144,-33.377183],[-70.60164,-33.37761],[-70.601902,-33.377876],[-70.601906,-33.378145],[-70.601333,-33.378368],[-70.60095,-33.378426]]]}},{"type":"Feature","properties":{"clase":"Especies en categoría de conservación","ha":2.82},"geometry":{"type":"Polygon","coordinates":[[[-70.602976,-33.370006],[-70.603041,-33.370059],[-70.602983,-33.370383],[-70.602546,-33.371034],[-70.602485,-33.37125],[-70.602233,-33.371468],[-70.601983,-33.371848],[-70.601605,-33.372176],[-70.601474,-33.37207],[-70.601143,-33.371483],[-70.601069,-33.370945],[-70.601754,-33.369807],[-70.60201,-33.369803],[-70.602976,-33.370006]]]}},{"type":"Feature","properties":{"clase":"Especies en categoría de conservación","ha":0.98},"geometry":{"type":"Polygon","coordinates":[[[-70.605843,-33.39343],[-70.605652,-33.393486],[-70.605458,-33.393381],[-70.605072,-33.393332],[-70.604745,-33.393014],[-70.604674,-33.392638],[-70.60493,-33.392581],[-70.604992,-33.392472],[-70.60531,-33.39236],[-70.605696,-33.392409],[-70.605832,-33.392838],[-70.605843,-33.39343]]]}},{"type":"Feature","properties":{"clase":"Especies en categoría de conservación","ha":1.61},"geometry":{"type":"Polygon","coordinates":[[[-70.607143,-33.380391],[-70.607338,-33.38055],[-70.607733,-33.381083],[-70.607735,-33.381191],[-70.607484,-33.381517],[-70.606978,-33.3819],[-70.606339,-33.382016],[-70.606203,-33.381587],[-70.606257,-33.381048],[-70.606575,-33.380883],[-70.60695,-33.380394],[-70.607143,-33.380391]]]}},{"type":"Feature","properties":{"clase":"Especies en categoría de conservación","ha":1.58},"geometry":{"type":"Polygon","coordinates":[[[-70.6088,-33.411148],[-70.608608,-33.411151],[-70.608346,-33.410885],[-70.608009,-33.410029],[-70.607878,-33.409869],[-70.607936,-33.409545],[-70.608385,-33.40954],[-70.608832,-33.409426],[-70.609025,-33.409424],[-70.609155,-33.40953],[-70.609158,-33.409691],[-70.608844,-33.410072],[-70.608848,-33.410287],[-70.609235,-33.410389],[-70.609304,-33.410658],[-70.6088,-33.411148]]]}},{"type":"Feature","properties":{"clase":"Especies en categoría de conservación","ha":1.93},"geometry":{"type":"Polygon","coordinates":[[[-70.613424,-33.407914],[-70.613298,-33.408023],[-70.613103,-33.407918],[-70.61259,-33.407924],[-70.612271,-33.408036],[-70.611879,-33.407665],[-70.611736,-33.406859],[-70.611863,-33.40675],[-70.612503,-33.406688],[-70.613598,-33.406943],[-70.6136,-33.40705],[-70.613349,-33.407323],[-70.613424,-33.407914]]]}},{"type":"Feature","properties":{"clase":"Especies en categoría de conservación","ha":1.41},"geometry":{"type":"Polygon","coordinates":[[[-70.61426,-33.401069],[-70.614004,-33.401126],[-70.61375,-33.401291],[-70.613367,-33.40135],[-70.613304,-33.401458],[-70.613049,-33.401515],[-70.612595,-33.401252],[-70.612588,-33.400876],[-70.612714,-33.400766],[-70.61297,-33.400709],[-70.612965,-33.40044],[-70.613091,-33.400331],[-70.613732,-33.400269],[-70.614256,-33.400854],[-70.61426,-33.401069]]]}},{"type":"Feature","properties":{"clase":"Especies en categoría de conservación","ha":1.36},"geometry":{"type":"Polygon","coordinates":[[[-70.617572,-33.403286],[-70.616225,-33.40325],[-70.61596,-33.402823],[-70.615956,-33.402607],[-70.616212,-33.40255],[-70.616338,-33.402441],[-70.616977,-33.402325],[-70.617232,-33.402214],[-70.617629,-33.402855],[-70.617572,-33.403286]]]}},{"type":"Feature","properties":{"clase":"Especies en categoría de conservación","ha":0.96},"geometry":{"type":"Polygon","coordinates":[[[-70.618373,-33.404944],[-70.618117,-33.404947],[-70.617793,-33.40479],[-70.617777,-33.403929],[-70.617838,-33.403767],[-70.618416,-33.403813],[-70.618612,-33.403972],[-70.61869,-33.404724],[-70.618373,-33.404944]]]}},{"type":"Feature","properties":{"clase":"Especies en categoría de conservación","ha":4.38},"geometry":{"type":"Polygon","coordinates":[[[-70.618749,-33.411396],[-70.618236,-33.411402],[-70.617527,-33.411196],[-70.617132,-33.410663],[-70.617128,-33.410448],[-70.617447,-33.410336],[-70.617886,-33.409793],[-70.617872,-33.40904],[-70.618126,-33.408929],[-70.618832,-33.408919],[-70.619219,-33.409022],[-70.619546,-33.409394],[-70.619569,-33.410632],[-70.619507,-33.41074],[-70.618933,-33.410909],[-70.618876,-33.411286],[-70.618749,-33.411396]]]}},{"type":"Feature","properties":{"clase":"Especies en categoría de conservación","ha":0.37},"geometry":{"type":"Polygon","coordinates":[[[-70.624346,-33.419071],[-70.624476,-33.419177],[-70.624423,-33.419769],[-70.624361,-33.419878],[-70.624169,-33.41988],[-70.623908,-33.419669],[-70.623963,-33.419184],[-70.624089,-33.419074],[-70.624346,-33.419071]]]}},{"type":"Feature","properties":{"clase":"Árboles patrimoniales","ha":0.1},"geometry":{"type":"Polygon","coordinates":[[[-70.608242,-33.398295],[-70.608114,-33.398297],[-70.607984,-33.398191],[-70.60798,-33.397976],[-70.6083,-33.397972],[-70.608305,-33.398241],[-70.608242,-33.398295]]]}},{"type":"Feature","properties":{"clase":"Árboles patrimoniales","ha":0.04},"geometry":{"type":"Polygon","coordinates":[[[-70.63126,-33.418227],[-70.631067,-33.418176],[-70.631063,-33.41796],[-70.631191,-33.417959],[-70.63126,-33.418227]]]}}]}