{"type":"FeatureCollection","properties":{"fuente":"Acta Participación Ciudadana – Restauración Ladera, 24.09.2026 (Parquemet). Digitalizado de la lámina, precisión aprox. ±15 m","lamina":23,"capa":"nucleos"},"features":[{"type":"Feature","properties":{"clase":"Núcleo de restauración nativa","ha":0.23},"geometry":{"type":"Polygon","coordinates":[[[-70.605873,-33.405453],[-70.605773,-33.405511],[-70.605533,-33.405316],[-70.605532,-33.40526],[-70.605429,-33.405148],[-70.605295,-33.40515],[-70.605195,-33.405236],[-70.605094,-33.405237],[-70.605023,-33.405012],[-70.605055,-33.404927],[-70.605256,-33.404868],[-70.605458,-33.404894],[-70.605596,-33.405033],[-70.6057,-33.405229],[-70.605837,-33.405341],[-70.605873,-33.405453]]]}},{"type":"Feature","properties":{"clase":"Núcleo de restauración nativa","ha":0.09},"geometry":{"type":"Polygon","coordinates":[[[-70.606748,-33.409114],[-70.606579,-33.40906],[-70.606439,-33.408779],[-70.606471,-33.408694],[-70.606605,-33.408664],[-70.606708,-33.408747],[-70.606712,-33.408945],[-70.606781,-33.409029],[-70.606748,-33.409114]]]}},{"type":"Feature","properties":{"clase":"Núcleo de restauración nativa","ha":0.06},"geometry":{"type":"Polygon","coordinates":[[[-70.609869,-33.410316],[-70.609803,-33.410374],[-70.609702,-33.410375],[-70.609632,-33.410235],[-70.609564,-33.410207],[-70.609563,-33.410151],[-70.60973,-33.410092],[-70.609833,-33.410204],[-70.609869,-33.410316]]]}},{"type":"Feature","properties":{"clase":"Núcleo de restauración nativa","ha":0.12},"geometry":{"type":"Polygon","coordinates":[[[-70.610041,-33.405032],[-70.609872,-33.405006],[-70.609869,-33.404808],[-70.609902,-33.404779],[-70.609862,-33.404469],[-70.609895,-33.404412],[-70.610064,-33.404467],[-70.610074,-33.405003],[-70.610041,-33.405032]]]}},{"type":"Feature","properties":{"clase":"Núcleo de restauración nativa","ha":0.14},"geometry":{"type":"Polygon","coordinates":[[[-70.610853,-33.403411],[-70.610382,-33.403417],[-70.610314,-33.40339],[-70.610278,-33.403277],[-70.610343,-33.403135],[-70.610443,-33.403078],[-70.610612,-33.403104],[-70.61068,-33.403159],[-70.610716,-33.403272],[-70.610852,-33.403355],[-70.610853,-33.403411]]]}},{"type":"Feature","properties":{"clase":"Núcleo de restauración nativa","ha":0.04},"geometry":{"type":"Polygon","coordinates":[[[-70.611013,-33.406573],[-70.610845,-33.406603],[-70.610776,-33.406519],[-70.610774,-33.406406],[-70.610976,-33.406432],[-70.611013,-33.406573]]]}},{"type":"Feature","properties":{"clase":"Núcleo de restauración nativa","ha":0.14},"geometry":{"type":"Polygon","coordinates":[[[-70.611041,-33.40629],[-70.610772,-33.406294],[-70.610769,-33.406152],[-70.610834,-33.40601],[-70.610798,-33.405898],[-70.610829,-33.405728],[-70.61093,-33.405727],[-70.611032,-33.40581],[-70.611037,-33.406092],[-70.611072,-33.40612],[-70.611074,-33.406261],[-70.611041,-33.40629]]]}},{"type":"Feature","properties":{"clase":"Núcleo de restauración nativa","ha":0.08},"geometry":{"type":"Polygon","coordinates":[[[-70.615574,-33.403745],[-70.615472,-33.403662],[-70.615433,-33.40338],[-70.615363,-33.403268],[-70.615396,-33.403183],[-70.615463,-33.403182],[-70.615566,-33.403322],[-70.615639,-33.403603],[-70.615574,-33.403745]]]}},{"type":"Feature","properties":{"clase":"Núcleo de restauración nativa","ha":0.22},"geometry":{"type":"Polygon","coordinates":[[[-70.616337,-33.404894],[-70.616302,-33.404866],[-70.616291,-33.404244],[-70.61639,-33.404158],[-70.616491,-33.404157],[-70.616628,-33.404268],[-70.616636,-33.404692],[-70.616471,-33.404864],[-70.616337,-33.404894]]]}},{"type":"Feature","properties":{"clase":"Núcleo de restauración nativa","ha":0.14},"geometry":{"type":"Polygon","coordinates":[[[-70.617116,-33.403358],[-70.617118,-33.403471],[-70.616954,-33.403671],[-70.616819,-33.403673],[-70.616648,-33.403534],[-70.616646,-33.403421],[-70.616779,-33.403306],[-70.616981,-33.403303],[-70.617116,-33.403358]]]}},{"type":"Feature","properties":{"clase":"Núcleo de restauración nativa","ha":0.08},"geometry":{"type":"Polygon","coordinates":[[[-70.617302,-33.411547],[-70.617269,-33.411576],[-70.617133,-33.411549],[-70.616828,-33.411412],[-70.61669,-33.411273],[-70.616689,-33.411188],[-70.616893,-33.41127],[-70.617097,-33.411409],[-70.617165,-33.411408],[-70.617233,-33.411492],[-70.617301,-33.411491],[-70.617302,-33.411547]]]}},{"type":"Feature","properties":{"clase":"Núcleo de restauración nativa","ha":0.15},"geometry":{"type":"Polygon","coordinates":[[[-70.618976,-33.411017],[-70.619013,-33.411186],[-70.618947,-33.411243],[-70.618882,-33.411414],[-70.618783,-33.4115],[-70.618513,-33.411475],[-70.618478,-33.411391],[-70.618644,-33.411276],[-70.618642,-33.411191],[-70.618808,-33.411047],[-70.618976,-33.411017]]]}},{"type":"Feature","properties":{"clase":"Núcleo de restauración nativa","ha":0.42},"geometry":{"type":"Polygon","coordinates":[[[-70.626342,-33.421315],[-70.626276,-33.421373],[-70.626006,-33.421376],[-70.625973,-33.421405],[-70.625703,-33.42138],[-70.625665,-33.421127],[-70.625527,-33.420931],[-70.625524,-33.420818],[-70.625926,-33.4207],[-70.626062,-33.420754],[-70.626199,-33.420865],[-70.626342,-33.421315]]]}},{"type":"Feature","properties":{"clase":"Núcleo de restauración nativa","ha":0.16},"geometry":{"type":"Polygon","coordinates":[[[-70.627747,-33.415393],[-70.62758,-33.415452],[-70.627375,-33.415314],[-70.627039,-33.415318],[-70.626971,-33.415291],[-70.626969,-33.415206],[-70.627137,-33.415175],[-70.627371,-33.415059],[-70.627505,-33.415058],[-70.627541,-33.41517],[-70.627746,-33.415337],[-70.627747,-33.415393]]]}},{"type":"Feature","properties":{"clase":"Núcleo de restauración nativa","ha":0.23},"geometry":{"type":"Polygon","coordinates":[[[-70.628974,-33.41614],[-70.628946,-33.416423],[-70.62888,-33.416508],[-70.628443,-33.416542],[-70.628374,-33.416487],[-70.628404,-33.41626],[-70.628537,-33.416202],[-70.628669,-33.416059],[-70.628838,-33.416057],[-70.628974,-33.41614]]]}},{"type":"Feature","properties":{"clase":"Núcleo de restauración nativa","ha":0.35},"geometry":{"type":"Polygon","coordinates":[[[-70.630088,-33.423498],[-70.629886,-33.4235],[-70.629719,-33.423559],[-70.629618,-33.423561],[-70.629549,-33.423505],[-70.629507,-33.423025],[-70.629473,-33.422997],[-70.629505,-33.422912],[-70.63001,-33.422934],[-70.630079,-33.423018],[-70.630088,-33.423498]]]}},{"type":"Feature","properties":{"clase":"Núcleo de restauración nativa","ha":0.34},"geometry":{"type":"Polygon","coordinates":[[[-70.632521,-33.418494],[-70.632288,-33.418667],[-70.632087,-33.418698],[-70.631984,-33.418614],[-70.631679,-33.418477],[-70.631641,-33.41828],[-70.631706,-33.418138],[-70.631772,-33.418081],[-70.631941,-33.418107],[-70.632486,-33.41841],[-70.632521,-33.418494]]]}},{"type":"Feature","properties":{"clase":"Núcleo de restauración nativa","ha":0.23},"geometry":{"type":"Polygon","coordinates":[[[-70.635464,-33.422749],[-70.635262,-33.422752],[-70.635025,-33.422698],[-70.63499,-33.422642],[-70.634984,-33.422303],[-70.635017,-33.422275],[-70.635185,-33.422244],[-70.635422,-33.422298],[-70.635494,-33.422579],[-70.635497,-33.42272],[-70.635464,-33.422749]]]}}]}