{"type":"FeatureCollection","features":[{"type":"Feature","properties":{"ruta":"r1","fuente":"Georuta1_v2 (ArcGIS Online, Unidad de Geopatrimonio)"},"geometry":{"type":"LineString","coordinates":[[-70.636085,-33.429708],[-70.636017,-33.429635],[-70.636003,-33.429594],[-70.636006,-33.429574],[-70.636019,-33.429555],[-70.636056,-33.429516],[-70.636097,-33.429477],[-70.636148,-33.429439],[-70.636212,-33.429407],[-70.63628,-33.429381],[-70.636346,-33.429359],[-70.636418,-33.429335],[-70.636507,-33.429306],[-70.636594,-33.429277],[-70.636663,-33.429255],[-70.636719,-33.429228],[-70.63677,-33.42919],[-70.636899,-33.429038],[-70.636949,-33.428961],[-70.636986,-33.428909],[-70.637041,-33.428842],[-70.637105,-33.428774],[-70.637193,-33.428691],[-70.637316,-33.42859],[-70.637419,-33.428531],[-70.63757,-33.428441],[-70.637794,-33.428327],[-70.637902,-33.428257],[-70.637984,-33.428211],[-70.638072,-33.428164],[-70.638154,-33.428114],[-70.638211,-33.428087],[-70.638228,-33.428049],[-70.638237,-33.427979],[-70.638232,-33.427941],[-70.638188,-33.427896],[-70.638115,-33.427835],[-70.638052,-33.427788],[-70.638009,-33.427762],[-70.637978,-33.42772],[-70.637967,-33.427703],[-70.637963,-33.427681],[-70.637961,-33.427652],[-70.637956,-33.427615],[-70.637942,-33.427526],[-70.637924,-33.427428],[-70.637907,-33.427333],[-70.637902,-33.427308],[-70.637895,-33.427279],[-70.637876,-33.427207],[-70.637853,-33.427126],[-70.637828,-33.427043],[-70.637805,-33.426963],[-70.637784,-33.426895],[-70.63777,-33.426845],[-70.637766,-33.426829],[-70.637765,-33.426824],[-70.637765,-33.426822],[-70.637765,-33.426821],[-70.637764,-33.426819],[-70.637764,-33.426817],[-70.637762,-33.426811],[-70.637757,-33.426794],[-70.637737,-33.426739],[-70.637709,-33.426665],[-70.637676,-33.426618],[-70.637626,-33.426596],[-70.637574,-33.426568],[-70.637566,-33.426506],[-70.637597,-33.426429],[-70.637603,-33.42636],[-70.637598,-33.42634],[-70.637597,-33.426333],[-70.637597,-33.426328],[-70.637598,-33.426323],[-70.637598,-33.426317],[-70.637597,-33.426301],[-70.63759,-33.426257],[-70.637566,-33.426132],[-70.637551,-33.42606],[-70.637535,-33.425986],[-70.637518,-33.425915],[-70.637504,-33.425851],[-70.637487,-33.425784],[-70.637478,-33.425701],[-70.637464,-33.425621],[-70.637447,-33.425525],[-70.637429,-33.42545],[-70.637417,-33.42537],[-70.637411,-33.425308],[-70.63741,-33.425239],[-70.637388,-33.425151],[-70.637358,-33.425086],[-70.637333,-33.424992],[-70.637306,-33.424901],[-70.637282,-33.42482],[-70.637272,-33.424786],[-70.637265,-33.424758],[-70.637262,-33.424746],[-70.63726,-33.424737],[-70.637259,-33.42473],[-70.637259,-33.424727],[-70.637259,-33.424725],[-70.637259,-33.42472],[-70.637258,-33.424714],[-70.637254,-33.424699],[-70.637242,-33.424656],[-70.637179,-33.424546],[-70.63713,-33.424451],[-70.637102,-33.424397],[-70.637078,-33.424339],[-70.637042,-33.424269],[-70.637003,-33.424168],[-70.636927,-33.424079],[-70.636862,-33.423997],[-70.636786,-33.423898],[-70.636748,-33.423844],[-70.636726,-33.423808],[-70.636693,-33.423763],[-70.636664,-33.423718],[-70.636586,-33.423626],[-70.636503,-33.423552],[-70.63645,-33.423507],[-70.636385,-33.423455],[-70.636338,-33.423389],[-70.636307,-33.423341],[-70.636272,-33.423276],[-70.636259,-33.423186],[-70.636249,-33.423116],[-70.636248,-33.423056],[-70.636252,-33.422955],[-70.636258,-33.422898],[-70.636271,-33.422838],[-70.636278,-33.422763],[-70.636322,-33.42267],[-70.636363,-33.422599],[-70.636408,-33.42252],[-70.636441,-33.422453],[-70.636497,-33.422381],[-70.636546,-33.422328],[-70.636616,-33.422271],[-70.636696,-33.422226],[-70.636738,-33.42221],[-70.63687,-33.422171],[-70.636984,-33.422132],[-70.637077,-33.422078],[-70.637146,-33.422034],[-70.637242,-33.421972],[-70.637336,-33.42191],[-70.637411,-33.42183],[-70.637485,-33.421738],[-70.637524,-33.421687],[-70.637546,-33.421637],[-70.637564,-33.421547],[-70.637575,-33.421446],[-70.637575,-33.421357],[-70.637563,-33.421297],[-70.637575,-33.421212],[-70.637586,-33.421138],[-70.637617,-33.421052],[-70.637651,-33.420982],[-70.637683,-33.420911],[-70.637719,-33.420851],[-70.637743,-33.420806],[-70.637763,-33.420772],[-70.637802,-33.420723],[-70.637853,-33.420674],[-70.637898,-33.420634],[-70.637936,-33.420602],[-70.637965,-33.420565],[-70.637979,-33.420529],[-70.637993,-33.420453],[-70.63805,-33.420409],[-70.638069,-33.420394],[-70.638082,-33.420382],[-70.638092,-33.42037],[-70.638099,-33.420361],[-70.638102,-33.420353],[-70.638102,-33.420346],[-70.6381,-33.420341],[-70.638097,-33.420337],[-70.638086,-33.42033],[-70.638073,-33.420326],[-70.638061,-33.420323],[-70.638058,-33.420322],[-70.638056,-33.420321],[-70.638055,-33.42032],[-70.638055,-33.42032],[-70.638055,-33.420319],[-70.638053,-33.420318],[-70.638047,-33.420313],[-70.638038,-33.420306],[-70.638027,-33.420298],[-70.637965,-33.420252],[-70.637889,-33.420198],[-70.637819,-33.420149],[-70.637791,-33.420128],[-70.637769,-33.420109],[-70.637732,-33.420074],[-70.637698,-33.42004],[-70.637678,-33.420023],[-70.637654,-33.420006],[-70.637625,-33.419988],[-70.637591,-33.41997],[-70.637517,-33.419933],[-70.637448,-33.419895],[-70.637419,-33.419876],[-70.637399,-33.419856],[-70.637354,-33.419813],[-70.637299,-33.419768],[-70.637248,-33.419726],[-70.63722,-33.419698],[-70.637193,-33.419663],[-70.637145,-33.419609],[-70.637071,-33.419556],[-70.636954,-33.419473],[-70.63688,-33.419427],[-70.636828,-33.41939],[-70.636715,-33.419303],[-70.63666,-33.419259],[-70.636606,-33.419171],[-70.636555,-33.419102],[-70.63649,-33.419013],[-70.636426,-33.418924],[-70.636373,-33.418885],[-70.636288,-33.418838],[-70.636181,-33.418816],[-70.636076,-33.418808],[-70.635979,-33.41882],[-70.635915,-33.418843],[-70.635862,-33.418875],[-70.635791,-33.418943],[-70.63576,-33.418992],[-70.635701,-33.419041],[-70.635624,-33.41907],[-70.635534,-33.419087],[-70.635443,-33.419085],[-70.635344,-33.41908],[-70.635262,-33.419057],[-70.635159,-33.419025],[-70.635038,-33.418938],[-70.634905,-33.418844],[-70.634806,-33.418791],[-70.634703,-33.418731],[-70.634639,-33.418686],[-70.634605,-33.418634],[-70.634532,-33.418568],[-70.634459,-33.418501],[-70.634385,-33.418435],[-70.634291,-33.418395],[-70.634174,-33.418376],[-70.634051,-33.418355],[-70.633931,-33.418335],[-70.633836,-33.418324],[-70.633715,-33.418337],[-70.633603,-33.41836],[-70.633502,-33.418371],[-70.633343,-33.418368],[-70.63323,-33.418363],[-70.633104,-33.418352],[-70.632939,-33.418325],[-70.632709,-33.418276],[-70.632546,-33.41823],[-70.632436,-33.41819],[-70.632361,-33.418152],[-70.632274,-33.418127],[-70.632198,-33.418095],[-70.632135,-33.418063],[-70.632073,-33.418023],[-70.632017,-33.417977],[-70.631974,-33.417913],[-70.631863,-33.4178],[-70.631794,-33.417708],[-70.631729,-33.417604],[-70.631655,-33.417488],[-70.631588,-33.417358],[-70.631554,-33.417256],[-70.631519,-33.417175],[-70.631484,-33.417119],[-70.631434,-33.417085],[-70.631366,-33.41706],[-70.631274,-33.417054],[-70.631203,-33.417065],[-70.63109,-33.417108],[-70.630949,-33.417163],[-70.630803,-33.417213],[-70.630668,-33.417266],[-70.630526,-33.417311],[-70.630397,-33.41734],[-70.630265,-33.417366],[-70.630075,-33.417391],[-70.629939,-33.417414],[-70.62982,-33.417432],[-70.629713,-33.417444],[-70.629617,-33.417448],[-70.629479,-33.417439],[-70.629363,-33.417441],[-70.629265,-33.417438],[-70.62912,-33.417434],[-70.629024,-33.417426],[-70.628898,-33.417438],[-70.628786,-33.417451],[-70.628668,-33.417474],[-70.628505,-33.417512],[-70.6284,-33.417531],[-70.628293,-33.417549],[-70.628196,-33.41755],[-70.628058,-33.417533],[-70.627949,-33.417514],[-70.627845,-33.417481],[-70.627735,-33.417449],[-70.627603,-33.417407],[-70.627551,-33.417406],[-70.627484,-33.417375],[-70.627311,-33.417324],[-70.627098,-33.417278],[-70.626934,-33.417234],[-70.626725,-33.41719],[-70.626532,-33.417133],[-70.626381,-33.417096],[-70.626185,-33.417034],[-70.626079,-33.417003],[-70.625986,-33.416997],[-70.62583,-33.417019],[-70.625656,-33.417047],[-70.62545,-33.417078],[-70.625396,-33.417091],[-70.625351,-33.417131],[-70.625286,-33.417111],[-70.625233,-33.417113],[-70.625177,-33.417096],[-70.625058,-33.417049],[-70.624995,-33.417006],[-70.624862,-33.416931],[-70.624736,-33.416856],[-70.624661,-33.416808],[-70.624592,-33.416746],[-70.624523,-33.416655],[-70.624475,-33.416581],[-70.62443,-33.416544],[-70.624398,-33.416526],[-70.624441,-33.416476],[-70.624412,-33.416453],[-70.624317,-33.416387],[-70.624213,-33.416337],[-70.624144,-33.416297],[-70.62402,-33.416234],[-70.623961,-33.416202],[-70.623884,-33.416179],[-70.623704,-33.416143],[-70.623553,-33.416117],[-70.62344,-33.416099],[-70.623326,-33.416074],[-70.62324,-33.416062],[-70.62314,-33.416045],[-70.623009,-33.416024],[-70.62292,-33.416002],[-70.622975,-33.41595]]}}]}