{"type":"FeatureCollection","features":[{"type":"Feature","properties":{"ruta":"r2","distancia_m":2854,"fuente":"Calculada a pie por caminos de OpenStreetMap (OSRM) entre los geositios; no es el trazado oficial"},"geometry":{"type":"LineString","coordinates":[[-70.633281,-33.425501],[-70.633281,-33.425501],[-70.633292,-33.425547],[-70.63327,-33.425577],[-70.633273,-33.425591],[-70.633281,-33.425616],[-70.63318,-33.425634],[-70.633185,-33.425657],[-70.633071,-33.42566],[-70.633073,-33.42569],[-70.633075,-33.425719],[-70.633074,-33.425725],[-70.63308,-33.425756],[-70.63309,-33.425807],[-70.633088,-33.425843],[-70.63309,-33.425868],[-70.633089,-33.425894],[-70.633091,-33.42592],[-70.633088,-33.425952],[-70.633092,-33.425976],[-70.633095,-33.425995],[-70.633098,-33.426018],[-70.633139,-33.42607],[-70.633153,-33.426086],[-70.633166,-33.426102],[-70.633223,-33.426177],[-70.633252,-33.426179],[-70.633272,-33.42618],[-70.633257,-33.426223],[-70.632927,-33.426186],[-70.632687,-33.426092],[-70.632451,-33.42599],[-70.632435,-33.426006],[-70.632382,-33.426023],[-70.632249,-33.425906],[-70.632158,-33.425783],[-70.632083,-33.425686],[-70.632056,-33.425627],[-70.631993,-33.425436],[-70.631986,-33.425209],[-70.631978,-33.425004],[-70.632023,-33.424753],[-70.632051,-33.424634],[-70.63215,-33.424406],[-70.632247,-33.424248],[-70.632291,-33.42415],[-70.632364,-33.423971],[-70.632386,-33.42391],[-70.632405,-33.423803],[-70.632434,-33.423772],[-70.632479,-33.42375],[-70.63256,-33.423744],[-70.632679,-33.42383],[-70.632734,-33.423731],[-70.632714,-33.42364],[-70.632637,-33.423487],[-70.632588,-33.423332],[-70.632582,-33.423307],[-70.632574,-33.423276],[-70.632564,-33.423243],[-70.632481,-33.423253],[-70.632384,-33.423152],[-70.632323,-33.42315],[-70.632316,-33.423037],[-70.632319,-33.42303],[-70.632344,-33.423029],[-70.632344,-33.423013],[-70.632343,-33.423004],[-70.63231,-33.423005],[-70.632309,-33.422972],[-70.632281,-33.422952],[-70.632222,-33.422945],[-70.632199,-33.422931],[-70.632192,-33.42294],[-70.63212,-33.4228],[-70.632082,-33.422726],[-70.632027,-33.422614],[-70.631996,-33.422541],[-70.631862,-33.422332],[-70.631815,-33.422264],[-70.631527,-33.422003],[-70.631344,-33.421716],[-70.631248,-33.421624],[-70.631068,-33.421439],[-70.630902,-33.42131],[-70.630618,-33.42133],[-70.630374,-33.421352],[-70.630237,-33.421375],[-70.63015,-33.421427],[-70.629941,-33.421316],[-70.629603,-33.421158],[-70.629176,-33.42086],[-70.629147,-33.420822],[-70.62908,-33.420794],[-70.629021,-33.420765],[-70.628975,-33.420725],[-70.628905,-33.42068],[-70.628846,-33.420646],[-70.628787,-33.420604],[-70.628704,-33.420543],[-70.628626,-33.420534],[-70.628551,-33.420561],[-70.628524,-33.420579],[-70.628519,-33.420615],[-70.628508,-33.420651],[-70.628452,-33.420678],[-70.62839,-33.420696],[-70.628305,-33.420713],[-70.628267,-33.420716],[-70.628251,-33.420774],[-70.628187,-33.420834],[-70.628101,-33.420893],[-70.628066,-33.420913],[-70.628028,-33.420949],[-70.627993,-33.420989],[-70.627942,-33.421043],[-70.627932,-33.421072],[-70.627878,-33.421094],[-70.627838,-33.421132],[-70.627784,-33.421175],[-70.627768,-33.421219],[-70.627733,-33.421255],[-70.627701,-33.421273],[-70.627658,-33.421329],[-70.627631,-33.421349],[-70.6276,-33.4214],[-70.627548,-33.421381],[-70.627473,-33.421345],[-70.627401,-33.421284],[-70.627376,-33.421271],[-70.62732,-33.421219],[-70.627253,-33.421184],[-70.627205,-33.421172],[-70.627154,-33.421146],[-70.626982,-33.421005],[-70.626805,-33.420875],[-70.626714,-33.420796],[-70.626593,-33.420687],[-70.626489,-33.420601],[-70.626296,-33.420398],[-70.626129,-33.420272],[-70.625968,-33.420145],[-70.625909,-33.420073],[-70.625866,-33.420008],[-70.625786,-33.419908],[-70.625722,-33.419845],[-70.625649,-33.419758],[-70.625569,-33.419668],[-70.625464,-33.41957],[-70.625392,-33.4195],[-70.625299,-33.419425],[-70.625216,-33.419338],[-70.625199,-33.419284],[-70.625174,-33.419243],[-70.625174,-33.419201],[-70.625153,-33.419175],[-70.625096,-33.419158],[-70.625112,-33.419068],[-70.625136,-33.418992],[-70.625181,-33.418831],[-70.625305,-33.41864],[-70.625596,-33.418363],[-70.625934,-33.418104],[-70.626064,-33.418005],[-70.626209,-33.417941],[-70.626239,-33.41793],[-70.626288,-33.417926],[-70.626567,-33.417925],[-70.626904,-33.417942],[-70.626995,-33.417947],[-70.627161,-33.417962],[-70.627335,-33.417997],[-70.627487,-33.418041],[-70.627553,-33.418069],[-70.627677,-33.418139],[-70.627815,-33.418204],[-70.627944,-33.418267],[-70.628068,-33.418324],[-70.628187,-33.418341],[-70.62821,-33.418336],[-70.628302,-33.418318],[-70.628417,-33.418291],[-70.628593,-33.418282],[-70.628672,-33.418286],[-70.628787,-33.418289],[-70.62884,-33.41825],[-70.628868,-33.418207],[-70.628861,-33.418164],[-70.628825,-33.418119],[-70.628752,-33.418106],[-70.628613,-33.418102],[-70.628497,-33.418125],[-70.628374,-33.418172],[-70.628224,-33.418205],[-70.628099,-33.418208],[-70.627988,-33.418172],[-70.6279,-33.418124],[-70.627826,-33.418082],[-70.627701,-33.418008],[-70.627528,-33.417919],[-70.627348,-33.417851],[-70.627188,-33.417803],[-70.626421,-33.417575],[-70.626159,-33.417474],[-70.625998,-33.417418],[-70.62592,-33.417408],[-70.625814,-33.417425],[-70.625651,-33.417492],[-70.62542,-33.417546],[-70.625297,-33.417577],[-70.6252,-33.417586],[-70.625077,-33.417584],[-70.625037,-33.417566],[-70.624961,-33.417532],[-70.624825,-33.417389],[-70.624695,-33.417262],[-70.624413,-33.416984],[-70.624126,-33.416716],[-70.624062,-33.416645],[-70.624009,-33.416598],[-70.623928,-33.416558],[-70.623863,-33.416542],[-70.623791,-33.416536],[-70.623686,-33.416542],[-70.62362,-33.416575],[-70.623567,-33.416606],[-70.623535,-33.416649],[-70.62352,-33.416691],[-70.623513,-33.416737],[-70.623497,-33.416789],[-70.623485,-33.41682],[-70.623467,-33.416859],[-70.623445,-33.416878],[-70.623396,-33.416889],[-70.623351,-33.41689],[-70.62332,-33.416876],[-70.623292,-33.416861],[-70.623267,-33.416845],[-70.623246,-33.416828],[-70.623222,-33.416803],[-70.623154,-33.416719],[-70.623081,-33.416607],[-70.623057,-33.416565],[-70.622999,-33.416413],[-70.623029,-33.416404],[-70.623054,-33.416374],[-70.623075,-33.416266],[-70.623108,-33.416179],[-70.623119,-33.416149],[-70.623095,-33.416131],[-70.623067,-33.416111],[-70.623052,-33.416101],[-70.623112,-33.416092],[-70.623198,-33.416077],[-70.622985,-33.416031],[-70.622975,-33.416016],[-70.623433,-33.416105],[-70.62374,-33.416155]]}}]}