{"type":"FeatureCollection","properties":{},"features":[{"type":"Feature","properties":{"ruta":"r1","fuente":"Georuta1.shp (Georuta 1.kml), proyecto GEOPARQUEMET"},"geometry":{"type":"LineString","coordinates":[[-70.636115,-33.430165],[-70.636095,-33.430025],[-70.63605,-33.429872],[-70.636071,-33.42975],[-70.636119,-33.429604],[-70.636118,-33.429492],[-70.636215,-33.429412],[-70.636387,-33.429387],[-70.636552,-33.429317],[-70.63656,-33.429315],[-70.63676,-33.429188],[-70.636843,-33.429104],[-70.636844,-33.429093],[-70.636937,-33.428964],[-70.63694,-33.42896],[-70.63705,-33.428841],[-70.637125,-33.428735],[-70.63724,-33.428655],[-70.637367,-33.428561],[-70.637377,-33.428559],[-70.637468,-33.428541],[-70.637624,-33.42845],[-70.637807,-33.428322],[-70.637969,-33.428224],[-70.638101,-33.428126],[-70.638103,-33.428121],[-70.638156,-33.427986],[-70.63811,-33.427853],[-70.638099,-33.427842],[-70.638013,-33.427778],[-70.637947,-33.427709],[-70.637942,-33.427707],[-70.637883,-33.42753],[-70.637833,-33.427515],[-70.637894,-33.42744],[-70.637863,-33.427202],[-70.63778,-33.426946],[-70.637733,-33.42675],[-70.637662,-33.42656],[-70.637569,-33.426485],[-70.637598,-33.426365],[-70.637553,-33.426033],[-70.637475,-33.425626],[-70.637397,-33.425207],[-70.637291,-33.424848],[-70.637113,-33.424394],[-70.636879,-33.424],[-70.636593,-33.423664],[-70.636438,-33.423526],[-70.636308,-33.423327],[-70.636275,-33.422998],[-70.636326,-33.422754],[-70.636423,-33.422561],[-70.636613,-33.422328],[-70.636777,-33.422221],[-70.637055,-33.422095],[-70.637322,-33.421906],[-70.637489,-33.421755],[-70.637603,-33.421532],[-70.637629,-33.421288],[-70.637694,-33.42105],[-70.637738,-33.420926],[-70.637695,-33.420781],[-70.637887,-33.420674],[-70.637957,-33.420591],[-70.638051,-33.420481],[-70.637999,-33.420388],[-70.637867,-33.420353],[-70.637855,-33.420261],[-70.63776,-33.420235],[-70.637718,-33.420138],[-70.637475,-33.41998],[-70.637239,-33.419726],[-70.637004,-33.419504],[-70.636739,-33.419311],[-70.636526,-33.419081],[-70.636406,-33.418922],[-70.636197,-33.418804],[-70.636186,-33.418803],[-70.635998,-33.418814],[-70.635859,-33.418873],[-70.635659,-33.419002],[-70.63547,-33.419079],[-70.635338,-33.419116],[-70.635157,-33.419054],[-70.635005,-33.418924],[-70.634793,-33.418755],[-70.63465,-33.418635],[-70.634432,-33.418465],[-70.63419,-33.418373],[-70.633814,-33.418324],[-70.633342,-33.418362],[-70.632939,-33.418325],[-70.632575,-33.418231],[-70.632221,-33.418065],[-70.632008,-33.417949],[-70.631791,-33.417721],[-70.631641,-33.417391],[-70.631534,-33.417171],[-70.631393,-33.417046],[-70.630926,-33.417125],[-70.630098,-33.417363],[-70.629544,-33.417417],[-70.629015,-33.417425],[-70.628268,-33.417523],[-70.627865,-33.417471],[-70.627608,-33.417398],[-70.627505,-33.417429],[-70.627428,-33.417359],[-70.627212,-33.417297],[-70.626899,-33.417217],[-70.626663,-33.417158],[-70.626408,-33.417099],[-70.626162,-33.417009],[-70.625953,-33.416984],[-70.625634,-33.41702],[-70.625374,-33.417082],[-70.625281,-33.417152],[-70.625193,-33.417112],[-70.625027,-33.417023],[-70.624868,-33.416936],[-70.624688,-33.41682],[-70.624551,-33.416649],[-70.624434,-33.416517],[-70.624239,-33.416415],[-70.624005,-33.416336],[-70.623753,-33.416251],[-70.623593,-33.416158],[-70.623379,-33.416142],[-70.623221,-33.416102],[-70.622978,-33.416063]]}}]}