{"type":"FeatureCollection","features":[{"type":"Feature","properties":{"highway":"residential","name":"El Comendador","surface":"concrete","osm":"way/14069328"},"geometry":{"type":"LineString","coordinates":[[-70.612964,-33.415789],[-70.612909,-33.415593]]}},{"type":"Feature","properties":{"highway":"residential","name":"El Rey","surface":"concrete","osm":"way/14069332"},"geometry":{"type":"LineString","coordinates":[[-70.616276,-33.41579],[-70.616294,-33.415661],[-70.616299,-33.41543]]}},{"type":"Feature","properties":{"highway":"residential","name":"Los Navegantes","surface":"concrete","osm":"way/14074959"},"geometry":{"type":"LineString","coordinates":[[-70.613805,-33.4155],[-70.61384,-33.415713],[-70.613876,-33.415821]]}},{"type":"Feature","properties":{"highway":"tertiary","name":"Monseñor Carlos Casanueva","surface":"concrete","osm":"way/14074980"},"geometry":{"type":"LineString","coordinates":[[-70.620413,-33.418579],[-70.620708,-33.418358]]}},{"type":"Feature","properties":{"highway":"residential","name":"Constitución","surface":"concrete","osm":"way/20841899"},"geometry":{"type":"LineString","coordinates":[[-70.636248,-33.430844],[-70.636139,-33.430853],[-70.635626,-33.430832],[-70.635518,-33.430847],[-70.635366,-33.4309],[-70.635275,-33.430963],[-70.635213,-33.431032],[-70.635187,-33.431082]]}},{"type":"Feature","properties":{"highway":"residential","name":"Santa Filomena","surface":"asphalt","osm":"way/20867435"},"geometry":{"type":"LineString","coordinates":[[-70.636248,-33.430844],[-70.636534,-33.430766]]}},{"type":"Feature","properties":{"highway":"residential","name":"Michel Nash Saéz","osm":"way/20948289"},"geometry":{"type":"LineString","coordinates":[[-70.638941,-33.425887],[-70.638928,-33.425859],[-70.638927,-33.425812],[-70.639078,-33.425089]]}},{"type":"Feature","properties":{"highway":"residential","name":"Avenida Santos Dumont","surface":"asphalt","osm":"way/20948291"},"geometry":{"type":"LineString","coordinates":[[-70.637442,-33.423385],[-70.638384,-33.423183]]}},{"type":"Feature","properties":{"highway":"residential","name":"Alberto Figueroa","surface":"asphalt","osm":"way/20948295"},"geometry":{"type":"LineString","coordinates":[[-70.639638,-33.421968],[-70.63969,-33.421945],[-70.639875,-33.42191]]}},{"type":"Feature","properties":{"highway":"residential","name":"La Montaña","osm":"way/21158061"},"geometry":{"type":"MultiLineString","coordinates":[[[-70.62092,-33.406334],[-70.620811,-33.406151],[-70.620649,-33.40582]],[[-70.620542,-33.405602],[-70.620207,-33.404935],[-70.619804,-33.404057],[-70.619029,-33.402276],[-70.6189,-33.402009]]]}},{"type":"Feature","properties":{"highway":"residential","name":"Los Turistas","surface":"concrete","osm":"way/21167375"},"geometry":{"type":"LineString","coordinates":[[-70.6189,-33.402009],[-70.620066,-33.40029],[-70.620123,-33.400244],[-70.620164,-33.400233]]}},{"type":"Feature","properties":{"highway":"residential","name":"Avenida Duque de Kent","surface":"asphalt","osm":"way/24563663"},"geometry":{"type":"LineString","coordinates":[[-70.619355,-33.403036],[-70.61963,-33.402896]]}},{"type":"Feature","properties":{"highway":"residential","name":"Santa Adela","surface":"asphalt","osm":"way/24563667"},"geometry":{"type":"LineString","coordinates":[[-70.619029,-33.402276],[-70.619277,-33.402149]]}},{"type":"Feature","properties":{"highway":"residential","name":"Eucaliptus","osm":"way/33972401"},"geometry":{"type":"LineString","coordinates":[[-70.631614,-33.413718],[-70.631903,-33.413884]]}},{"type":"Feature","properties":{"highway":"residential","name":"Las Brisas","osm":"way/33972403"},"geometry":{"type":"LineString","coordinates":[[-70.631338,-33.414095],[-70.631682,-33.414314]]}},{"type":"Feature","properties":{"highway":"residential","name":"Las Brisas","surface":"paved","osm":"way/33972407"},"geometry":{"type":"LineString","coordinates":[[-70.630449,-33.412842],[-70.631034,-33.413142],[-70.631758,-33.413492]]}},{"type":"Feature","properties":{"highway":"residential","name":"Samuel Díaz Ossa","surface":"concrete","osm":"way/33972408"},"geometry":{"type":"LineString","coordinates":[[-70.628749,-33.414302],[-70.628696,-33.414552],[-70.628618,-33.414796],[-70.62854,-33.414987],[-70.628432,-33.415287]]}},{"type":"Feature","properties":{"highway":"residential","name":"Estudiante Navarro","surface":"asphalt","osm":"way/33972409"},"geometry":{"type":"LineString","coordinates":[[-70.631034,-33.413142],[-70.631266,-33.412818]]}},{"type":"Feature","properties":{"highway":"residential","name":"Arbilu","surface":"paved","osm":"way/33972413"},"geometry":{"type":"LineString","coordinates":[[-70.630521,-33.413438],[-70.629984,-33.413177]]}},{"type":"Feature","properties":{"highway":"residential","name":"Héctor Barrueto","surface":"paved","osm":"way/33972414"},"geometry":{"type":"LineString","coordinates":[[-70.63023,-33.413862],[-70.630145,-33.413819],[-70.629859,-33.4137],[-70.629767,-33.413641],[-70.629685,-33.413613]]}},{"type":"Feature","properties":{"highway":"residential","name":"Aurora de Chile","surface":"concrete","osm":"way/33972452"},"geometry":{"type":"LineString","coordinates":[[-70.627807,-33.415205],[-70.627938,-33.414678]]}},{"type":"Feature","properties":{"highway":"residential","name":"Comandante Véliz","surface":"asphalt","osm":"way/33972671"},"geometry":{"type":"LineString","coordinates":[[-70.631614,-33.413718],[-70.631939,-33.413216]]}},{"type":"Feature","properties":{"highway":"tertiary","name":"Avenida El Cerro","surface":"asphalt","osm":"way/34766397"},"geometry":{"type":"LineString","coordinates":[[-70.623081,-33.425058],[-70.62294,-33.42451],[-70.622878,-33.424045]]}},{"type":"Feature","properties":{"highway":"residential","name":"Carlos Reed","surface":"asphalt","osm":"way/34766532"},"geometry":{"type":"LineString","coordinates":[[-70.623553,-33.425693],[-70.623441,-33.425683],[-70.623398,-33.425697],[-70.623327,-33.425748],[-70.623302,-33.425795]]}},{"type":"Feature","properties":{"highway":"residential","name":"Carlos Reed","surface":"asphalt","osm":"way/34766555"},"geometry":{"type":"LineString","coordinates":[[-70.625576,-33.425428],[-70.625099,-33.425528]]}},{"type":"Feature","properties":{"highway":"tertiary","name":"Comodoro Arturo Merino Benítez","surface":"concrete","osm":"way/34766558"},"geometry":{"type":"LineString","coordinates":[[-70.622963,-33.42305],[-70.62307,-33.423442],[-70.623296,-33.424445],[-70.623316,-33.424596],[-70.623324,-33.424804]]}},{"type":"Feature","properties":{"highway":"residential","name":"Bellavista","surface":"asphalt","osm":"way/38620936"},"geometry":{"type":"LineString","coordinates":[[-70.623712,-33.425776],[-70.623814,-33.425859],[-70.623872,-33.425935],[-70.623899,-33.426017],[-70.623939,-33.426259]]}},{"type":"Feature","properties":{"highway":"residential","name":"Carlos Reed","surface":"asphalt","osm":"way/38620938"},"geometry":{"type":"LineString","coordinates":[[-70.623184,-33.425456],[-70.623313,-33.425561],[-70.623553,-33.425693]]}},{"type":"Feature","properties":{"highway":"residential","name":"Carlos Reed","surface":"asphalt","osm":"way/38620952"},"geometry":{"type":"LineString","coordinates":[[-70.623368,-33.424951],[-70.623467,-33.425101],[-70.623539,-33.425195],[-70.623711,-33.425334],[-70.623847,-33.425405],[-70.623997,-33.42546],[-70.624217,-33.425485],[-70.625064,-33.425403]]}},{"type":"Feature","properties":{"highway":"residential","name":"Carlos Reed","osm":"way/38620953"},"geometry":{"type":"LineString","coordinates":[[-70.624154,-33.425847],[-70.623969,-33.425838],[-70.623794,-33.425803],[-70.623712,-33.425776]]}},{"type":"Feature","properties":{"access":"customers","highway":"residential","name":"Antilen","surface":"asphalt","osm":"way/40140795"},"geometry":{"type":"LineString","coordinates":[[-70.613138,-33.408576],[-70.613433,-33.408603],[-70.613877,-33.408668],[-70.61417,-33.408785],[-70.61436,-33.408876],[-70.614493,-33.408957],[-70.614536,-33.409002],[-70.614566,-33.409055],[-70.614585,-33.409112],[-70.61461,-33.409227],[-70.614645,-33.409461],[-70.614644,-33.409529],[-70.614633,-33.409563],[-70.614557,-33.409649],[-70.614495,-33.409678],[-70.614406,-33.409694],[-70.613875,-33.409713],[-70.613446,-33.409719],[-70.613021,-33.40968],[-70.612919,-33.409663],[-70.612837,-33.409636],[-70.612709,-33.409543],[-70.612552,-33.40935],[-70.612406,-33.409147],[-70.612076,-33.408653],[-70.612013,-33.408541],[-70.611915,-33.408262],[-70.611882,-33.408112],[-70.61186,-33.407971],[-70.61185,-33.407674],[-70.611827,-33.407624],[-70.611715,-33.407589],[-70.611576,-33.407583],[-70.611301,-33.40759]]}},{"type":"Feature","properties":{"highway":"residential","name":"Avenida Carlos Martner","surface":"asphalt","osm":"way/40140801"},"geometry":{"type":"LineString","coordinates":[[-70.61758,-33.411845],[-70.617427,-33.41177],[-70.616652,-33.411479],[-70.616029,-33.411266],[-70.615887,-33.411233],[-70.615705,-33.411215],[-70.615348,-33.411244],[-70.615029,-33.411235],[-70.614841,-33.411215],[-70.614603,-33.411143],[-70.613884,-33.410953],[-70.613554,-33.41085],[-70.613221,-33.410727],[-70.612953,-33.410592],[-70.612524,-33.410357],[-70.612339,-33.41023],[-70.612213,-33.410116],[-70.612079,-33.409968],[-70.612001,-33.409869],[-70.611923,-33.409737],[-70.611884,-33.409644]]}},{"type":"Feature","properties":{"highway":"unclassified","name":"Avenida Federico Albert","surface":"asphalt","osm":"way/40140804"},"geometry":{"type":"LineString","coordinates":[[-70.608406,-33.399379],[-70.60881,-33.399573],[-70.608981,-33.399638],[-70.609321,-33.399736],[-70.609568,-33.399783],[-70.609661,-33.399792],[-70.609828,-33.399774],[-70.610064,-33.399734],[-70.610217,-33.399738],[-70.610301,-33.399764],[-70.610401,-33.399813],[-70.610483,-33.399875],[-70.61057,-33.399963],[-70.610578,-33.400033],[-70.610566,-33.400106],[-70.610462,-33.400486],[-70.610428,-33.400648],[-70.610422,-33.400788],[-70.610431,-33.400905],[-70.610475,-33.40108],[-70.610635,-33.401502],[-70.610705,-33.401593],[-70.611049,-33.401928],[-70.61137,-33.40217],[-70.611511,-33.40232],[-70.6116,-33.402445],[-70.611755,-33.402775],[-70.611798,-33.402891],[-70.611818,-33.402952],[-70.61182,-33.403013],[-70.611735,-33.403336],[-70.61173,-33.403625],[-70.611707,-33.403715],[-70.611633,-33.403869],[-70.611513,-33.404028],[-70.611246,-33.404271],[-70.611206,-33.404343],[-70.61119,-33.404401],[-70.6112,-33.404499],[-70.61125,-33.404738],[-70.611296,-33.404845],[-70.611359,-33.404905],[-70.611462,-33.40495],[-70.611663,-33.405013],[-70.611745,-33.405049],[-70.611905,-33.405171],[-70.611987,-33.405259],[-70.612122,-33.405448],[-70.612164,-33.405545],[-70.61219,-33.40563],[-70.612196,-33.40573],[-70.612176,-33.405857],[-70.612144,-33.405945],[-70.612063,-33.406053],[-70.611833,-33.406303],[-70.61179,-33.406377],[-70.611764,-33.406458],[-70.611747,-33.406556],[-70.611728,-33.406867],[-70.6117,-33.406952],[-70.611639,-33.407024],[-70.611386,-33.407277],[-70.611314,-33.407359],[-70.611241,-33.407469],[-70.611238,-33.407513]]}},{"type":"Feature","properties":{"highway":"unclassified","name":"Avenida Claudio Gay","surface":"asphalt","osm":"way/41160817"},"geometry":{"type":"LineString","coordinates":[[-70.61112,-33.407623],[-70.610453,-33.407483],[-70.610049,-33.407442],[-70.609945,-33.407408],[-70.609861,-33.407348],[-70.609834,-33.407322],[-70.609514,-33.406841],[-70.609249,-33.40652],[-70.608964,-33.406288],[-70.608853,-33.406216],[-70.608786,-33.406136],[-70.608746,-33.406059],[-70.608714,-33.405933],[-70.608703,-33.405817],[-70.608665,-33.405617],[-70.608571,-33.405326],[-70.608542,-33.405255],[-70.608493,-33.405175],[-70.608415,-33.405074],[-70.608321,-33.404985],[-70.607925,-33.404688],[-70.607762,-33.404556],[-70.607685,-33.404463],[-70.607595,-33.404289],[-70.607578,-33.40422],[-70.607589,-33.404099],[-70.607619,-33.404013],[-70.607672,-33.40392],[-70.60773,-33.403836],[-70.60804,-33.403524],[-70.608115,-33.403435],[-70.608156,-33.403318],[-70.608097,-33.402922],[-70.608105,-33.402821],[-70.608158,-33.402651],[-70.608389,-33.402158],[-70.608365,-33.402008],[-70.607971,-33.401014],[-70.60793,-33.400875],[-70.607933,-33.400752],[-70.607979,-33.400512],[-70.608105,-33.400221],[-70.60829,-33.399965],[-70.608467,-33.399664],[-70.608478,-33.399615],[-70.608468,-33.39955],[-70.608406,-33.399379]]}},{"type":"Feature","properties":{"highway":"tertiary","name":"Comodoro Arturo Merino Benítez","surface":"concrete","osm":"way/41744007"},"geometry":{"type":"LineString","coordinates":[[-70.621372,-33.419463],[-70.621482,-33.419646],[-70.62155,-33.419801],[-70.621636,-33.420063]]}},{"type":"Feature","properties":{"highway":"residential","name":"Avenida Alberto Mackenna","surface":"asphalt","osm":"way/44579782"},"geometry":{"type":"LineString","coordinates":[[-70.63616,-33.429462],[-70.636638,-33.429292],[-70.636744,-33.429216],[-70.636803,-33.429164],[-70.637148,-33.428732],[-70.637183,-33.428697],[-70.63722,-33.428665],[-70.637532,-33.42846],[-70.637864,-33.428199],[-70.638053,-33.428036],[-70.638069,-33.427993],[-70.638059,-33.427951],[-70.637933,-33.427787],[-70.6379,-33.42772],[-70.637871,-33.427628],[-70.637868,-33.427561],[-70.637881,-33.427419],[-70.637855,-33.427235],[-70.637666,-33.426596],[-70.637523,-33.426033],[-70.637429,-33.425504],[-70.637395,-33.42516],[-70.637208,-33.424597],[-70.637037,-33.424298],[-70.636963,-33.424143],[-70.636846,-33.424],[-70.636656,-33.423736],[-70.636522,-33.423594],[-70.636393,-33.423482],[-70.636361,-33.42344],[-70.636329,-33.423375],[-70.636305,-33.4233],[-70.636294,-33.423213],[-70.636306,-33.422874],[-70.636326,-33.422766],[-70.636381,-33.422625],[-70.636526,-33.422393],[-70.6366,-33.422317],[-70.636695,-33.422266],[-70.636983,-33.422158],[-70.63709,-33.4221],[-70.637171,-33.422044],[-70.637351,-33.421897],[-70.637484,-33.421768],[-70.637536,-33.421686],[-70.637572,-33.421594],[-70.637588,-33.42151],[-70.637596,-33.421276],[-70.637631,-33.421112],[-70.63768,-33.420963],[-70.637754,-33.420788],[-70.637827,-33.420646],[-70.637888,-33.420552],[-70.637936,-33.420498],[-70.637974,-33.420468],[-70.637991,-33.420442],[-70.637992,-33.420418],[-70.63798,-33.420384],[-70.63795,-33.420349],[-70.637691,-33.420125],[-70.637474,-33.419976],[-70.637216,-33.419671],[-70.637084,-33.41955],[-70.636792,-33.419363],[-70.636706,-33.4193],[-70.63664,-33.419237],[-70.636578,-33.419159],[-70.636482,-33.419002],[-70.636423,-33.418926],[-70.636315,-33.418836],[-70.636222,-33.418797],[-70.636123,-33.41879],[-70.635969,-33.418809],[-70.635917,-33.418824],[-70.635869,-33.418849],[-70.635833,-33.418882],[-70.635742,-33.419046],[-70.635703,-33.419081],[-70.635646,-33.419104],[-70.635583,-33.419117],[-70.635505,-33.419123],[-70.635435,-33.419117],[-70.635268,-33.419072],[-70.635204,-33.419043],[-70.634889,-33.41885],[-70.634702,-33.418728],[-70.634595,-33.418637],[-70.634434,-33.418478],[-70.63437,-33.418433],[-70.634274,-33.418394],[-70.634058,-33.418361],[-70.633917,-33.418349],[-70.633672,-33.418394],[-70.633463,-33.418414],[-70.633226,-33.41839],[-70.632958,-33.418344],[-70.632699,-33.418278],[-70.632457,-33.418188],[-70.632336,-33.418161],[-70.63225,-33.418129],[-70.632175,-33.418085],[-70.632062,-33.417987],[-70.631783,-33.417656],[-70.631705,-33.417541],[-70.63154,-33.417203],[-70.631503,-33.417144],[-70.631464,-33.417094],[-70.631372,-33.417036],[-70.631326,-33.417021],[-70.631265,-33.417017],[-70.631172,-33.417044],[-70.63069,-33.417265],[-70.630466,-33.417328],[-70.630015,-33.417474],[-70.629841,-33.417501],[-70.629639,-33.417504],[-70.628954,-33.417472],[-70.628847,-33.417483],[-70.628541,-33.417585],[-70.628401,-33.417598],[-70.628206,-33.417572],[-70.628003,-33.417527],[-70.627655,-33.417407],[-70.627403,-33.417333],[-70.626486,-33.417121],[-70.626076,-33.416987],[-70.625998,-33.416979],[-70.625863,-33.416994],[-70.625606,-33.417058],[-70.625383,-33.417146],[-70.625299,-33.417158],[-70.625244,-33.417143],[-70.624897,-33.416943],[-70.624761,-33.416845],[-70.624698,-33.416794],[-70.624548,-33.416619],[-70.624477,-33.416548],[-70.624392,-33.416492],[-70.62425,-33.416423],[-70.623955,-33.416291],[-70.623694,-33.416212],[-70.623216,-33.416117],[-70.623102,-33.416106],[-70.623005,-33.416121]]}},{"type":"Feature","properties":{"access":"no","highway":"service","name":"Monseñor Mariano Casanova","surface":"asphalt","osm":"way/45201663"},"geometry":{"type":"LineString","coordinates":[[-70.632231,-33.425565],[-70.632372,-33.425674],[-70.63247,-33.425763],[-70.63264,-33.425853],[-70.632902,-33.425964],[-70.633002,-33.425989],[-70.633095,-33.425995]]}},{"type":"Feature","properties":{"access":"no","highway":"service","surface":"paved","osm":"way/45202181"},"geometry":{"type":"LineString","coordinates":[[-70.63357,-33.425902],[-70.633398,-33.425955],[-70.633257,-33.425985],[-70.633095,-33.425995]]}},{"type":"Feature","properties":{"bicycle":"dismount","highway":"service","surface":"sett","osm":"way/45202247"},"geometry":{"type":"LineString","coordinates":[[-70.633416,-33.426541],[-70.633301,-33.426541],[-70.633121,-33.426523],[-70.63299,-33.426465],[-70.632694,-33.426285],[-70.632249,-33.425905],[-70.632083,-33.425686],[-70.632056,-33.425627],[-70.631993,-33.425436],[-70.631985,-33.425209]]}},{"type":"Feature","properties":{"highway":"residential","name":"Poeta Whitman","osm":"way/46922942"},"geometry":{"type":"LineString","coordinates":[[-70.623883,-33.408856],[-70.623744,-33.408203],[-70.623711,-33.407961],[-70.623652,-33.407751],[-70.6236,-33.407606],[-70.623514,-33.407477],[-70.623357,-33.40729]]}},{"type":"Feature","properties":{"highway":"residential","name":"Francisco Silva","osm":"way/46922945"},"geometry":{"type":"LineString","coordinates":[[-70.637824,-33.41855],[-70.63809,-33.419014],[-70.638159,-33.419094]]}},{"type":"Feature","properties":{"access":"private","highway":"service","name":"Condominio Parque San Cristóbal","surface":"asphalt","osm":"way/47563308"},"geometry":{"type":"LineString","coordinates":[[-70.628791,-33.428568],[-70.628837,-33.42855],[-70.629374,-33.428752],[-70.629394,-33.428816],[-70.629284,-33.42901]]}},{"type":"Feature","properties":{"highway":"residential","name":"Avenida Carlos Reed","surface":"asphalt","osm":"way/48549531"},"geometry":{"type":"LineString","coordinates":[[-70.625576,-33.425428],[-70.625703,-33.425431],[-70.625844,-33.425465],[-70.62629,-33.425623],[-70.626484,-33.425718],[-70.626699,-33.425843],[-70.626812,-33.425899],[-70.626976,-33.426],[-70.627221,-33.426217],[-70.627611,-33.426505],[-70.627964,-33.426747],[-70.628407,-33.427011],[-70.628589,-33.427141],[-70.629057,-33.427524],[-70.629225,-33.427706],[-70.629338,-33.427854],[-70.629456,-33.428039],[-70.629968,-33.428521],[-70.630543,-33.428993],[-70.630742,-33.429198],[-70.631012,-33.42944],[-70.631409,-33.429666],[-70.631823,-33.429883],[-70.632298,-33.430119],[-70.632569,-33.430238],[-70.632773,-33.430315],[-70.633055,-33.430358],[-70.633278,-33.430414],[-70.634113,-33.430716]]}},{"type":"Feature","properties":{"highway":"residential","name":"Carlos Reed","surface":"asphalt","osm":"way/48549802"},"geometry":{"type":"LineString","coordinates":[[-70.625064,-33.425403],[-70.625297,-33.425408],[-70.625576,-33.425428]]}},{"type":"Feature","properties":{"highway":"residential","name":"Avenida Carlos Martner","surface":"asphalt","osm":"way/69889085"},"geometry":{"type":"LineString","coordinates":[[-70.622581,-33.415885],[-70.622018,-33.415765],[-70.621248,-33.415396],[-70.621015,-33.415329],[-70.620949,-33.415295],[-70.62091,-33.415261],[-70.620892,-33.415208],[-70.620841,-33.414829],[-70.620804,-33.41464],[-70.620818,-33.414558],[-70.620923,-33.414384],[-70.62099,-33.414303],[-70.621108,-33.414257],[-70.621247,-33.414228],[-70.621386,-33.414179],[-70.62143,-33.414147],[-70.621445,-33.41409],[-70.621431,-33.413985],[-70.621413,-33.413941],[-70.621331,-33.413869]]}},{"type":"Feature","properties":{"highway":"residential","name":"Carlos Reed","surface":"asphalt","osm":"way/120341259"},"geometry":{"type":"LineString","coordinates":[[-70.624154,-33.425847],[-70.624095,-33.425867],[-70.623987,-33.425926],[-70.623945,-33.425958],[-70.623899,-33.426017]]}},{"type":"Feature","properties":{"access":"private","highway":"service","name":"Zona Operativa ParqueMet","surface":"asphalt","osm":"way/120389659"},"geometry":{"type":"LineString","coordinates":[[-70.62322,-33.414579],[-70.623201,-33.414642],[-70.62315,-33.4147],[-70.623078,-33.414695],[-70.622986,-33.414673],[-70.622914,-33.414672],[-70.622829,-33.414645],[-70.622741,-33.414598],[-70.622618,-33.414511],[-70.622571,-33.414468],[-70.622406,-33.414283],[-70.622308,-33.414198],[-70.62217,-33.414101],[-70.622013,-33.41401]]}},{"type":"Feature","properties":{"access":"yes","bicycle":"yes","highway":"residential","name":"Avenida La Montaña","surface":"asphalt","osm":"way/120389660"},"geometry":{"type":"LineString","coordinates":[[-70.617261,-33.405259],[-70.61721,-33.405355],[-70.617204,-33.405483],[-70.617224,-33.405611],[-70.617358,-33.405983],[-70.617384,-33.406036],[-70.618044,-33.407122],[-70.618129,-33.407236],[-70.618265,-33.407373],[-70.618418,-33.407486],[-70.618593,-33.407586],[-70.618871,-33.40766],[-70.619107,-33.407703],[-70.619285,-33.407709],[-70.619645,-33.407658],[-70.619881,-33.407646],[-70.620098,-33.40765],[-70.620519,-33.40772],[-70.62066,-33.407735],[-70.621207,-33.407727],[-70.62133,-33.407746],[-70.62154,-33.407806],[-70.621711,-33.407903],[-70.621817,-33.407984],[-70.621965,-33.408128],[-70.622143,-33.408391],[-70.62282,-33.409475],[-70.622874,-33.409602],[-70.622899,-33.409688],[-70.622919,-33.409824],[-70.622924,-33.409952],[-70.622905,-33.41014],[-70.622846,-33.41046],[-70.622841,-33.410662],[-70.622922,-33.411309],[-70.622944,-33.411435],[-70.622957,-33.411621],[-70.622943,-33.411712],[-70.622907,-33.411764],[-70.622855,-33.411794],[-70.622814,-33.411794],[-70.622759,-33.411763],[-70.622732,-33.411733],[-70.622682,-33.411649],[-70.622652,-33.411585],[-70.622446,-33.411023],[-70.622414,-33.410866],[-70.622336,-33.410346],[-70.622275,-33.410014],[-70.622177,-33.409808],[-70.622104,-33.409699],[-70.621965,-33.409549],[-70.621826,-33.409441],[-70.621664,-33.409356],[-70.621276,-33.409177],[-70.621202,-33.409151],[-70.621136,-33.409151],[-70.621087,-33.40917],[-70.621054,-33.409204],[-70.621042,-33.409242],[-70.621042,-33.409281],[-70.621082,-33.409365],[-70.621344,-33.409598],[-70.62148,-33.409755],[-70.621551,-33.409856],[-70.621658,-33.410063],[-70.621706,-33.410183],[-70.621741,-33.410311],[-70.62175,-33.410416],[-70.62173,-33.410748],[-70.621673,-33.41109],[-70.621622,-33.411256],[-70.621571,-33.41147],[-70.621516,-33.411815],[-70.621492,-33.412098],[-70.621497,-33.41318],[-70.621536,-33.413339],[-70.62169,-33.413655],[-70.621728,-33.413804],[-70.621715,-33.41383],[-70.621692,-33.413844],[-70.621481,-33.413857]]}},{"type":"Feature","properties":{"bicycle":"permissive","highway":"residential","name":"Avenida Pablo Neruda","surface":"asphalt","osm":"way/160691199"},"geometry":{"type":"LineString","coordinates":[[-70.610145,-33.403946],[-70.610114,-33.404069],[-70.610144,-33.404108],[-70.610373,-33.404153],[-70.610411,-33.404171],[-70.610448,-33.404209],[-70.61048,-33.404288],[-70.610636,-33.404821],[-70.610715,-33.405009],[-70.611087,-33.405574],[-70.611207,-33.405691],[-70.611229,-33.405727],[-70.61124,-33.405764],[-70.611245,-33.405812],[-70.61124,-33.405924],[-70.611192,-33.406329],[-70.611124,-33.40661],[-70.611063,-33.406782],[-70.610902,-33.407024],[-70.610794,-33.407111],[-70.61063,-33.407209],[-70.610615,-33.407245],[-70.610619,-33.407266],[-70.610635,-33.407288],[-70.610681,-33.407319],[-70.610787,-33.407369],[-70.610992,-33.407544],[-70.611111,-33.407597]]}},{"type":"Feature","properties":{"highway":"residential","name":"La Cascada","osm":"way/162098868"},"geometry":{"type":"LineString","coordinates":[[-70.621382,-33.406951],[-70.621028,-33.407041],[-70.620806,-33.407077],[-70.620576,-33.407083],[-70.620309,-33.406992],[-70.620092,-33.406879],[-70.620019,-33.406793],[-70.620055,-33.406723],[-70.620264,-33.406675],[-70.620375,-33.40664],[-70.620578,-33.406542],[-70.62092,-33.406334],[-70.622187,-33.405777],[-70.622247,-33.405766],[-70.622285,-33.405784],[-70.62281,-33.406407],[-70.622864,-33.406434]]}},{"type":"Feature","properties":{"highway":"residential","name":"Las Rocas","osm":"way/162098869"},"geometry":{"type":"LineString","coordinates":[[-70.623984,-33.407525],[-70.623005,-33.406389]]}},{"type":"Feature","properties":{"highway":"residential","name":"Avenida Pedro Bannen","surface":"sett","osm":"way/169885900"},"geometry":{"type":"LineString","coordinates":[[-70.63256,-33.423744],[-70.632679,-33.42383],[-70.632694,-33.423873],[-70.632692,-33.423935],[-70.632661,-33.423977],[-70.632583,-33.424026]]}},{"type":"Feature","properties":{"access":"no","highway":"service","name":"Camino de Servicio","surface":"asphalt","osm":"way/169886387"},"geometry":{"type":"LineString","coordinates":[[-70.632662,-33.424514],[-70.632682,-33.424482],[-70.63266,-33.42445],[-70.632542,-33.424477],[-70.632461,-33.424509],[-70.632377,-33.42457],[-70.632256,-33.424678],[-70.632229,-33.424714],[-70.632207,-33.424774],[-70.632195,-33.424831],[-70.632174,-33.425125],[-70.632155,-33.425226],[-70.632159,-33.425289],[-70.632217,-33.425434],[-70.632239,-33.425663],[-70.6323,-33.425826],[-70.632278,-33.425882],[-70.632249,-33.425905]]}},{"type":"Feature","properties":{"highway":"residential","name":"Avenida Reina de Chile","surface":"concrete","osm":"way/179494265"},"geometry":{"type":"LineString","coordinates":[[-70.622864,-33.406434],[-70.622917,-33.406425],[-70.623005,-33.406389],[-70.623102,-33.406318]]}},{"type":"Feature","properties":{"access":"yes","bicycle":"yes","highway":"living_street","mtb:scale":"0","name":"Canal El Carmen","sac_scale":"hiking","surface":"asphalt","osm":"way/179494266"},"geometry":{"type":"LineString","coordinates":[[-70.63827,-33.419577],[-70.63802,-33.419307],[-70.637488,-33.418817],[-70.637194,-33.41851],[-70.637065,-33.418366],[-70.636429,-33.417518],[-70.636338,-33.417432],[-70.635803,-33.417176],[-70.635466,-33.417041],[-70.635232,-33.416971],[-70.634472,-33.416951],[-70.634337,-33.416921],[-70.634142,-33.416795],[-70.634035,-33.416736],[-70.633964,-33.416739],[-70.633873,-33.416757],[-70.633712,-33.416844],[-70.633625,-33.416856],[-70.63346,-33.416827],[-70.633251,-33.416751],[-70.633143,-33.416651],[-70.633057,-33.416533],[-70.632947,-33.416295],[-70.632839,-33.416096],[-70.632505,-33.415686],[-70.632263,-33.415426],[-70.63208,-33.415279],[-70.631172,-33.41463],[-70.630963,-33.414538],[-70.630706,-33.414432],[-70.630314,-33.414364],[-70.630006,-33.414325],[-70.629775,-33.414398],[-70.629649,-33.414502],[-70.629478,-33.414684],[-70.62936,-33.414709],[-70.629024,-33.414742],[-70.628876,-33.414804],[-70.628797,-33.414878],[-70.628683,-33.415008],[-70.628558,-33.415242],[-70.628432,-33.415287],[-70.628368,-33.415328],[-70.62823,-33.415381],[-70.628124,-33.41539],[-70.627874,-33.415259],[-70.627807,-33.415205]]}},{"type":"Feature","properties":{"highway":"service","name":"Manuel Foster","surface":"asphalt","osm":"way/191314039"},"geometry":{"type":"LineString","coordinates":[[-70.631563,-33.422968],[-70.631364,-33.422579],[-70.631191,-33.422287],[-70.631037,-33.422104],[-70.630723,-33.421771],[-70.630511,-33.421634],[-70.630263,-33.421487],[-70.629941,-33.421316],[-70.629603,-33.421158],[-70.629176,-33.420859],[-70.62886,-33.420457],[-70.628688,-33.420121],[-70.628636,-33.419889],[-70.628669,-33.419833],[-70.628747,-33.419812],[-70.628856,-33.419828],[-70.628977,-33.419902],[-70.629358,-33.42033]]}},{"type":"Feature","properties":{"highway":"residential","name":"Delfina León","surface":"concrete","osm":"way/197799657"},"geometry":{"type":"LineString","coordinates":[[-70.638552,-33.41879],[-70.639591,-33.418333]]}},{"type":"Feature","properties":{"highway":"living_street","name":"Cerrito","surface":"paved","osm":"way/238112775"},"geometry":{"type":"LineString","coordinates":[[-70.635755,-33.430834],[-70.635703,-33.431086]]}},{"type":"Feature","properties":{"highway":"tertiary","name":"Avenida El Cerro","surface":"concrete","osm":"way/256509343"},"geometry":{"type":"LineString","coordinates":[[-70.6227,-33.422559],[-70.622499,-33.422187],[-70.62237,-33.421968]]}},{"type":"Feature","properties":{"access":"permissive","highway":"service","name":"Estacionamientos ParqueMet","surface":"asphalt","osm":"way/256510470"},"geometry":{"type":"LineString","coordinates":[[-70.622508,-33.421795],[-70.622193,-33.421271],[-70.621954,-33.420795],[-70.621893,-33.420653],[-70.621844,-33.420469],[-70.621671,-33.419709],[-70.621627,-33.419564],[-70.621536,-33.419299],[-70.621363,-33.418933],[-70.621291,-33.418813],[-70.621195,-33.418681],[-70.621029,-33.418495],[-70.62084,-33.418323],[-70.620786,-33.418312],[-70.620708,-33.418358]]}},{"type":"Feature","properties":{"highway":"residential","name":"Plaza Antilén","surface":"asphalt","osm":"way/259796422"},"geometry":{"type":"LineString","coordinates":[[-70.611206,-33.407509],[-70.611264,-33.407525],[-70.611297,-33.407565],[-70.611301,-33.40759],[-70.611284,-33.407635],[-70.611239,-33.407663],[-70.611211,-33.407668],[-70.611158,-33.407657],[-70.611136,-33.407642],[-70.611111,-33.407597],[-70.611113,-33.40757],[-70.611125,-33.407546],[-70.611175,-33.407513],[-70.611206,-33.407509]]}},{"type":"Feature","properties":{"highway":"tertiary","name":"Avenida El Cerro","surface":"concrete","osm":"way/291266711"},"geometry":{"type":"LineString","coordinates":[[-70.621827,-33.421146],[-70.621736,-33.420976],[-70.621667,-33.420815],[-70.621624,-33.420685],[-70.621561,-33.420375],[-70.62149,-33.420078]]}},{"type":"Feature","properties":{"highway":"residential","name":"Avenida Abate Molina","surface":"asphalt","osm":"way/292124343"},"geometry":{"type":"LineString","coordinates":[[-70.614678,-33.413801],[-70.614703,-33.413812],[-70.614801,-33.413814],[-70.615093,-33.413804],[-70.615248,-33.413759],[-70.615366,-33.4137],[-70.61554,-33.41357],[-70.615783,-33.413292],[-70.61584,-33.413257],[-70.615916,-33.413229],[-70.616367,-33.41321],[-70.616603,-33.413214],[-70.616758,-33.413199],[-70.616903,-33.413199],[-70.616994,-33.413223],[-70.617111,-33.41328],[-70.617456,-33.413626],[-70.617732,-33.413833],[-70.617873,-33.41396],[-70.617944,-33.414073],[-70.617993,-33.414184],[-70.618075,-33.414417],[-70.618221,-33.414696],[-70.618383,-33.414898],[-70.618577,-33.41516],[-70.618773,-33.4154],[-70.619127,-33.415971],[-70.619333,-33.416174],[-70.619371,-33.416225],[-70.619367,-33.416264],[-70.619345,-33.416296],[-70.619306,-33.416318],[-70.619253,-33.416321]]}},{"type":"Feature","properties":{"highway":"service","name":"Manuel Foster","surface":"ground","osm":"way/292124427"},"geometry":{"type":"LineString","coordinates":[[-70.629358,-33.42033],[-70.629444,-33.420431],[-70.629692,-33.420614],[-70.630017,-33.42087],[-70.630217,-33.420992],[-70.630475,-33.421083],[-70.630713,-33.421191],[-70.630902,-33.42131],[-70.631068,-33.421439],[-70.631344,-33.421716],[-70.631527,-33.422003],[-70.631815,-33.422264],[-70.631996,-33.422541],[-70.632192,-33.42294]]}},{"type":"Feature","properties":{"highway":"service","surface":"unpaved","osm":"way/292124428"},"geometry":{"type":"LineString","coordinates":[[-70.614255,-33.407707],[-70.61496,-33.407864],[-70.61522,-33.407991],[-70.615444,-33.408178],[-70.615739,-33.408376],[-70.615869,-33.408525],[-70.6159,-33.408719],[-70.615882,-33.408906],[-70.615918,-33.409141],[-70.615989,-33.40941],[-70.616106,-33.409559],[-70.616267,-33.409694],[-70.616473,-33.409754],[-70.616616,-33.409843],[-70.616763,-33.409963],[-70.616839,-33.410116],[-70.616889,-33.410325],[-70.616893,-33.410407],[-70.616991,-33.410541],[-70.617237,-33.410945],[-70.617394,-33.411176],[-70.617515,-33.411397],[-70.6176,-33.41152],[-70.617598,-33.411689],[-70.61758,-33.411845]]}},{"type":"Feature","properties":{"highway":"service","surface":"unpaved","osm":"way/292124440"},"geometry":{"type":"LineString","coordinates":[[-70.617598,-33.411689],[-70.616729,-33.411163],[-70.616192,-33.410857],[-70.616167,-33.410821],[-70.616154,-33.41077],[-70.616274,-33.410633],[-70.616288,-33.410581],[-70.616261,-33.410534],[-70.616199,-33.410487],[-70.616143,-33.410467],[-70.616065,-33.410476],[-70.615936,-33.410505],[-70.615652,-33.410633]]}},{"type":"Feature","properties":{"highway":"residential","name":"Avenida Abate Molina","surface":"asphalt","osm":"way/363378017"},"geometry":{"type":"LineString","coordinates":[[-70.617448,-33.415396],[-70.617435,-33.415349],[-70.617476,-33.415247],[-70.617527,-33.415219]]}},{"type":"Feature","properties":{"highway":"residential","name":"Padre Undurraga","osm":"way/440885806"},"geometry":{"type":"LineString","coordinates":[[-70.619481,-33.406237],[-70.619278,-33.405729]]}},{"type":"Feature","properties":{"highway":"residential","name":"Las Faldas","osm":"way/440885807"},"geometry":{"type":"LineString","coordinates":[[-70.619006,-33.405782],[-70.619278,-33.405729],[-70.620451,-33.405417]]}},{"type":"Feature","properties":{"highway":"tertiary","name":"Avenida El Cerro","surface":"asphalt","osm":"way/442335108"},"geometry":{"type":"LineString","coordinates":[[-70.617414,-33.415461],[-70.617562,-33.415544],[-70.617622,-33.415591],[-70.61824,-33.416125],[-70.620087,-33.417769],[-70.620708,-33.418358]]}},{"type":"Feature","properties":{"highway":"residential","name":"Avenida El Cerro","surface":"concrete","osm":"way/442335109"},"geometry":{"type":"LineString","coordinates":[[-70.612909,-33.415593],[-70.613162,-33.415557],[-70.613611,-33.415512],[-70.614688,-33.415458],[-70.616299,-33.41543],[-70.61716,-33.41543]]}},{"type":"Feature","properties":{"highway":"residential","name":"Los Misioneros","surface":"concrete","osm":"way/442335121"},"geometry":{"type":"LineString","coordinates":[[-70.614688,-33.415458],[-70.61469,-33.415672],[-70.61472,-33.41581]]}},{"type":"Feature","properties":{"highway":"residential","name":"Avenida Carlos Martner","surface":"asphalt","osm":"way/442592613"},"geometry":{"type":"LineString","coordinates":[[-70.611884,-33.409644],[-70.611809,-33.40943],[-70.611685,-33.408907],[-70.611669,-33.408762],[-70.611658,-33.408527],[-70.611683,-33.408102],[-70.611671,-33.408036],[-70.611609,-33.407943],[-70.611471,-33.4078],[-70.611263,-33.407652]]}},{"type":"Feature","properties":{"highway":"residential","name":"Avenida Carlos Martner","surface":"asphalt","osm":"way/442592614"},"geometry":{"type":"LineString","coordinates":[[-70.62076,-33.413798],[-70.620808,-33.413728],[-70.620801,-33.413681],[-70.620767,-33.413632],[-70.620537,-33.413402],[-70.620086,-33.413015],[-70.620044,-33.412989],[-70.619881,-33.412909],[-70.619788,-33.412891],[-70.619418,-33.41285],[-70.618971,-33.412819],[-70.618853,-33.412801],[-70.618723,-33.412765],[-70.61862,-33.412723],[-70.618349,-33.41258],[-70.618236,-33.412492],[-70.617912,-33.412155],[-70.617747,-33.411953],[-70.61758,-33.411845]]}},{"type":"Feature","properties":{"highway":"tertiary","name":"Avenida El Cerro","surface":"concrete","osm":"way/442618822"},"geometry":{"type":"LineString","coordinates":[[-70.621372,-33.419463],[-70.621324,-33.419313],[-70.621284,-33.419217],[-70.621173,-33.418993],[-70.621021,-33.41876],[-70.620708,-33.418358]]}},{"type":"Feature","properties":{"highway":"residential","name":"Avenida Alberto Mackenna","surface":"asphalt","osm":"way/442629926"},"geometry":{"type":"LineString","coordinates":[[-70.636154,-33.430446],[-70.636062,-33.430127],[-70.636014,-33.429898],[-70.636016,-33.42987],[-70.636041,-33.429807],[-70.636146,-33.429629],[-70.63617,-33.429518],[-70.63616,-33.429462]]}},{"type":"Feature","properties":{"highway":"residential","name":"Senador Matte","surface":"paved","osm":"way/442629930"},"geometry":{"type":"MultiLineString","coordinates":[[[-70.629859,-33.4137],[-70.629556,-33.413858]],[[-70.629395,-33.414005],[-70.629215,-33.414289],[-70.629136,-33.41437],[-70.629007,-33.414446],[-70.628696,-33.414552]]]}},{"type":"Feature","properties":{"highway":"residential","name":"Avenida Carlos Martner","osm":"way/442633595"},"geometry":{"type":"LineString","coordinates":[[-70.621331,-33.413869],[-70.621285,-33.413846],[-70.621199,-33.41382],[-70.621126,-33.41381]]}},{"type":"Feature","properties":{"highway":"living_street","name":"La Virgen","surface":"asphalt","osm":"way/447104222"},"geometry":{"type":"LineString","coordinates":[[-70.639062,-33.425061],[-70.638627,-33.425129]]}},{"type":"Feature","properties":{"highway":"residential","name":"Colombia","surface":"asphalt","osm":"way/447289653"},"geometry":{"type":"LineString","coordinates":[[-70.620501,-33.404786],[-70.620207,-33.404935]]}},{"type":"Feature","properties":{"highway":"residential","name":"Maestra Lidia Torres","osm":"way/452579846"},"geometry":{"type":"LineString","coordinates":[[-70.63884,-33.424244],[-70.638574,-33.424313]]}},{"type":"Feature","properties":{"highway":"residential","name":"Avenida Pedro Bannen","surface":"asphalt","osm":"way/480868066"},"geometry":{"type":"LineString","coordinates":[[-70.63235,-33.42359],[-70.63192,-33.42323],[-70.631738,-33.423088],[-70.631563,-33.422968],[-70.631015,-33.422443],[-70.630841,-33.422357],[-70.630672,-33.422311],[-70.630153,-33.42213],[-70.629983,-33.42209],[-70.629562,-33.422022],[-70.629274,-33.421943],[-70.628581,-33.421836],[-70.628336,-33.421833],[-70.627762,-33.421882],[-70.627464,-33.421922],[-70.627292,-33.4219],[-70.627193,-33.421873],[-70.627024,-33.42181],[-70.626741,-33.421657],[-70.6266,-33.421499],[-70.626506,-33.421335],[-70.626429,-33.421181],[-70.626378,-33.421008],[-70.626273,-33.420813],[-70.626203,-33.420725],[-70.626113,-33.420636],[-70.625737,-33.420304],[-70.625624,-33.420161],[-70.625441,-33.419784],[-70.625251,-33.419518],[-70.625105,-33.419294],[-70.625092,-33.419247],[-70.625096,-33.419158],[-70.625112,-33.419068],[-70.625181,-33.418831],[-70.625305,-33.41864],[-70.625596,-33.418363],[-70.626064,-33.418005],[-70.626239,-33.41793],[-70.626566,-33.417925],[-70.626995,-33.417947],[-70.627161,-33.417962],[-70.627335,-33.417997],[-70.627487,-33.418041],[-70.627553,-33.418069],[-70.627677,-33.418139],[-70.628068,-33.418324],[-70.628186,-33.418341],[-70.628417,-33.418291],[-70.628593,-33.418282],[-70.628787,-33.418289],[-70.62884,-33.41825],[-70.628868,-33.418207],[-70.628861,-33.418164],[-70.628825,-33.418119],[-70.628752,-33.418106],[-70.628613,-33.418102],[-70.628497,-33.418125],[-70.628374,-33.418172],[-70.628224,-33.418205],[-70.628099,-33.418208],[-70.627988,-33.418172],[-70.627701,-33.418008],[-70.627528,-33.417919],[-70.627348,-33.417851],[-70.62642,-33.417575],[-70.625998,-33.417418],[-70.62592,-33.417408],[-70.625814,-33.417425],[-70.625651,-33.417492],[-70.625297,-33.417577],[-70.6252,-33.417586],[-70.625077,-33.417584],[-70.624961,-33.417532],[-70.624825,-33.417389],[-70.624413,-33.416984],[-70.624126,-33.416716],[-70.624061,-33.416645],[-70.624009,-33.416598],[-70.623928,-33.416558],[-70.623863,-33.416542],[-70.623791,-33.416536],[-70.623686,-33.416542],[-70.623567,-33.416606],[-70.623535,-33.416649],[-70.623485,-33.41682],[-70.623467,-33.416859],[-70.623445,-33.416878],[-70.623351,-33.41689],[-70.623291,-33.416861],[-70.623222,-33.416803],[-70.623154,-33.416719],[-70.623081,-33.416607],[-70.623057,-33.416565],[-70.622975,-33.416341],[-70.622924,-33.41623]]}},{"type":"Feature","properties":{"highway":"residential","name":"Avenida Abate Molina","surface":"asphalt","osm":"way/480868638"},"geometry":{"type":"LineString","coordinates":[[-70.621126,-33.41381],[-70.62076,-33.413798]]}},{"type":"Feature","properties":{"highway":"residential","name":"Avenida Pedro Bannen","surface":"asphalt","osm":"way/482748524"},"geometry":{"type":"LineString","coordinates":[[-70.622581,-33.415885],[-70.622764,-33.415946],[-70.622899,-33.416033],[-70.623005,-33.416121]]}},{"type":"Feature","properties":{"highway":"residential","name":"Avenida Pedro Bannen","surface":"asphalt","osm":"way/482748525"},"geometry":{"type":"LineString","coordinates":[[-70.622924,-33.41623],[-70.622847,-33.416127],[-70.622688,-33.415996],[-70.622581,-33.415885]]}},{"type":"Feature","properties":{"highway":"residential","name":"Carlos Reed","surface":"asphalt","osm":"way/483274616"},"geometry":{"type":"LineString","coordinates":[[-70.625099,-33.425528],[-70.624154,-33.425847]]}},{"type":"Feature","properties":{"access":"private","highway":"service","osm":"way/483278531"},"geometry":{"type":"LineString","coordinates":[[-70.639116,-33.426871],[-70.639003,-33.426863],[-70.638976,-33.426873],[-70.638967,-33.426894],[-70.638969,-33.427051],[-70.639027,-33.427219]]}},{"type":"Feature","properties":{"highway":"service","osm":"way/483284634"},"geometry":{"type":"LineString","coordinates":[[-70.621108,-33.414257],[-70.621452,-33.414644],[-70.621534,-33.414704],[-70.621603,-33.414728],[-70.621829,-33.414758],[-70.621856,-33.414775],[-70.621855,-33.414797],[-70.621815,-33.414842],[-70.621741,-33.414857],[-70.621614,-33.414856],[-70.621432,-33.414882]]}},{"type":"Feature","properties":{"access":"yes","bicycle":"yes","highway":"residential","name":"Avenida La Montaña","surface":"paved","osm":"way/520212770"},"geometry":{"type":"LineString","coordinates":[[-70.620027,-33.399864],[-70.619914,-33.399853],[-70.619763,-33.399893],[-70.619624,-33.399902],[-70.619453,-33.399958],[-70.619089,-33.400085],[-70.618705,-33.400317],[-70.618227,-33.400649],[-70.617841,-33.400976],[-70.617581,-33.401268],[-70.617471,-33.401469],[-70.617435,-33.401613],[-70.617424,-33.401713],[-70.617414,-33.401825],[-70.617423,-33.401997],[-70.617444,-33.402119],[-70.617483,-33.402277],[-70.617732,-33.402709],[-70.617773,-33.40279],[-70.617801,-33.402886],[-70.617816,-33.402978],[-70.617811,-33.403155],[-70.617779,-33.403335],[-70.617783,-33.40343],[-70.617813,-33.403548],[-70.617885,-33.403641],[-70.617966,-33.403703],[-70.618016,-33.403732],[-70.618098,-33.403764],[-70.618182,-33.403775],[-70.618425,-33.403772],[-70.618516,-33.403778],[-70.618633,-33.403822],[-70.618719,-33.403895],[-70.618768,-33.403978],[-70.618852,-33.40453],[-70.618842,-33.404703],[-70.618792,-33.404836],[-70.618678,-33.404968],[-70.618576,-33.405039],[-70.618383,-33.405108],[-70.618114,-33.40509],[-70.617785,-33.405014],[-70.61772,-33.405006],[-70.617628,-33.405011],[-70.617539,-33.40503],[-70.617435,-33.405075],[-70.617311,-33.405182],[-70.617261,-33.405259]]}},{"type":"Feature","properties":{"access":"private","highway":"service","osm":"way/521237784"},"geometry":{"type":"LineString","coordinates":[[-70.617747,-33.411953],[-70.617902,-33.411992],[-70.618191,-33.412099],[-70.618403,-33.412155],[-70.61869,-33.412162],[-70.618994,-33.412096],[-70.619007,-33.412201],[-70.619383,-33.412295],[-70.619633,-33.412252],[-70.620034,-33.412349]]}},{"type":"Feature","properties":{"access":"private","highway":"service","name":"Grupo de Adiestramiento Canino","osm":"way/521237785"},"geometry":{"type":"LineString","coordinates":[[-70.620016,-33.410928],[-70.62007,-33.410921],[-70.620097,-33.410901],[-70.620131,-33.410856],[-70.620185,-33.41074],[-70.620242,-33.410717],[-70.620392,-33.41074],[-70.62041,-33.410791],[-70.620386,-33.410961],[-70.620384,-33.411026],[-70.620557,-33.411399],[-70.620529,-33.411468],[-70.620067,-33.412047],[-70.620034,-33.412349],[-70.620252,-33.413155]]}},{"type":"Feature","properties":{"highway":"residential","name":"Michel Nash Saéz","osm":"way/543408734"},"geometry":{"type":"LineString","coordinates":[[-70.639574,-33.422244],[-70.639616,-33.422],[-70.639638,-33.421968]]}},{"type":"Feature","properties":{"access":"no","highway":"service","osm":"way/555001281"},"geometry":{"type":"LineString","coordinates":[[-70.622571,-33.414468],[-70.622595,-33.414624],[-70.62264,-33.414743],[-70.622702,-33.41481],[-70.622815,-33.414859],[-70.623008,-33.414899],[-70.623123,-33.414949],[-70.62341,-33.415126]]}},{"type":"Feature","properties":{"highway":"service","name":"Acceso Establos","surface":"paved","osm":"way/600387506"},"geometry":{"type":"LineString","coordinates":[[-70.611884,-33.409644],[-70.611729,-33.409542],[-70.61163,-33.40935],[-70.611493,-33.408937],[-70.61132,-33.408796],[-70.611135,-33.408335],[-70.611047,-33.408359]]}},{"type":"Feature","properties":{"highway":"residential","name":"Venezuela","surface":"concrete","osm":"way/603206871"},"geometry":{"type":"LineString","coordinates":[[-70.619226,-33.406261],[-70.619481,-33.406237],[-70.620734,-33.405995]]}},{"type":"Feature","properties":{"highway":"service","osm":"way/649252676"},"geometry":{"type":"LineString","coordinates":[[-70.638941,-33.425887],[-70.638796,-33.426032],[-70.638781,-33.426108],[-70.638807,-33.426195],[-70.63902,-33.426594]]}},{"type":"Feature","properties":{"access":"no","highway":"service","surface":"asphalt","osm":"way/709861370"},"geometry":{"type":"LineString","coordinates":[[-70.606328,-33.407802],[-70.605552,-33.406299]]}},{"type":"Feature","properties":{"bicycle":"dismount","highway":"service","surface":"sett","osm":"way/726533787"},"geometry":{"type":"LineString","coordinates":[[-70.631985,-33.425209],[-70.631978,-33.425004],[-70.632051,-33.424634],[-70.63215,-33.424406],[-70.632247,-33.424248],[-70.632386,-33.42391]]}},{"type":"Feature","properties":{"highway":"service","osm":"way/727333975"},"geometry":{"type":"LineString","coordinates":[[-70.605349,-33.407171],[-70.605468,-33.407319],[-70.605564,-33.407409],[-70.605605,-33.407436],[-70.605644,-33.407445]]}},{"type":"Feature","properties":{"access":"no","highway":"service","surface":"asphalt","osm":"way/741162892"},"geometry":{"type":"LineString","coordinates":[[-70.605942,-33.407894],[-70.606047,-33.407899],[-70.606328,-33.407802],[-70.606893,-33.407624]]}},{"type":"Feature","properties":{"access":"no","bicycle":"yes","highway":"service","surface":"asphalt","osm":"way/741162907"},"geometry":{"type":"LineString","coordinates":[[-70.606798,-33.408996],[-70.606789,-33.408857],[-70.606821,-33.408734],[-70.606828,-33.408613],[-70.606824,-33.408563],[-70.606779,-33.408363],[-70.606814,-33.408268],[-70.606939,-33.408048],[-70.607115,-33.40785],[-70.60712,-33.407815],[-70.607107,-33.407774],[-70.607003,-33.40768],[-70.606893,-33.407624],[-70.606836,-33.407546],[-70.606853,-33.407412],[-70.606577,-33.406827],[-70.606487,-33.406661],[-70.606446,-33.406608],[-70.606368,-33.406556],[-70.605975,-33.40639],[-70.60567,-33.406297],[-70.605552,-33.406299]]}},{"type":"Feature","properties":{"highway":"residential","name":"Avenida Abate Molina","surface":"asphalt","osm":"way/741162913"},"geometry":{"type":"LineString","coordinates":[[-70.619253,-33.416321],[-70.619214,-33.416304],[-70.6186,-33.415727],[-70.618537,-33.415653],[-70.618376,-33.41554],[-70.61775,-33.415173],[-70.617702,-33.415158],[-70.617606,-33.415154],[-70.617565,-33.415171],[-70.617527,-33.415219]]}},{"type":"Feature","properties":{"highway":"service","osm":"way/741162923"},"geometry":{"type":"LineString","coordinates":[[-70.638053,-33.428036],[-70.63843,-33.42782],[-70.638465,-33.427776],[-70.638482,-33.427674],[-70.638473,-33.427504],[-70.638447,-33.42741],[-70.638454,-33.427385],[-70.638482,-33.427373],[-70.638525,-33.427384],[-70.638636,-33.42748],[-70.638741,-33.427623],[-70.638948,-33.427854]]}},{"type":"Feature","properties":{"highway":"tertiary","name":"Comodoro Arturo Merino Benítez","surface":"paved","osm":"way/744211388"},"geometry":{"type":"LineString","coordinates":[[-70.621758,-33.42065],[-70.621811,-33.420835],[-70.621869,-33.42096],[-70.622109,-33.421382],[-70.622413,-33.421882]]}},{"type":"Feature","properties":{"highway":"service","surface":"concrete","osm":"way/749564826"},"geometry":{"type":"LineString","coordinates":[[-70.61716,-33.41543],[-70.617246,-33.415464],[-70.617285,-33.415489],[-70.617351,-33.415566]]}},{"type":"Feature","properties":{"highway":"tertiary","name":"Avenida Pedro de Valdivia Norte","surface":"concrete","osm":"way/749565461"},"geometry":{"type":"LineString","coordinates":[[-70.617351,-33.415566],[-70.617248,-33.415777]]}},{"type":"Feature","properties":{"highway":"residential","name":"Avenida El Cerro","surface":"concrete","osm":"way/749565462"},"geometry":{"type":"LineString","coordinates":[[-70.61716,-33.41543],[-70.617293,-33.415433],[-70.617414,-33.415461]]}},{"type":"Feature","properties":{"access":"no","highway":"service","name":"Camino El Excursionista","surface":"asphalt","osm":"way/827960504"},"geometry":{"type":"LineString","coordinates":[[-70.625999,-33.425518],[-70.626089,-33.42539],[-70.626415,-33.425387],[-70.626562,-33.425425],[-70.626719,-33.425493],[-70.626928,-33.4256],[-70.627016,-33.425656],[-70.627137,-33.425762],[-70.627204,-33.425804],[-70.627639,-33.426039],[-70.627869,-33.426272],[-70.627958,-33.426323],[-70.628569,-33.426581],[-70.628706,-33.426657],[-70.62927,-33.427073],[-70.629444,-33.427264],[-70.629508,-33.427313],[-70.629572,-33.427349],[-70.629814,-33.427649],[-70.630189,-33.428022],[-70.630356,-33.428177],[-70.63046,-33.428251],[-70.630774,-33.428443],[-70.630814,-33.428479],[-70.630871,-33.428562],[-70.631169,-33.428759],[-70.631319,-33.428869],[-70.631472,-33.428983],[-70.631665,-33.429151],[-70.631759,-33.429209],[-70.631855,-33.429245],[-70.631968,-33.429258],[-70.632048,-33.429245],[-70.63208,-33.42922],[-70.632086,-33.429178],[-70.632072,-33.42913],[-70.632021,-33.429068],[-70.631598,-33.428781],[-70.631388,-33.428584],[-70.631211,-33.428399],[-70.631064,-33.428166],[-70.630656,-33.427393],[-70.630586,-33.427228],[-70.630511,-33.427093],[-70.630415,-33.426957],[-70.630291,-33.426818],[-70.630144,-33.426673],[-70.629983,-33.426529],[-70.629865,-33.426411],[-70.629803,-33.426335],[-70.629782,-33.42627],[-70.629817,-33.426193],[-70.629881,-33.426171]]}},{"type":"Feature","properties":{"highway":"living_street","name":"Anáhuac","surface":"asphalt","osm":"way/888762642"},"geometry":{"type":"LineString","coordinates":[[-70.623351,-33.41689],[-70.623357,-33.416965],[-70.6234,-33.417035],[-70.623634,-33.417245],[-70.623706,-33.417368]]}},{"type":"Feature","properties":{"highway":"living_street","name":"Casa Anáhuac","surface":"asphalt","osm":"way/888762643"},"geometry":{"type":"LineString","coordinates":[[-70.623461,-33.41709],[-70.623504,-33.417091],[-70.623567,-33.417051],[-70.623583,-33.417008],[-70.623595,-33.416876],[-70.623611,-33.416818],[-70.623654,-33.41675],[-70.623697,-33.416716]]}},{"type":"Feature","properties":{"access":"private","highway":"service","surface":"dirt","osm":"way/888762648"},"geometry":{"type":"LineString","coordinates":[[-70.631244,-33.423359],[-70.631258,-33.423636],[-70.631252,-33.423886],[-70.631292,-33.424055],[-70.63131,-33.424175],[-70.631316,-33.42429],[-70.631297,-33.424328],[-70.631267,-33.424357],[-70.631216,-33.424366]]}},{"type":"Feature","properties":{"access":"private","highway":"service","surface":"unpaved","osm":"way/908916612"},"geometry":{"type":"LineString","coordinates":[[-70.616944,-33.415238],[-70.616292,-33.415237],[-70.615248,-33.415264]]}},{"type":"Feature","properties":{"highway":"residential","name":"Avenida Carlos Reed","surface":"asphalt","osm":"way/909201230"},"geometry":{"type":"LineString","coordinates":[[-70.635749,-33.429817],[-70.635928,-33.429611],[-70.63604,-33.429508],[-70.63616,-33.429462]]}},{"type":"Feature","properties":{"highway":"living_street","name":"Abraham Lincoln","osm":"way/919016844"},"geometry":{"type":"LineString","coordinates":[[-70.626957,-33.41488],[-70.626863,-33.414867],[-70.626516,-33.414968],[-70.626307,-33.415006],[-70.625993,-33.415037]]}},{"type":"Feature","properties":{"highway":"residential","name":"Avenida Alberto Mackenna","surface":"asphalt","osm":"way/919288128"},"geometry":{"type":"LineString","coordinates":[[-70.636273,-33.43069],[-70.636154,-33.430446]]}},{"type":"Feature","properties":{"highway":"service","name":"Camino Rafael Elizalde","osm":"way/919288157"},"geometry":{"type":"LineString","coordinates":[[-70.616149,-33.414666],[-70.61606,-33.414641],[-70.616008,-33.414603],[-70.615991,-33.414504],[-70.616002,-33.414362]]}},{"type":"Feature","properties":{"highway":"residential","name":"Avenida Alberto Mackenna","surface":"sett","osm":"way/922756659"},"geometry":{"type":"LineString","coordinates":[[-70.636154,-33.430446],[-70.63628,-33.43054],[-70.636347,-33.430554]]}},{"type":"Feature","properties":{"highway":"residential","name":"Avenida Carlos Reed","surface":"asphalt","osm":"way/922756671"},"geometry":{"type":"LineString","coordinates":[[-70.634272,-33.430716],[-70.634398,-33.430673],[-70.634522,-33.430604],[-70.634804,-33.430397],[-70.635344,-33.430156],[-70.635426,-33.430102],[-70.635548,-33.430002],[-70.63569,-33.429872]]}},{"type":"Feature","properties":{"highway":"residential","name":"Avenida Pedro Bannen","surface":"sett","osm":"way/923017128"},"geometry":{"type":"LineString","coordinates":[[-70.632583,-33.424026],[-70.632516,-33.424028],[-70.632474,-33.424016],[-70.632426,-33.423987],[-70.632406,-33.423961],[-70.632386,-33.42391]]}},{"type":"Feature","properties":{"access":"private","highway":"service","surface":"concrete","osm":"way/927939651"},"geometry":{"type":"LineString","coordinates":[[-70.629555,-33.420268],[-70.629784,-33.420564],[-70.629893,-33.420688],[-70.62996,-33.420745],[-70.630016,-33.420776],[-70.63022,-33.42083],[-70.630294,-33.420832],[-70.630401,-33.42082]]}},{"type":"Feature","properties":{"access":"private","highway":"service","surface":"concrete","osm":"way/927939652"},"geometry":{"type":"LineString","coordinates":[[-70.629842,-33.420732],[-70.630016,-33.420776],[-70.630109,-33.420783],[-70.63018,-33.420772],[-70.630332,-33.420709],[-70.630361,-33.42069],[-70.630363,-33.420676],[-70.630347,-33.420672],[-70.630229,-33.420702],[-70.630144,-33.420645]]}},{"type":"Feature","properties":{"access":"private","highway":"service","osm":"way/928722748"},"geometry":{"type":"LineString","coordinates":[[-70.620168,-33.411456],[-70.620243,-33.411032]]}},{"type":"Feature","properties":{"access":"private","highway":"service","surface":"concrete","osm":"way/928722749"},"geometry":{"type":"LineString","coordinates":[[-70.620067,-33.412047],[-70.620104,-33.411597],[-70.620168,-33.411456]]}},{"type":"Feature","properties":{"access":"private","highway":"service","osm":"way/928722750"},"geometry":{"type":"LineString","coordinates":[[-70.620243,-33.411032],[-70.620295,-33.410724]]}},{"type":"Feature","properties":{"access":"private","highway":"service","surface":"concrete","osm":"way/928722756"},"geometry":{"type":"LineString","coordinates":[[-70.61997,-33.411638],[-70.620049,-33.411517],[-70.620088,-33.411495],[-70.620275,-33.411507]]}},{"type":"Feature","properties":{"access":"private","highway":"service","surface":"ground","osm":"way/928722771"},"geometry":{"type":"LineString","coordinates":[[-70.620393,-33.411639],[-70.62055,-33.411707],[-70.620582,-33.41174],[-70.620621,-33.412048],[-70.620605,-33.412324]]}},{"type":"Feature","properties":{"highway":"residential","name":"Avenida Pedro Bannen","surface":"sett","osm":"way/929919509"},"geometry":{"type":"LineString","coordinates":[[-70.632405,-33.423803],[-70.632407,-33.423735],[-70.63235,-33.42359]]}},{"type":"Feature","properties":{"highway":"residential","name":"Avenida Pedro Bannen","surface":"sett","osm":"way/929919512"},"geometry":{"type":"LineString","coordinates":[[-70.63235,-33.42359],[-70.63256,-33.423744]]}},{"type":"Feature","properties":{"access":"no","highway":"service","surface":"ground","osm":"way/943439463"},"geometry":{"type":"LineString","coordinates":[[-70.630651,-33.426647],[-70.630869,-33.427054],[-70.631415,-33.427605],[-70.631741,-33.427904],[-70.632359,-33.428326],[-70.63248,-33.428346],[-70.632721,-33.42831],[-70.63283,-33.428279],[-70.63306,-33.428172],[-70.633227,-33.428068],[-70.633351,-33.427979],[-70.63352,-33.42789],[-70.63371,-33.427827],[-70.634227,-33.427741]]}},{"type":"Feature","properties":{"highway":"tertiary","name":"Avenida El Cerro","surface":"concrete","osm":"way/943439472"},"geometry":{"type":"LineString","coordinates":[[-70.622569,-33.422141],[-70.622667,-33.422408],[-70.6227,-33.422559]]}},{"type":"Feature","properties":{"access":"permissive","highway":"service","name":"Estacionamientos ParqueMet","surface":"unpaved","osm":"way/981089806"},"geometry":{"type":"LineString","coordinates":[[-70.621439,-33.419083],[-70.621521,-33.41905],[-70.621539,-33.419033],[-70.621499,-33.418921],[-70.621442,-33.418787],[-70.621356,-33.418619],[-70.621241,-33.418493],[-70.621152,-33.418368]]}},{"type":"Feature","properties":{"highway":"residential","name":"Montecarmelo","surface":"asphalt","osm":"way/987543838"},"geometry":{"type":"LineString","coordinates":[[-70.62848,-33.42814],[-70.628672,-33.42778]]}},{"type":"Feature","properties":{"highway":"service","surface":"asphalt","osm":"way/987543841"},"geometry":{"type":"LineString","coordinates":[[-70.622724,-33.423717],[-70.622736,-33.423679],[-70.622725,-33.423421]]}},{"type":"Feature","properties":{"highway":"service","osm":"way/1016039979"},"geometry":{"type":"LineString","coordinates":[[-70.635518,-33.430847],[-70.635351,-33.430636]]}},{"type":"Feature","properties":{"highway":"tertiary","name":"Avenida El Cerro","surface":"concrete","osm":"way/1020412210"},"geometry":{"type":"LineString","coordinates":[[-70.622265,-33.421818],[-70.621983,-33.421415],[-70.621827,-33.421146]]}},{"type":"Feature","properties":{"highway":"tertiary","name":"Comodoro Arturo Merino Benítez","surface":"concrete","osm":"way/1020412211"},"geometry":{"type":"LineString","coordinates":[[-70.622569,-33.422141],[-70.622751,-33.422441],[-70.622797,-33.422535],[-70.622901,-33.422823],[-70.622963,-33.42305]]}},{"type":"Feature","properties":{"highway":"residential","name":"Bombero Ramón Cornejo Núñez","surface":"concrete","osm":"way/1030567988"},"geometry":{"type":"LineString","coordinates":[[-70.619804,-33.404057],[-70.620083,-33.403912]]}},{"type":"Feature","properties":{"access":"private","bicycle":"no","highway":"service","surface":"asphalt","osm":"way/1082217193"},"geometry":{"type":"LineString","coordinates":[[-70.62221,-33.413356],[-70.622269,-33.413515],[-70.622266,-33.413678],[-70.622013,-33.41401]]}},{"type":"Feature","properties":{"highway":"tertiary","name":"Avenida El Cerro","surface":"concrete","osm":"way/1111998657"},"geometry":{"type":"LineString","coordinates":[[-70.62149,-33.420078],[-70.621385,-33.419591],[-70.621372,-33.419463]]}},{"type":"Feature","properties":{"highway":"tertiary","name":"Comodoro Arturo Merino Benítez","surface":"concrete","osm":"way/1111998658"},"geometry":{"type":"LineString","coordinates":[[-70.621636,-33.420063],[-70.621677,-33.420213],[-70.621758,-33.42065]]}},{"type":"Feature","properties":{"access":"no","highway":"service","surface":"ground","osm":"way/1187981342"},"geometry":{"type":"LineString","coordinates":[[-70.634335,-33.427705],[-70.634463,-33.427715],[-70.634574,-33.427696],[-70.634716,-33.427629],[-70.635028,-33.427351],[-70.635361,-33.427007]]}},{"type":"Feature","properties":{"highway":"tertiary","name":"Avenida El Cerro","surface":"asphalt","osm":"way/1190947619"},"geometry":{"type":"LineString","coordinates":[[-70.623302,-33.425795],[-70.623184,-33.425456]]}},{"type":"Feature","properties":{"highway":"tertiary","name":"Avenida El Cerro","surface":"asphalt","osm":"way/1190947621"},"geometry":{"type":"LineString","coordinates":[[-70.622878,-33.424045],[-70.622854,-33.42377],[-70.622825,-33.42321],[-70.622807,-33.423055],[-70.622782,-33.4229],[-70.6227,-33.422559]]}},{"type":"Feature","properties":{"highway":"residential","name":"Los Turistas","surface":"concrete","osm":"way/1199349403"},"geometry":{"type":"LineString","coordinates":[[-70.620164,-33.400233],[-70.62017,-33.400165],[-70.62018,-33.400136],[-70.620231,-33.400044]]}},{"type":"Feature","properties":{"highway":"service","osm":"way/1221222059"},"geometry":{"type":"LineString","coordinates":[[-70.62084,-33.418323],[-70.620377,-33.417906]]}},{"type":"Feature","properties":{"highway":"unclassified","name":"Avenida El Cerro","surface":"concrete","osm":"way/1223734900"},"geometry":{"type":"LineString","coordinates":[[-70.622725,-33.423421],[-70.62274,-33.423328],[-70.62274,-33.423274],[-70.622671,-33.422798],[-70.622618,-33.422603],[-70.622466,-33.422195],[-70.622444,-33.422097]]}},{"type":"Feature","properties":{"highway":"residential","name":"Avenida La Montaña","surface":"asphalt","osm":"way/1223734901"},"geometry":{"type":"LineString","coordinates":[[-70.621481,-33.413857],[-70.621199,-33.41382]]}},{"type":"Feature","properties":{"highway":"living_street","name":"Pasaje Manuel Rodríguez Erdoíza","osm":"way/1233612924"},"geometry":{"type":"LineString","coordinates":[[-70.634419,-33.416613],[-70.634178,-33.416463]]}},{"type":"Feature","properties":{"highway":"residential","name":"Arbilu","osm":"way/1233612925"},"geometry":{"type":"LineString","coordinates":[[-70.630521,-33.413438],[-70.630683,-33.41345],[-70.631614,-33.413718]]}},{"type":"Feature","properties":{"highway":"residential","name":"Comandante Véliz","surface":"asphalt","osm":"way/1233612926"},"geometry":{"type":"LineString","coordinates":[[-70.631338,-33.414095],[-70.631614,-33.413718]]}},{"type":"Feature","properties":{"access":"yes","bicycle":"yes","highway":"living_street","mtb:scale":"0","name":"Abraham Lincoln","sac_scale":"hiking","surface":"asphalt","osm":"way/1233612934"},"geometry":{"type":"LineString","coordinates":[[-70.627807,-33.415205],[-70.627767,-33.415166],[-70.627713,-33.415095],[-70.627536,-33.414808],[-70.627472,-33.414746],[-70.627385,-33.414714],[-70.62731,-33.414715],[-70.627214,-33.41475],[-70.627055,-33.414822],[-70.626865,-33.414928],[-70.626667,-33.415023],[-70.626615,-33.415036],[-70.626202,-33.415098],[-70.625759,-33.415136],[-70.625648,-33.415103],[-70.62536,-33.414855],[-70.625306,-33.414767],[-70.625136,-33.414545],[-70.624831,-33.414224],[-70.624745,-33.414148],[-70.624565,-33.413966],[-70.624336,-33.413791],[-70.624143,-33.413624],[-70.623819,-33.413378],[-70.623368,-33.412858]]}},{"type":"Feature","properties":{"highway":"residential","name":"Venezuela","surface":"concrete","osm":"way/1281354743"},"geometry":{"type":"LineString","coordinates":[[-70.620708,-33.405941],[-70.621311,-33.40563]]}},{"type":"Feature","properties":{"highway":"residential","name":"Avenida Abate Molina","surface":"asphalt","osm":"way/1308348020"},"geometry":{"type":"LineString","coordinates":[[-70.62076,-33.413798],[-70.620431,-33.413753],[-70.619663,-33.413532],[-70.619539,-33.413514],[-70.619346,-33.413522],[-70.618894,-33.413427],[-70.61849,-33.413396],[-70.618307,-33.413412],[-70.618138,-33.413438],[-70.618046,-33.413435],[-70.617957,-33.413401],[-70.617849,-33.413316],[-70.61778,-33.413243],[-70.61764,-33.413022],[-70.617556,-33.412941],[-70.617398,-33.412827],[-70.617283,-33.412759],[-70.617179,-33.412735],[-70.616958,-33.412734],[-70.616734,-33.412813],[-70.616627,-33.412884],[-70.616512,-33.412926],[-70.616332,-33.412957],[-70.615996,-33.412986],[-70.61574,-33.413033],[-70.615624,-33.413102]]}},{"type":"Feature","properties":{"highway":"residential","name":"Avenida Abate Molina","surface":"asphalt","osm":"way/1308348021"},"geometry":{"type":"LineString","coordinates":[[-70.615624,-33.413102],[-70.615433,-33.413389],[-70.615356,-33.41348],[-70.615289,-33.413532],[-70.615163,-33.413598],[-70.615062,-33.41362],[-70.614961,-33.413633],[-70.614756,-33.413636],[-70.614692,-33.413649],[-70.614644,-33.41368],[-70.614624,-33.413715],[-70.614643,-33.413768],[-70.614678,-33.413801]]}},{"type":"Feature","properties":{"highway":"service","name":"Zona Operativa ParqueMet","osm":"way/1309498674"},"geometry":{"type":"LineString","coordinates":[[-70.622013,-33.41401],[-70.621772,-33.413898],[-70.621481,-33.413857]]}},{"type":"Feature","properties":{"access":"private","highway":"service","surface":"ground","osm":"way/1316047262"},"geometry":{"type":"LineString","coordinates":[[-70.610766,-33.408016],[-70.611168,-33.408113],[-70.611231,-33.408148],[-70.611276,-33.408186],[-70.611322,-33.408254],[-70.611484,-33.408848],[-70.611493,-33.408937]]}},{"type":"Feature","properties":{"highway":"residential","name":"Avenida Abate Molina","surface":"asphalt","osm":"way/1343882814"},"geometry":{"type":"LineString","coordinates":[[-70.617527,-33.415219],[-70.617546,-33.415267],[-70.617504,-33.415371],[-70.617448,-33.415396]]}},{"type":"Feature","properties":{"highway":"service","name":"Camino Rafael Elizalde","osm":"way/1343882815"},"geometry":{"type":"LineString","coordinates":[[-70.617527,-33.415219],[-70.616999,-33.415009],[-70.616311,-33.414708],[-70.616242,-33.414688]]}},{"type":"Feature","properties":{"highway":"tertiary","name":"Avenida El Cerro","surface":"asphalt","osm":"way/1343886628"},"geometry":{"type":"LineString","coordinates":[[-70.623184,-33.425456],[-70.623081,-33.425058]]}},{"type":"Feature","properties":{"access":"private","highway":"service","surface":"ground","osm":"way/1363328733"},"geometry":{"type":"LineString","coordinates":[[-70.630493,-33.422249],[-70.630545,-33.422318],[-70.630584,-33.422402],[-70.630579,-33.422441],[-70.63055,-33.422507],[-70.630551,-33.422538],[-70.630566,-33.422592],[-70.630592,-33.422643],[-70.630653,-33.422729],[-70.630736,-33.422826],[-70.630869,-33.422944],[-70.631107,-33.423104],[-70.631164,-33.42315],[-70.631216,-33.423224],[-70.631236,-33.423285],[-70.631244,-33.423359]]}},{"type":"Feature","properties":{"highway":"residential","name":"Alcalde Dávalos","surface":"concrete","osm":"way/1364106485"},"geometry":{"type":"LineString","coordinates":[[-70.627888,-33.42724],[-70.627947,-33.427128],[-70.627995,-33.427162],[-70.628,-33.427177],[-70.627956,-33.427264]]}},{"type":"Feature","properties":{"access":"private","highway":"service","osm":"way/1364106487"},"geometry":{"type":"LineString","coordinates":[[-70.627884,-33.427098],[-70.627709,-33.42701],[-70.62764,-33.426955],[-70.627552,-33.426913]]}},{"type":"Feature","properties":{"access":"no","highway":"service","name":"Camino El Excursionista","surface":"asphalt","osm":"way/1430741446"},"geometry":{"type":"LineString","coordinates":[[-70.629881,-33.426171],[-70.629983,-33.42618],[-70.630085,-33.42624],[-70.630651,-33.426647]]}},{"type":"Feature","properties":{"highway":"residential","surface":"asphalt","osm":"way/1492282853"},"geometry":{"type":"LineString","coordinates":[[-70.62033,-33.400136],[-70.620306,-33.400134],[-70.620264,-33.400116],[-70.620237,-33.400084],[-70.620231,-33.400064],[-70.620236,-33.400028],[-70.620257,-33.399999],[-70.620317,-33.399974],[-70.620382,-33.399988],[-70.620412,-33.400016],[-70.620424,-33.400052],[-70.620404,-33.400104],[-70.62037,-33.400128],[-70.62033,-33.400136]]}}],"properties":{"fuente":"© colaboradores de OpenStreetMap (ODbL)","capa":"caminos"}}