{"type":"FeatureCollection","features":[{"type":"Feature","properties":{"highway":"cycleway","name":"Ciclovía Bilbao","surface":"asphalt","osm":"way/13899124"},"geometry":{"type":"LineString","coordinates":[[-70.611776,-33.437046],[-70.611735,-33.437113],[-70.611688,-33.437195],[-70.611679,-33.43721],[-70.611605,-33.437183],[-70.611469,-33.437595],[-70.611346,-33.437967],[-70.611219,-33.438354],[-70.611207,-33.438393],[-70.611285,-33.438412],[-70.611263,-33.438478],[-70.611233,-33.438552],[-70.611272,-33.438561],[-70.612918,-33.438919],[-70.613634,-33.439048],[-70.613621,-33.439095],[-70.613602,-33.439157],[-70.613713,-33.439184],[-70.613786,-33.439201]]}},{"type":"Feature","properties":{"highway":"cycleway","name":"Ciclovia Bustamante","osm":"way/23404619"},"geometry":{"type":"LineString","coordinates":[[-70.633629,-33.437493],[-70.633296,-33.437411],[-70.633072,-33.437334],[-70.633001,-33.43726]]}},{"type":"Feature","properties":{"highway":"cycleway","surface":"paving_stones","osm":"way/44707781"},"geometry":{"type":"LineString","coordinates":[[-70.619479,-33.428573],[-70.618563,-33.428205],[-70.618334,-33.428065]]}},{"type":"Feature","properties":{"highway":"cycleway","osm":"way/53622195"},"geometry":{"type":"LineString","coordinates":[[-70.62661,-33.433445],[-70.626575,-33.433383],[-70.626531,-33.433292],[-70.626511,-33.433191],[-70.626464,-33.432944],[-70.626477,-33.432764]]}},{"type":"Feature","properties":{"highway":"cycleway","osm":"way/157040431"},"geometry":{"type":"LineString","coordinates":[[-70.632725,-33.437971],[-70.632794,-33.437836],[-70.632821,-33.437784],[-70.632982,-33.437528],[-70.633007,-33.437515],[-70.633025,-33.437484],[-70.63304,-33.437457],[-70.633046,-33.437437],[-70.633046,-33.437436],[-70.633039,-33.437407],[-70.633072,-33.437334]]}},{"type":"Feature","properties":{"bicycle":"permissive","highway":"cycleway","osm":"way/171702461"},"geometry":{"type":"LineString","coordinates":[[-70.608344,-33.416428],[-70.608364,-33.416447],[-70.608392,-33.416471],[-70.608452,-33.416545],[-70.608502,-33.416536],[-70.608531,-33.416569],[-70.609049,-33.41709],[-70.60907,-33.417106],[-70.609188,-33.41721],[-70.609275,-33.417296],[-70.609355,-33.417386],[-70.609461,-33.417451]]}},{"type":"Feature","properties":{"access":"yes","bicycle":"yes","highway":"living_street","mtb:scale":"0","name":"Canal El Carmen","sac_scale":"hiking","surface":"asphalt","osm":"way/179494266"},"geometry":{"type":"LineString","coordinates":[[-70.63827,-33.419577],[-70.638232,-33.419536],[-70.63802,-33.419307],[-70.637847,-33.419149],[-70.637488,-33.418817],[-70.637286,-33.418606],[-70.637194,-33.41851],[-70.637065,-33.418366],[-70.636429,-33.417518],[-70.636338,-33.417432],[-70.635803,-33.417176],[-70.635466,-33.417041],[-70.635287,-33.416988],[-70.635232,-33.416971],[-70.635067,-33.416965],[-70.63475,-33.416957],[-70.634472,-33.416951],[-70.634337,-33.416921],[-70.634242,-33.416859],[-70.634142,-33.416795],[-70.634035,-33.416736],[-70.633964,-33.416739],[-70.633873,-33.416757],[-70.633789,-33.416797],[-70.633712,-33.416844],[-70.633625,-33.416856],[-70.63346,-33.416827],[-70.633251,-33.416751],[-70.633143,-33.416651],[-70.633057,-33.416533],[-70.632947,-33.416295],[-70.632879,-33.416166],[-70.632839,-33.416096],[-70.632505,-33.415686],[-70.632367,-33.415532],[-70.632263,-33.415426],[-70.63208,-33.415279],[-70.631938,-33.41518],[-70.631566,-33.414909],[-70.631407,-33.414793],[-70.631172,-33.41463],[-70.630963,-33.414538],[-70.630706,-33.414432],[-70.630314,-33.414364],[-70.630226,-33.414352],[-70.630128,-33.414336],[-70.630006,-33.414325],[-70.629906,-33.414352],[-70.629775,-33.414398],[-70.629649,-33.414502],[-70.629575,-33.41458],[-70.629478,-33.414684],[-70.62936,-33.414709],[-70.629024,-33.414742],[-70.628876,-33.414804],[-70.628797,-33.414878],[-70.628683,-33.415008],[-70.628619,-33.41512],[-70.628558,-33.415242],[-70.628432,-33.415287],[-70.628368,-33.415328],[-70.62823,-33.415381],[-70.628124,-33.41539],[-70.62796,-33.415306],[-70.627874,-33.415259],[-70.627807,-33.415205]]}},{"type":"Feature","properties":{"highway":"cycleway","name":"Ciclovía Valdivieso","surface":"paved","osm":"way/214884037"},"geometry":{"type":"LineString","coordinates":[[-70.627241,-33.411069],[-70.627966,-33.411144],[-70.628358,-33.411183],[-70.628703,-33.41122],[-70.628943,-33.411247],[-70.62943,-33.411305],[-70.62974,-33.411337],[-70.630144,-33.411381],[-70.630525,-33.41142],[-70.630875,-33.411435],[-70.631594,-33.411428],[-70.632312,-33.411422],[-70.633094,-33.411414]]}},{"type":"Feature","properties":{"highway":"cycleway","name":"Ciclovía Andrés Bello","surface":"asphalt","osm":"way/293914268"},"geometry":{"type":"LineString","coordinates":[[-70.621735,-33.425102],[-70.621706,-33.425048],[-70.621613,-33.424908],[-70.621567,-33.424846],[-70.62138,-33.424669],[-70.620958,-33.424328],[-70.620521,-33.423986],[-70.620229,-33.423801],[-70.619928,-33.42364],[-70.619798,-33.423583],[-70.619042,-33.42323],[-70.618551,-33.423037],[-70.618054,-33.42287],[-70.617986,-33.422851],[-70.61785,-33.422813],[-70.617727,-33.42278],[-70.616413,-33.422431],[-70.61498,-33.421987],[-70.614378,-33.421818],[-70.614254,-33.421773],[-70.614173,-33.421745],[-70.613546,-33.421483],[-70.613,-33.421221],[-70.612273,-33.420803],[-70.612125,-33.420715],[-70.611351,-33.420192],[-70.611286,-33.420139],[-70.611208,-33.42009],[-70.611149,-33.420052],[-70.610641,-33.419695],[-70.609623,-33.418855],[-70.609604,-33.418806],[-70.609536,-33.418755],[-70.609474,-33.418714],[-70.609435,-33.418673],[-70.608957,-33.418196],[-70.608947,-33.418182],[-70.608941,-33.418167],[-70.608924,-33.418098],[-70.608874,-33.418025],[-70.608882,-33.417966],[-70.608839,-33.417924],[-70.608662,-33.417778],[-70.608661,-33.417777],[-70.608635,-33.41776],[-70.608543,-33.417696],[-70.608247,-33.417431],[-70.607886,-33.417048],[-70.607812,-33.41695],[-70.607777,-33.416883],[-70.607756,-33.416844],[-70.607722,-33.4168],[-70.607642,-33.416727],[-70.607563,-33.416663],[-70.607469,-33.416604],[-70.607403,-33.41653],[-70.607384,-33.416508]]}},{"type":"Feature","properties":{"highway":"cycleway","osm":"way/303375530"},"geometry":{"type":"LineString","coordinates":[[-70.611628,-33.41897],[-70.61161,-33.418954],[-70.610593,-33.418149],[-70.610385,-33.418017],[-70.610281,-33.417995],[-70.610186,-33.417934],[-70.610109,-33.417852]]}},{"type":"Feature","properties":{"highway":"cycleway","osm":"way/303375536"},"geometry":{"type":"LineString","coordinates":[[-70.610109,-33.417852],[-70.610104,-33.417849],[-70.609945,-33.417752],[-70.609794,-33.417663],[-70.609605,-33.41755],[-70.609572,-33.417527],[-70.609461,-33.417451]]}},{"type":"Feature","properties":{"highway":"cycleway","surface":"asphalt","osm":"way/303375540"},"geometry":{"type":"LineString","coordinates":[[-70.618591,-33.422057],[-70.618519,-33.422049],[-70.618445,-33.422041],[-70.617965,-33.421861],[-70.617108,-33.421506],[-70.616932,-33.421441],[-70.616831,-33.421408],[-70.61679,-33.421395],[-70.616758,-33.421384],[-70.616595,-33.421331],[-70.615505,-33.421005],[-70.614906,-33.420818],[-70.614794,-33.42078],[-70.614762,-33.420766],[-70.614739,-33.420756],[-70.614717,-33.420746],[-70.614002,-33.420443],[-70.61383,-33.420366],[-70.613084,-33.419912],[-70.611852,-33.419105],[-70.611795,-33.419078]]}},{"type":"Feature","properties":{"highway":"cycleway","surface":"asphalt","osm":"way/303375543"},"geometry":{"type":"LineString","coordinates":[[-70.611795,-33.419078],[-70.611702,-33.419039],[-70.611636,-33.419012],[-70.611633,-33.418988],[-70.611628,-33.41897]]}},{"type":"Feature","properties":{"highway":"cycleway","surface":"paving_stones","osm":"way/327424245"},"geometry":{"type":"LineString","coordinates":[[-70.618378,-33.428028],[-70.618334,-33.428065],[-70.617879,-33.427901],[-70.617772,-33.427855]]}},{"type":"Feature","properties":{"highway":"cycleway","osm":"way/338713332"},"geometry":{"type":"LineString","coordinates":[[-70.596072,-33.388781],[-70.596129,-33.388798],[-70.596524,-33.389023],[-70.597075,-33.389305],[-70.597571,-33.389597],[-70.597963,-33.389885],[-70.599001,-33.390646],[-70.600042,-33.391488],[-70.600568,-33.391906],[-70.600795,-33.392144],[-70.601174,-33.39256],[-70.601375,-33.392842],[-70.601599,-33.39317],[-70.602234,-33.394231],[-70.602784,-33.395177],[-70.603002,-33.395545],[-70.60315,-33.395861],[-70.6033,-33.396242],[-70.603421,-33.39671],[-70.603484,-33.39714],[-70.603476,-33.397608],[-70.603429,-33.400139],[-70.603381,-33.400746],[-70.603308,-33.401148],[-70.603175,-33.401923],[-70.603002,-33.403107],[-70.603003,-33.403414],[-70.603019,-33.403662],[-70.603074,-33.403974],[-70.603149,-33.404301],[-70.603255,-33.404618],[-70.603471,-33.405137],[-70.603689,-33.40572],[-70.603913,-33.406362],[-70.604181,-33.407153],[-70.604418,-33.407768],[-70.604601,-33.408218],[-70.604805,-33.408702],[-70.605069,-33.409347],[-70.605285,-33.409868],[-70.605584,-33.41058],[-70.605597,-33.410625],[-70.605612,-33.410688],[-70.605616,-33.410739],[-70.605618,-33.410776],[-70.605612,-33.410821],[-70.60561,-33.410838],[-70.6056,-33.410911],[-70.605581,-33.411052]]}},{"type":"Feature","properties":{"highway":"cycleway","name":"Ciclovía Costanera Sur","surface":"asphalt","osm":"way/345827673"},"geometry":{"type":"LineString","coordinates":[[-70.605581,-33.411052],[-70.605577,-33.411122],[-70.605612,-33.411401],[-70.605667,-33.411891],[-70.605677,-33.412096],[-70.605682,-33.4122],[-70.605706,-33.41272],[-70.605708,-33.412757],[-70.605722,-33.413009],[-70.605786,-33.414119],[-70.605811,-33.414371],[-70.605821,-33.41442],[-70.605824,-33.41447],[-70.605852,-33.414556],[-70.6059,-33.41469],[-70.605952,-33.414793],[-70.60603,-33.414898],[-70.606155,-33.415033],[-70.606354,-33.415228],[-70.60648,-33.415362],[-70.606714,-33.415687],[-70.60691,-33.415983],[-70.606956,-33.416036]]}},{"type":"Feature","properties":{"highway":"cycleway","surface":"paved","osm":"way/362820445"},"geometry":{"type":"LineString","coordinates":[[-70.605126,-33.417224],[-70.60534,-33.417123],[-70.60538,-33.417034],[-70.605389,-33.417001],[-70.605409,-33.416968],[-70.605441,-33.416943],[-70.605756,-33.416782],[-70.605842,-33.416751],[-70.605914,-33.416717],[-70.606379,-33.416482],[-70.606465,-33.416449],[-70.60653,-33.416435],[-70.606627,-33.416428],[-70.606688,-33.416422],[-70.606906,-33.416386],[-70.607096,-33.416362],[-70.607234,-33.416344]]}},{"type":"Feature","properties":{"highway":"cycleway","surface":"asphalt","osm":"way/456256810"},"geometry":{"type":"LineString","coordinates":[[-70.606956,-33.416036],[-70.607234,-33.416344],[-70.607288,-33.416404],[-70.607384,-33.416508]]}},{"type":"Feature","properties":{"highway":"cycleway","name":"Ciclovía Parque Forestal","surface":"gravel","osm":"way/456672273"},"geometry":{"type":"LineString","coordinates":[[-70.642981,-33.434547],[-70.642932,-33.434559],[-70.642791,-33.434592],[-70.642625,-33.434627],[-70.639193,-33.435442],[-70.638995,-33.435433],[-70.638884,-33.435461],[-70.638825,-33.435477],[-70.638739,-33.435555],[-70.636921,-33.435975],[-70.635769,-33.436238],[-70.635684,-33.436251],[-70.635605,-33.436254],[-70.635556,-33.436237],[-70.635522,-33.436213]]}},{"type":"Feature","properties":{"highway":"cycleway","name":"Sendero Ciclista 4 ½","surface":"ground","osm":"way/479769031"},"geometry":{"type":"LineString","coordinates":[[-70.627193,-33.421873],[-70.62719,-33.421896],[-70.627192,-33.421928],[-70.627264,-33.421945],[-70.62728,-33.421985],[-70.627335,-33.421972],[-70.62737,-33.421996],[-70.627372,-33.422031],[-70.627365,-33.422044],[-70.627352,-33.422055],[-70.627344,-33.422068],[-70.627328,-33.422087],[-70.627312,-33.422101],[-70.627296,-33.422119],[-70.627281,-33.422134],[-70.62728,-33.422151],[-70.627291,-33.422167],[-70.62731,-33.42216],[-70.627354,-33.422155],[-70.627386,-33.42215],[-70.627426,-33.422147],[-70.627478,-33.422153],[-70.62754,-33.422163],[-70.627572,-33.42217],[-70.627604,-33.422177],[-70.627632,-33.422187],[-70.627666,-33.4222],[-70.62771,-33.422222],[-70.62773,-33.422238],[-70.62776,-33.422253],[-70.627788,-33.42226],[-70.627822,-33.422265],[-70.627848,-33.42227],[-70.627894,-33.42227],[-70.627932,-33.42228],[-70.62795,-33.422305],[-70.627924,-33.422332],[-70.627904,-33.422359],[-70.627887,-33.422403],[-70.627862,-33.422449],[-70.627856,-33.422493],[-70.627867,-33.422527],[-70.627892,-33.422564],[-70.627916,-33.422602],[-70.627925,-33.422635],[-70.627902,-33.422656],[-70.627837,-33.422706],[-70.627846,-33.422715],[-70.627879,-33.422753],[-70.627935,-33.422805],[-70.628296,-33.422963],[-70.628561,-33.423166],[-70.628718,-33.423221],[-70.62884,-33.423282],[-70.628954,-33.42335],[-70.629052,-33.423418],[-70.62907,-33.423472],[-70.629091,-33.423527],[-70.629095,-33.42356],[-70.629098,-33.423637],[-70.62888,-33.423673],[-70.628797,-33.423691],[-70.628693,-33.423703],[-70.628553,-33.423774],[-70.628387,-33.423811],[-70.628305,-33.423802],[-70.628199,-33.423788],[-70.628092,-33.423752],[-70.627879,-33.423762],[-70.627696,-33.423771],[-70.627524,-33.42376],[-70.627336,-33.423774],[-70.627208,-33.423829],[-70.627115,-33.423906],[-70.627048,-33.423966],[-70.627019,-33.424],[-70.627172,-33.424014],[-70.627382,-33.424098],[-70.627495,-33.424251],[-70.627271,-33.424313],[-70.627161,-33.424396]]}},{"type":"Feature","properties":{"access":"no","highway":"cycleway","name":"Sendero Ciclista Anfiteatro","surface":"dirt","osm":"way/479769658"},"geometry":{"type":"LineString","coordinates":[[-70.609823,-33.405339],[-70.609903,-33.405335],[-70.610019,-33.405357],[-70.61006,-33.405348],[-70.61007,-33.40533],[-70.610013,-33.405283],[-70.609978,-33.40525],[-70.609984,-33.40522],[-70.610034,-33.405209],[-70.61007,-33.405182],[-70.610079,-33.405167],[-70.610066,-33.40514],[-70.610066,-33.405115],[-70.610095,-33.405101],[-70.610144,-33.405088],[-70.610163,-33.40508],[-70.610174,-33.405048],[-70.610155,-33.405008],[-70.610122,-33.404968],[-70.610106,-33.404901],[-70.610118,-33.404869],[-70.610095,-33.404806],[-70.610057,-33.404778],[-70.610067,-33.404743],[-70.61011,-33.404723],[-70.610117,-33.404713],[-70.610079,-33.404689],[-70.610009,-33.404648],[-70.609988,-33.404618],[-70.609998,-33.404587],[-70.610051,-33.404572],[-70.610096,-33.404563],[-70.610104,-33.404546],[-70.610087,-33.404503],[-70.610038,-33.404458],[-70.610009,-33.404417],[-70.610018,-33.404386],[-70.610078,-33.404367],[-70.61014,-33.404362],[-70.610218,-33.404333],[-70.610251,-33.404262],[-70.610301,-33.404204],[-70.610331,-33.404166],[-70.610335,-33.404146]]}},{"type":"Feature","properties":{"highway":"cycleway","name":"Sendero Ciclista 4 ½","surface":"ground","osm":"way/479771255"},"geometry":{"type":"LineString","coordinates":[[-70.627161,-33.424396],[-70.627044,-33.424426],[-70.626897,-33.42447],[-70.626776,-33.42453],[-70.626646,-33.424537],[-70.626583,-33.424546],[-70.626462,-33.424559],[-70.626345,-33.424595],[-70.626269,-33.424595],[-70.626107,-33.424599],[-70.625972,-33.424648],[-70.62584,-33.424686],[-70.625698,-33.424743],[-70.625353,-33.424866],[-70.625229,-33.424917],[-70.62513,-33.424944],[-70.625051,-33.424944],[-70.624866,-33.424938],[-70.624815,-33.424949],[-70.624698,-33.424993],[-70.624592,-33.425004],[-70.624569,-33.424944],[-70.624483,-33.424919],[-70.62448,-33.424885],[-70.62446,-33.424815],[-70.624427,-33.424756],[-70.624379,-33.424701],[-70.62431,-33.424695],[-70.624237,-33.424673],[-70.624186,-33.424637],[-70.624153,-33.424597],[-70.62412,-33.424553],[-70.624089,-33.424491],[-70.624067,-33.424438],[-70.624041,-33.424356],[-70.624024,-33.424303],[-70.624001,-33.424199],[-70.623998,-33.424135],[-70.623973,-33.424074],[-70.623953,-33.424006],[-70.623902,-33.423951],[-70.623833,-33.423928],[-70.62378,-33.42396],[-70.623724,-33.423996],[-70.623709,-33.424059],[-70.623711,-33.424123],[-70.623719,-33.424205],[-70.623724,-33.424307],[-70.623732,-33.424392],[-70.623752,-33.424495],[-70.623775,-33.424578],[-70.623813,-33.424701],[-70.623856,-33.424796],[-70.623859,-33.424843],[-70.62377,-33.4249],[-70.623668,-33.424892],[-70.623633,-33.424847],[-70.623605,-33.424815],[-70.623495,-33.424772]]}},{"type":"Feature","properties":{"highway":"cycleway","name":"Sendero Ciclista 4 ½","surface":"ground","osm":"way/512366462"},"geometry":{"type":"LineString","coordinates":[[-70.62728,-33.421985],[-70.627168,-33.422013],[-70.627092,-33.422051],[-70.627018,-33.422091],[-70.626972,-33.422122],[-70.626965,-33.422156],[-70.626939,-33.422181],[-70.626934,-33.422208],[-70.62692,-33.422234],[-70.626874,-33.422283],[-70.626848,-33.422304],[-70.626805,-33.422332],[-70.626772,-33.422375],[-70.626743,-33.422403],[-70.626719,-33.422454],[-70.626719,-33.422498],[-70.6267,-33.422562],[-70.626636,-33.422599],[-70.626636,-33.422629],[-70.626664,-33.422658],[-70.626665,-33.422681],[-70.626677,-33.422702],[-70.62671,-33.422704],[-70.626777,-33.422743],[-70.626858,-33.42276],[-70.626937,-33.422801],[-70.626973,-33.422794],[-70.627051,-33.42279],[-70.627133,-33.422793],[-70.627283,-33.422786],[-70.627371,-33.422802],[-70.627415,-33.42281],[-70.627443,-33.422778],[-70.627477,-33.422741],[-70.627534,-33.42276],[-70.627616,-33.422727],[-70.627695,-33.422683],[-70.627748,-33.422708],[-70.62781,-33.422705],[-70.627846,-33.422715],[-70.627923,-33.422737],[-70.627974,-33.422714],[-70.628017,-33.422689],[-70.628108,-33.42268],[-70.628225,-33.42268],[-70.628324,-33.422679],[-70.628433,-33.422675],[-70.628566,-33.422696],[-70.628682,-33.422739],[-70.62873,-33.422775],[-70.628807,-33.422754],[-70.628931,-33.422781],[-70.628972,-33.422793],[-70.629032,-33.422833],[-70.629093,-33.422837],[-70.629175,-33.422815],[-70.629249,-33.422848],[-70.629326,-33.42288],[-70.629364,-33.422891],[-70.629431,-33.422894],[-70.629459,-33.422905]]}},{"type":"Feature","properties":{"highway":"cycleway","name":"Ciclovía Las Torres","osm":"way/520209559"},"geometry":{"type":"LineString","coordinates":[[-70.633135,-33.406236],[-70.632264,-33.406207],[-70.632227,-33.406156],[-70.631737,-33.405577],[-70.631643,-33.405471],[-70.631574,-33.405404],[-70.631483,-33.405284],[-70.631042,-33.404677],[-70.630531,-33.403979],[-70.630461,-33.403883],[-70.629861,-33.403019],[-70.629525,-33.402537],[-70.629058,-33.401824],[-70.629014,-33.401761],[-70.628912,-33.401618],[-70.628714,-33.401345],[-70.628329,-33.400826],[-70.628118,-33.400579],[-70.628062,-33.400436],[-70.627976,-33.400335],[-70.627877,-33.400282],[-70.627663,-33.399962],[-70.62706,-33.399114],[-70.626844,-33.398808],[-70.626737,-33.398638],[-70.626608,-33.398311],[-70.626581,-33.398022],[-70.626536,-33.398023],[-70.626474,-33.398024],[-70.626388,-33.397164],[-70.626351,-33.39711],[-70.626345,-33.397006]]}},{"type":"Feature","properties":{"highway":"cycleway","surface":"concrete","osm":"way/543408735"},"geometry":{"type":"LineString","coordinates":[[-70.64004,-33.427293],[-70.640076,-33.427278],[-70.64009,-33.427265],[-70.640106,-33.427239],[-70.640119,-33.427211],[-70.640133,-33.427159],[-70.640133,-33.427128],[-70.639802,-33.425918],[-70.639793,-33.42579],[-70.639802,-33.425708],[-70.640062,-33.424267],[-70.640116,-33.423927],[-70.640184,-33.423511],[-70.64028,-33.422895],[-70.64029,-33.422833],[-70.640307,-33.422748],[-70.64044,-33.422029],[-70.640574,-33.421195],[-70.640607,-33.421061],[-70.640623,-33.421008],[-70.640633,-33.420975],[-70.64077,-33.420486],[-70.640796,-33.420329],[-70.640795,-33.42018],[-70.640773,-33.42004],[-70.640735,-33.419905],[-70.640677,-33.419797],[-70.640285,-33.419207],[-70.639329,-33.417765],[-70.639309,-33.417737],[-70.639214,-33.417574],[-70.639182,-33.417518],[-70.639166,-33.417488],[-70.639113,-33.417391],[-70.63894,-33.417051],[-70.638857,-33.416872],[-70.638803,-33.416741],[-70.638753,-33.416608],[-70.638677,-33.416371],[-70.638647,-33.416262],[-70.638616,-33.416135],[-70.638603,-33.41609],[-70.638588,-33.415977],[-70.638569,-33.415769],[-70.638562,-33.415641],[-70.638562,-33.415626],[-70.638559,-33.415514],[-70.638561,-33.415354],[-70.638565,-33.41518],[-70.63858,-33.41498],[-70.638624,-33.414329],[-70.638632,-33.414242],[-70.638674,-33.413662],[-70.638675,-33.413581]]}},{"type":"Feature","properties":{"highway":"cycleway","name":"Ciclovía Antonio Varas","surface":"asphalt","osm":"way/570565883"},"geometry":{"type":"LineString","coordinates":[[-70.611292,-33.446435],[-70.611383,-33.446395],[-70.611392,-33.446365],[-70.611388,-33.446351],[-70.611382,-33.446334],[-70.611454,-33.446115],[-70.611502,-33.445983],[-70.611559,-33.445935],[-70.611572,-33.445901],[-70.611577,-33.445867],[-70.611553,-33.445833],[-70.611697,-33.445391],[-70.611742,-33.445363],[-70.611754,-33.445323],[-70.611766,-33.445283],[-70.611748,-33.445228],[-70.611876,-33.444856],[-70.611977,-33.444556],[-70.612037,-33.444498],[-70.612049,-33.444465],[-70.612058,-33.444422],[-70.612036,-33.444355],[-70.612263,-33.443689],[-70.612325,-33.443641],[-70.612343,-33.443599],[-70.612354,-33.443562],[-70.612331,-33.443508],[-70.612448,-33.443172],[-70.612482,-33.443155],[-70.6125,-33.443107],[-70.612516,-33.443066],[-70.612493,-33.443006],[-70.612572,-33.442775],[-70.61266,-33.442518],[-70.612697,-33.44241],[-70.612751,-33.442372],[-70.612768,-33.44233],[-70.612782,-33.442286],[-70.612766,-33.44221],[-70.612921,-33.441737],[-70.613034,-33.441392],[-70.613094,-33.441352],[-70.613111,-33.441304],[-70.613127,-33.441262],[-70.613103,-33.441193],[-70.6132,-33.440891],[-70.613287,-33.440622],[-70.61339,-33.440325],[-70.61342,-33.440309],[-70.613446,-33.440295],[-70.613472,-33.440243],[-70.613473,-33.440186],[-70.613467,-33.440129],[-70.613693,-33.439427],[-70.613754,-33.43924],[-70.613786,-33.439201],[-70.613795,-33.439183],[-70.613811,-33.439131],[-70.613836,-33.439029],[-70.613852,-33.438953],[-70.613883,-33.438857],[-70.613939,-33.438676],[-70.614055,-33.438322],[-70.614127,-33.438096],[-70.61417,-33.438016],[-70.6142,-33.437932],[-70.614221,-33.437863],[-70.614225,-33.437816],[-70.614261,-33.4377],[-70.614456,-33.437255]]}},{"type":"Feature","properties":{"highway":"cycleway","name":"Ciclovía Bustamante","surface":"asphalt","osm":"way/628427946"},"geometry":{"type":"LineString","coordinates":[[-70.632725,-33.437971],[-70.632454,-33.43851],[-70.632313,-33.43876],[-70.632251,-33.438878],[-70.632036,-33.439315],[-70.631825,-33.43973],[-70.631715,-33.439957],[-70.631607,-33.440307],[-70.631535,-33.440638],[-70.631465,-33.441037],[-70.631458,-33.441075],[-70.631457,-33.441085],[-70.631459,-33.441125],[-70.631446,-33.441164],[-70.63143,-33.441215],[-70.631416,-33.441258],[-70.631413,-33.441272],[-70.631356,-33.441481],[-70.631249,-33.441907],[-70.631161,-33.442275],[-70.631172,-33.442313],[-70.631196,-33.442345],[-70.631221,-33.442373],[-70.631248,-33.442402],[-70.631268,-33.442424],[-70.631296,-33.442449],[-70.631335,-33.442482],[-70.63138,-33.442513],[-70.631419,-33.442535],[-70.631497,-33.442572],[-70.631634,-33.44259],[-70.63177,-33.442605],[-70.631879,-33.442626],[-70.632045,-33.442665],[-70.63202,-33.442761],[-70.631957,-33.443095],[-70.631704,-33.444066],[-70.63165,-33.44416],[-70.631575,-33.444217],[-70.631499,-33.444257],[-70.63139,-33.444286],[-70.631266,-33.444292],[-70.631211,-33.444285],[-70.631203,-33.444285],[-70.631197,-33.444291],[-70.631187,-33.444324],[-70.631153,-33.444428],[-70.631145,-33.444441],[-70.631128,-33.444443],[-70.631042,-33.444434],[-70.630996,-33.444429],[-70.630953,-33.444587],[-70.630918,-33.44458]]}},{"type":"Feature","properties":{"highway":"cycleway","name":"Ciclovía Pocuro","surface":"asphalt","osm":"way/648459649"},"geometry":{"type":"LineString","coordinates":[[-70.585951,-33.430767],[-70.586214,-33.430879],[-70.586427,-33.430946],[-70.586531,-33.430987],[-70.586677,-33.431026],[-70.586778,-33.431052],[-70.58688,-33.431072],[-70.587006,-33.431094],[-70.587148,-33.431104],[-70.587462,-33.431113],[-70.587611,-33.431108],[-70.587675,-33.431106],[-70.587765,-33.431103],[-70.587834,-33.431098],[-70.587926,-33.431102],[-70.588111,-33.431136],[-70.588452,-33.431219],[-70.590026,-33.43162],[-70.590137,-33.431658],[-70.590254,-33.431684],[-70.592496,-33.43222],[-70.592586,-33.432242],[-70.592682,-33.432281],[-70.593671,-33.432546],[-70.593767,-33.43257],[-70.593862,-33.432595],[-70.595002,-33.432889],[-70.5951,-33.432914],[-70.595184,-33.432936],[-70.596193,-33.433209],[-70.596278,-33.43323],[-70.596356,-33.433247],[-70.597454,-33.43351],[-70.597499,-33.433492],[-70.597589,-33.433511],[-70.597681,-33.433536],[-70.597715,-33.433574],[-70.598549,-33.433796],[-70.599429,-33.434029],[-70.599509,-33.434051],[-70.599577,-33.434063],[-70.601325,-33.43452],[-70.601373,-33.434525],[-70.601477,-33.434511],[-70.601579,-33.434508],[-70.601633,-33.434518],[-70.601666,-33.434552],[-70.602412,-33.43474],[-70.60302,-33.434894],[-70.603092,-33.434911],[-70.603163,-33.434929],[-70.603717,-33.43506],[-70.604625,-33.435274],[-70.604736,-33.435308],[-70.604861,-33.435345],[-70.604902,-33.435359],[-70.6056,-33.435542],[-70.606504,-33.435776],[-70.607909,-33.43614],[-70.608052,-33.436173],[-70.608206,-33.436204],[-70.608761,-33.436319],[-70.609984,-33.436575],[-70.6111,-33.436808],[-70.611248,-33.436845],[-70.611471,-33.436915],[-70.61176,-33.437042],[-70.611776,-33.437046],[-70.61235,-33.437306],[-70.612799,-33.437476],[-70.612964,-33.437526],[-70.613088,-33.437581],[-70.613221,-33.437628],[-70.613422,-33.437675],[-70.613923,-33.437793],[-70.614064,-33.437799]]}},{"type":"Feature","properties":{"highway":"cycleway","surface":"asphalt","osm":"way/675433825"},"geometry":{"type":"LineString","coordinates":[[-70.640133,-33.427159],[-70.640153,-33.427164],[-70.640185,-33.427161],[-70.640237,-33.42716],[-70.640294,-33.427191]]}},{"type":"Feature","properties":{"access":"no","highway":"cycleway","name":"Sendero Ciclista Pa' Arriba","surface":"dirt","osm":"way/691091446"},"geometry":{"type":"LineString","coordinates":[[-70.609284,-33.399993],[-70.609225,-33.400017],[-70.609233,-33.400042],[-70.609277,-33.400057],[-70.609345,-33.400053],[-70.609365,-33.400061],[-70.609323,-33.400092],[-70.609264,-33.400114],[-70.60919,-33.40015],[-70.609183,-33.400182],[-70.609219,-33.400196],[-70.609292,-33.400211],[-70.609307,-33.400218],[-70.609306,-33.400236],[-70.609287,-33.400248],[-70.609256,-33.400271],[-70.609229,-33.400293],[-70.609228,-33.400306],[-70.609237,-33.400313],[-70.609284,-33.400322],[-70.60937,-33.400324],[-70.609432,-33.400314],[-70.609465,-33.400317],[-70.609479,-33.40032],[-70.60948,-33.400328],[-70.60947,-33.40034],[-70.609449,-33.400354],[-70.609442,-33.40036],[-70.609442,-33.400368],[-70.609448,-33.40037],[-70.609491,-33.400366],[-70.609661,-33.400358],[-70.609687,-33.40036],[-70.609707,-33.400364],[-70.60972,-33.400377],[-70.609712,-33.400394],[-70.609704,-33.400407],[-70.609675,-33.40041],[-70.609641,-33.400422],[-70.609604,-33.400439],[-70.609613,-33.400459],[-70.60963,-33.400485],[-70.609625,-33.400506],[-70.609617,-33.400546],[-70.609609,-33.400564],[-70.609594,-33.400574],[-70.609523,-33.400597],[-70.609478,-33.400607],[-70.609413,-33.400617],[-70.609379,-33.400623],[-70.609344,-33.400639],[-70.609312,-33.400655],[-70.609291,-33.400681],[-70.609273,-33.400714],[-70.609263,-33.400771],[-70.609232,-33.40084],[-70.609207,-33.400888],[-70.609177,-33.400924],[-70.609175,-33.400947],[-70.609198,-33.400973],[-70.609221,-33.401005],[-70.609237,-33.401047],[-70.60925,-33.401066],[-70.609292,-33.401082],[-70.609314,-33.401096],[-70.609326,-33.401147],[-70.609331,-33.401209],[-70.609343,-33.401242],[-70.609339,-33.401323],[-70.609334,-33.401362],[-70.609299,-33.401418],[-70.609282,-33.40145],[-70.60926,-33.401488],[-70.609238,-33.401524],[-70.609208,-33.401591],[-70.609187,-33.401649],[-70.609176,-33.401691],[-70.609182,-33.401747],[-70.609208,-33.40178],[-70.609216,-33.401842],[-70.609219,-33.401864],[-70.609219,-33.40189],[-70.609214,-33.401926],[-70.609233,-33.401968],[-70.609261,-33.402002],[-70.609312,-33.402018],[-70.609343,-33.402038],[-70.609363,-33.402066],[-70.609368,-33.402132],[-70.609365,-33.402233],[-70.609377,-33.402328],[-70.609379,-33.402364],[-70.609389,-33.402379],[-70.609426,-33.402388],[-70.609471,-33.402391],[-70.609486,-33.402389],[-70.60951,-33.402396],[-70.609525,-33.402412],[-70.609524,-33.402453],[-70.609518,-33.402503],[-70.609498,-33.402535],[-70.609483,-33.402571],[-70.609478,-33.402589],[-70.609488,-33.402602],[-70.609509,-33.402602],[-70.609533,-33.4026],[-70.609547,-33.4026],[-70.609555,-33.402605],[-70.609547,-33.402622],[-70.609502,-33.40268],[-70.609467,-33.402716],[-70.609462,-33.402737],[-70.609465,-33.402748],[-70.609493,-33.402748],[-70.609544,-33.402728],[-70.60958,-33.402718],[-70.609599,-33.402722],[-70.609613,-33.402733],[-70.609614,-33.402754],[-70.609602,-33.402806],[-70.609588,-33.40285],[-70.609583,-33.402884],[-70.609586,-33.402898],[-70.609605,-33.402903],[-70.609637,-33.402897],[-70.609676,-33.402894],[-70.609693,-33.402899],[-70.609707,-33.402912],[-70.609721,-33.402969],[-70.60972,-33.402988],[-70.609712,-33.403051],[-70.609712,-33.403069],[-70.609735,-33.403094],[-70.60975,-33.403119],[-70.60973,-33.403166],[-70.609689,-33.403239],[-70.609667,-33.403274],[-70.609658,-33.403294],[-70.609667,-33.4033],[-70.609691,-33.403291],[-70.609712,-33.403284],[-70.609723,-33.403286],[-70.609735,-33.403302],[-70.609744,-33.40332],[-70.609757,-33.403326],[-70.609772,-33.403322],[-70.609807,-33.403298],[-70.609862,-33.403269],[-70.609901,-33.40325],[-70.609953,-33.403233],[-70.609988,-33.403219],[-70.610006,-33.403216],[-70.610026,-33.403213],[-70.610038,-33.403211],[-70.610073,-33.403207],[-70.610132,-33.403236],[-70.610174,-33.403264],[-70.610195,-33.403311]]}},{"type":"Feature","properties":{"highway":"cycleway","name":"Sendero Ciclista Anfiteatro","surface":"dirt","osm":"way/691091448"},"geometry":{"type":"LineString","coordinates":[[-70.610873,-33.403608],[-70.611009,-33.40358],[-70.611075,-33.40353],[-70.611135,-33.403356],[-70.611186,-33.403282],[-70.611214,-33.403135],[-70.611247,-33.403029],[-70.611304,-33.402892],[-70.611226,-33.402771],[-70.611175,-33.402615],[-70.611105,-33.402529],[-70.610754,-33.402254],[-70.610711,-33.40207],[-70.610622,-33.401983],[-70.61052,-33.401851],[-70.610497,-33.40175],[-70.610411,-33.401637],[-70.610367,-33.401484],[-70.61037,-33.401378],[-70.610325,-33.401258],[-70.610372,-33.40103],[-70.610329,-33.400867],[-70.610315,-33.400729],[-70.610346,-33.400559],[-70.610369,-33.400394],[-70.610399,-33.400242],[-70.610373,-33.400024],[-70.610326,-33.399933],[-70.610269,-33.39989],[-70.610174,-33.399878],[-70.610099,-33.399905],[-70.61,-33.399957],[-70.609761,-33.399997],[-70.609638,-33.400009],[-70.609409,-33.399993],[-70.609284,-33.399993]]}},{"type":"Feature","properties":{"highway":"cycleway","name":"Sendero Ciclista Torre 5","surface":"dirt","osm":"way/741162897"},"geometry":{"type":"LineString","coordinates":[[-70.606768,-33.403431],[-70.60666,-33.403522],[-70.606591,-33.4036],[-70.606551,-33.403645],[-70.606546,-33.403696],[-70.606541,-33.403813],[-70.606533,-33.403962],[-70.606563,-33.404076],[-70.606619,-33.404179],[-70.606752,-33.404361],[-70.606783,-33.404477],[-70.606808,-33.40461],[-70.606832,-33.404767],[-70.606881,-33.404854],[-70.606993,-33.40496],[-70.607076,-33.405055],[-70.607149,-33.405186],[-70.607202,-33.405328],[-70.607204,-33.405429],[-70.60721,-33.405502],[-70.607211,-33.405652],[-70.607235,-33.405799],[-70.607286,-33.40592],[-70.607286,-33.406056],[-70.607289,-33.406166],[-70.607404,-33.406247],[-70.607475,-33.406295],[-70.607569,-33.406408],[-70.607677,-33.406529],[-70.607748,-33.406617],[-70.607803,-33.406688],[-70.607877,-33.406799],[-70.607962,-33.40691],[-70.608053,-33.407022],[-70.608165,-33.407184],[-70.608191,-33.407341],[-70.608183,-33.40754],[-70.608073,-33.407625],[-70.607945,-33.407727],[-70.607851,-33.407819],[-70.607681,-33.407888],[-70.607664,-33.407894],[-70.607532,-33.407933],[-70.607477,-33.407932],[-70.607331,-33.407958],[-70.607224,-33.40799],[-70.607106,-33.407987],[-70.606939,-33.408048]]}},{"type":"Feature","properties":{"highway":"cycleway","osm":"way/745384936"},"geometry":{"type":"LineString","coordinates":[[-70.605613,-33.410913],[-70.6056,-33.410911],[-70.605568,-33.410906],[-70.605545,-33.410901],[-70.605523,-33.410892],[-70.605489,-33.410892],[-70.605421,-33.410912]]}},{"type":"Feature","properties":{"access":"no","bicycle":"yes","highway":"path","name":"Sendero El Excursionista","surface":"ground","osm":"way/749895182"},"geometry":{"type":"LineString","coordinates":[[-70.6311,-33.428224],[-70.630839,-33.428077],[-70.630558,-33.427896],[-70.630316,-33.427737],[-70.629997,-33.4275],[-70.629721,-33.427191],[-70.629587,-33.427072],[-70.629485,-33.426902],[-70.629136,-33.426633],[-70.628924,-33.426506],[-70.628525,-33.426275],[-70.628323,-33.426156],[-70.628183,-33.425961],[-70.627921,-33.425714],[-70.627682,-33.42552],[-70.627257,-33.425394],[-70.627178,-33.425385],[-70.626689,-33.425365],[-70.626415,-33.425387]]}},{"type":"Feature","properties":{"highway":"cycleway","name":"Sendero Ciclista Centenario","surface":"dirt","osm":"way/749895576"},"geometry":{"type":"LineString","coordinates":[[-70.629686,-33.424413],[-70.629686,-33.424516],[-70.629694,-33.424588],[-70.629586,-33.42456],[-70.629518,-33.42449],[-70.629406,-33.424477],[-70.629333,-33.42445],[-70.629226,-33.424393],[-70.629148,-33.424357],[-70.629085,-33.424342],[-70.62903,-33.424345],[-70.628987,-33.424369],[-70.628982,-33.424459],[-70.628993,-33.424548],[-70.62899,-33.424721],[-70.628997,-33.424937],[-70.628973,-33.425031],[-70.628931,-33.425076],[-70.628885,-33.425082],[-70.62883,-33.42505],[-70.628782,-33.424988],[-70.628742,-33.424963],[-70.628689,-33.424969],[-70.628645,-33.425002],[-70.628581,-33.425091],[-70.628525,-33.42511],[-70.628488,-33.425101],[-70.628417,-33.425046],[-70.62838,-33.425037],[-70.628322,-33.425055],[-70.628234,-33.425115],[-70.628087,-33.425208]]}},{"type":"Feature","properties":{"bicycle":"yes","highway":"cycleway","name":"Ciclovía Bicentenario","surface":"asphalt","osm":"way/778651730"},"geometry":{"type":"LineString","coordinates":[[-70.601094,-33.407782],[-70.601098,-33.407711],[-70.601055,-33.407637],[-70.600994,-33.407443],[-70.600936,-33.407339],[-70.600932,-33.407304],[-70.601012,-33.40692],[-70.601071,-33.406639],[-70.601138,-33.406366],[-70.601191,-33.406155],[-70.601207,-33.406088],[-70.601237,-33.405967],[-70.60141,-33.405107],[-70.601426,-33.40506],[-70.601499,-33.404837],[-70.601662,-33.404345],[-70.601827,-33.403983],[-70.601941,-33.403736],[-70.601868,-33.403064],[-70.60183,-33.402714],[-70.601835,-33.402364],[-70.601819,-33.402264],[-70.601776,-33.402006],[-70.601728,-33.401713],[-70.601631,-33.401261],[-70.601609,-33.401139],[-70.601589,-33.401029],[-70.601516,-33.400637],[-70.601457,-33.400324],[-70.601451,-33.400286],[-70.60142,-33.400171],[-70.601391,-33.400059],[-70.601375,-33.399994],[-70.60137,-33.39997],[-70.601285,-33.39964],[-70.60118,-33.399178],[-70.60117,-33.399133],[-70.601109,-33.398731],[-70.60104,-33.398434],[-70.601025,-33.398367],[-70.601008,-33.398267],[-70.600965,-33.398057],[-70.600939,-33.397925],[-70.600928,-33.397887],[-70.600876,-33.397742],[-70.600856,-33.397658],[-70.600645,-33.396692],[-70.600525,-33.39656],[-70.600522,-33.396551],[-70.600506,-33.39652],[-70.600458,-33.3963],[-70.600381,-33.396019],[-70.600192,-33.395573],[-70.599745,-33.39466],[-70.599501,-33.394135],[-70.599472,-33.394073]]}},{"type":"Feature","properties":{"highway":"cycleway","name":"Mapocho 42k","osm":"way/807000694"},"geometry":{"type":"LineString","coordinates":[[-70.635397,-33.4358],[-70.635346,-33.435808],[-70.635331,-33.435807],[-70.635317,-33.435802],[-70.635303,-33.435796],[-70.635291,-33.435793],[-70.635269,-33.435791],[-70.635239,-33.435797],[-70.635063,-33.435818],[-70.634874,-33.435842],[-70.634626,-33.435854],[-70.6344,-33.435851],[-70.634237,-33.435845],[-70.634027,-33.435821],[-70.63379,-33.435776],[-70.633488,-33.43569],[-70.632947,-33.435465],[-70.632864,-33.435427],[-70.63226,-33.435147],[-70.631921,-33.434995],[-70.631613,-33.434857],[-70.631046,-33.434592],[-70.630744,-33.434448],[-70.630289,-33.434231],[-70.629577,-33.433877],[-70.628863,-33.433566],[-70.628623,-33.433442],[-70.628564,-33.4334],[-70.628278,-33.433199],[-70.628026,-33.432977],[-70.627891,-33.432902],[-70.62742,-33.432445],[-70.62689,-33.431984],[-70.626493,-33.431608],[-70.626484,-33.431603],[-70.626465,-33.431601],[-70.626452,-33.431604],[-70.626409,-33.43163]]}},{"type":"Feature","properties":{"highway":"cycleway","osm":"way/807000695"},"geometry":{"type":"LineString","coordinates":[[-70.626409,-33.43163],[-70.626075,-33.431871]]}},{"type":"Feature","properties":{"access":"no","highway":"cycleway","name":"Sendero Ciclista El Zorzal","surface":"dirt","osm":"way/862880882"},"geometry":{"type":"LineString","coordinates":[[-70.610174,-33.403264],[-70.610203,-33.40324],[-70.610183,-33.403194],[-70.610161,-33.40316],[-70.61012,-33.403134],[-70.610076,-33.403116],[-70.61001,-33.403117],[-70.609972,-33.403118],[-70.609942,-33.403118],[-70.609914,-33.403093],[-70.609909,-33.403058],[-70.609945,-33.40303],[-70.609969,-33.403012],[-70.61003,-33.402943],[-70.610083,-33.402901],[-70.610166,-33.402849],[-70.610185,-33.40282],[-70.610194,-33.402787],[-70.610175,-33.402762],[-70.610112,-33.40273],[-70.610049,-33.402695],[-70.610027,-33.402682],[-70.610023,-33.402654],[-70.610043,-33.402631],[-70.610073,-33.402623],[-70.610122,-33.402624],[-70.610158,-33.402619],[-70.610189,-33.402594],[-70.610181,-33.402569],[-70.610131,-33.402516],[-70.610102,-33.402484],[-70.610102,-33.402425],[-70.610084,-33.402363],[-70.609979,-33.402251],[-70.609874,-33.402168],[-70.609793,-33.402135],[-70.609717,-33.402107],[-70.609693,-33.402072],[-70.6097,-33.402026],[-70.609689,-33.401978],[-70.609669,-33.401935],[-70.609645,-33.401888],[-70.60965,-33.401873],[-70.609672,-33.401855],[-70.609708,-33.401862],[-70.609759,-33.401888],[-70.609801,-33.401916],[-70.609824,-33.401924],[-70.609868,-33.401939],[-70.609926,-33.401971],[-70.609973,-33.401979],[-70.609993,-33.401966],[-70.609984,-33.401949],[-70.609954,-33.401892],[-70.609938,-33.401849],[-70.609939,-33.401828],[-70.609963,-33.401817],[-70.610009,-33.401806],[-70.610019,-33.401785],[-70.610013,-33.401744],[-70.609999,-33.401715],[-70.610004,-33.401664],[-70.609995,-33.401578],[-70.609985,-33.401519],[-70.610003,-33.401448],[-70.610027,-33.401406],[-70.61005,-33.401331],[-70.610056,-33.401235],[-70.610058,-33.401153],[-70.610054,-33.401088],[-70.610051,-33.401039],[-70.610069,-33.401018],[-70.610091,-33.40102],[-70.610121,-33.401039],[-70.610151,-33.401042],[-70.610174,-33.401033],[-70.610182,-33.400977],[-70.610171,-33.400887],[-70.610168,-33.400799],[-70.610209,-33.400728],[-70.610252,-33.400651],[-70.610346,-33.400559]]}},{"type":"Feature","properties":{"highway":"cycleway","name":"Mapocho Expreso","surface":"paved","osm":"way/895297049"},"geometry":{"type":"LineString","coordinates":[[-70.626197,-33.431886],[-70.626677,-33.432325],[-70.627513,-33.4331],[-70.627747,-33.433293],[-70.62805,-33.433528],[-70.628311,-33.433699],[-70.628492,-33.433807],[-70.628919,-33.434042],[-70.629405,-33.434266],[-70.631372,-33.435185],[-70.631866,-33.435436],[-70.632218,-33.435626],[-70.632464,-33.435748],[-70.633006,-33.435996],[-70.633184,-33.436067],[-70.633378,-33.436131],[-70.633541,-33.436176],[-70.633735,-33.436213],[-70.633945,-33.436243],[-70.634115,-33.436263],[-70.63428,-33.436277],[-70.634447,-33.436282],[-70.634626,-33.436274],[-70.634785,-33.436263],[-70.634867,-33.436254],[-70.634981,-33.436241],[-70.635096,-33.436228],[-70.635198,-33.436211],[-70.63524,-33.436203]]}},{"type":"Feature","properties":{"highway":"cycleway","name":"Mapocho Expreso","surface":"paved","osm":"way/895297050"},"geometry":{"type":"LineString","coordinates":[[-70.624577,-33.429859],[-70.624613,-33.429913],[-70.624784,-33.430199],[-70.625068,-33.430597],[-70.625165,-33.430743],[-70.625307,-33.430927],[-70.625675,-33.431353],[-70.625962,-33.431667]]}},{"type":"Feature","properties":{"highway":"cycleway","name":"Mapocho Expreso","surface":"paved","osm":"way/895297051"},"geometry":{"type":"LineString","coordinates":[[-70.625962,-33.431667],[-70.626197,-33.431886]]}},{"type":"Feature","properties":{"access":"yes","highway":"cycleway","name":"Sendero Ciclista La S","surface":"dirt","osm":"way/906948595"},"geometry":{"type":"LineString","coordinates":[[-70.610195,-33.403311],[-70.61025,-33.40329],[-70.610286,-33.403271],[-70.610298,-33.403238],[-70.610296,-33.403206],[-70.61029,-33.403177],[-70.61029,-33.403156],[-70.610298,-33.403149],[-70.610319,-33.403148],[-70.610338,-33.403155],[-70.610361,-33.403162],[-70.610382,-33.403162],[-70.61039,-33.403162],[-70.610394,-33.40316],[-70.610401,-33.403153],[-70.610409,-33.403141],[-70.610415,-33.40313],[-70.610422,-33.403112],[-70.610429,-33.403106],[-70.61045,-33.403096],[-70.610475,-33.403092],[-70.610492,-33.403092],[-70.610511,-33.403099],[-70.610557,-33.403121],[-70.610597,-33.403143],[-70.610618,-33.40316],[-70.610657,-33.403199],[-70.61069,-33.403242],[-70.610722,-33.403293],[-70.610736,-33.403316],[-70.610747,-33.403328],[-70.610762,-33.403335],[-70.610779,-33.403338],[-70.610799,-33.403329],[-70.610815,-33.40331],[-70.610834,-33.403291],[-70.610842,-33.403285],[-70.610854,-33.403281],[-70.610864,-33.403281],[-70.610878,-33.403288],[-70.610882,-33.403299],[-70.610883,-33.403314],[-70.610887,-33.403346],[-70.610893,-33.403382],[-70.610898,-33.403411],[-70.610904,-33.403422],[-70.610917,-33.403428],[-70.61093,-33.403427],[-70.610945,-33.403425],[-70.610958,-33.403424],[-70.611013,-33.403416],[-70.611032,-33.403409],[-70.611053,-33.403391],[-70.611065,-33.403377],[-70.611113,-33.403282],[-70.611145,-33.403225],[-70.611156,-33.403165],[-70.611142,-33.4031],[-70.611123,-33.403039],[-70.611085,-33.402991],[-70.611053,-33.402947],[-70.611043,-33.402909],[-70.611029,-33.40283],[-70.611034,-33.402791],[-70.611014,-33.40272],[-70.610966,-33.402644],[-70.610916,-33.402588],[-70.610795,-33.402458],[-70.610663,-33.40233],[-70.610586,-33.402183],[-70.610514,-33.40211],[-70.610422,-33.40201],[-70.61039,-33.401967],[-70.610304,-33.401901],[-70.610241,-33.401852],[-70.610223,-33.401814],[-70.610234,-33.401741],[-70.610232,-33.401627],[-70.610188,-33.401502],[-70.61016,-33.401413],[-70.61013,-33.401334],[-70.610127,-33.401267],[-70.61015,-33.401202],[-70.61018,-33.4011],[-70.610228,-33.400985],[-70.610256,-33.400891],[-70.610268,-33.400798],[-70.610315,-33.400729]]}},{"type":"Feature","properties":{"bicycle":"yes","highway":"path","osm":"way/928745998"},"geometry":{"type":"LineString","coordinates":[[-70.60947,-33.400995],[-70.609412,-33.401127],[-70.609343,-33.401242]]}},{"type":"Feature","properties":{"highway":"cycleway","name":"Sendero Ciclista Anfiteatro","surface":"dirt","osm":"way/929919497"},"geometry":{"type":"LineString","coordinates":[[-70.610615,-33.407245],[-70.610493,-33.407248],[-70.610406,-33.407239],[-70.6103,-33.407194],[-70.610246,-33.407158],[-70.610212,-33.407107],[-70.610159,-33.407047],[-70.610071,-33.406983],[-70.609981,-33.406928],[-70.609894,-33.40686],[-70.609851,-33.4068],[-70.609814,-33.406684],[-70.609785,-33.406617],[-70.609728,-33.406543],[-70.609676,-33.4064],[-70.60969,-33.406352],[-70.609723,-33.406282],[-70.609754,-33.406194],[-70.609786,-33.406112],[-70.609818,-33.406054],[-70.609857,-33.405988],[-70.609837,-33.405949],[-70.609745,-33.405872],[-70.609644,-33.405767],[-70.609588,-33.405682],[-70.609558,-33.405608],[-70.60953,-33.405552],[-70.609516,-33.405519]]}},{"type":"Feature","properties":{"highway":"cycleway","name":"Sendero Ciclista Anfiteatro","surface":"dirt","osm":"way/929919498"},"geometry":{"type":"LineString","coordinates":[[-70.609239,-33.405203],[-70.609395,-33.405252],[-70.609499,-33.405276],[-70.609552,-33.405291],[-70.609572,-33.40535],[-70.609595,-33.405402],[-70.609631,-33.405429],[-70.609687,-33.405451],[-70.609745,-33.405453],[-70.609785,-33.405415],[-70.60979,-33.405371],[-70.609823,-33.405339]]}},{"type":"Feature","properties":{"highway":"cycleway","name":"Sendero Ciclista Anfiteatro","surface":"dirt","osm":"way/929919499"},"geometry":{"type":"LineString","coordinates":[[-70.609516,-33.405519],[-70.609508,-33.405502],[-70.609476,-33.405463],[-70.60941,-33.405408],[-70.609294,-33.405284],[-70.609239,-33.405203]]}},{"type":"Feature","properties":{"highway":"cycleway","surface":"asphalt","osm":"way/934477082"},"geometry":{"type":"LineString","coordinates":[[-70.601289,-33.408455],[-70.601114,-33.408252],[-70.601038,-33.408163],[-70.600955,-33.408076],[-70.600846,-33.407964]]}},{"type":"Feature","properties":{"highway":"cycleway","surface":"asphalt","osm":"way/934477083"},"geometry":{"type":"LineString","coordinates":[[-70.601393,-33.408568],[-70.601346,-33.40852],[-70.601289,-33.408455]]}},{"type":"Feature","properties":{"highway":"cycleway","surface":"dirt","osm":"way/943439466"},"geometry":{"type":"LineString","coordinates":[[-70.627178,-33.425385],[-70.627028,-33.425248],[-70.626902,-33.425174],[-70.626709,-33.425134],[-70.626513,-33.425007],[-70.62625,-33.424984],[-70.626001,-33.424973],[-70.625786,-33.424966],[-70.625545,-33.424953],[-70.625376,-33.424957],[-70.625242,-33.424962],[-70.62513,-33.424944]]}},{"type":"Feature","properties":{"highway":"cycleway","osm":"way/982798698"},"geometry":{"type":"LineString","coordinates":[[-70.614491,-33.43715],[-70.614469,-33.437216],[-70.614456,-33.437255]]}},{"type":"Feature","properties":{"highway":"cycleway","osm":"way/988091315"},"geometry":{"type":"LineString","coordinates":[[-70.625915,-33.432068],[-70.625816,-33.431975],[-70.625717,-33.431887],[-70.62568,-33.431855],[-70.625782,-33.431778],[-70.625874,-33.431705]]}},{"type":"Feature","properties":{"highway":"cycleway","osm":"way/988091316"},"geometry":{"type":"LineString","coordinates":[[-70.625915,-33.432068],[-70.625967,-33.432208],[-70.626032,-33.432307],[-70.626124,-33.43239],[-70.626481,-33.432703],[-70.626477,-33.432764]]}},{"type":"Feature","properties":{"highway":"cycleway","name":"Mapocho Expreso","surface":"paved","osm":"way/988341161"},"geometry":{"type":"LineString","coordinates":[[-70.636899,-33.435778],[-70.63879,-33.435339]]}},{"type":"Feature","properties":{"highway":"cycleway","name":"Mapocho Expreso","surface":"paved","osm":"way/988341162"},"geometry":{"type":"LineString","coordinates":[[-70.63524,-33.436203],[-70.635544,-33.436127]]}},{"type":"Feature","properties":{"highway":"cycleway","name":"Mapocho Expreso","surface":"paved","osm":"way/988341168"},"geometry":{"type":"LineString","coordinates":[[-70.635544,-33.436127],[-70.635793,-33.436065],[-70.636128,-33.435995],[-70.636156,-33.435982],[-70.63621,-33.435945],[-70.636235,-33.435933],[-70.636785,-33.435805]]}},{"type":"Feature","properties":{"highway":"cycleway","name":"Mapocho Expreso","surface":"paved","osm":"way/988341169"},"geometry":{"type":"LineString","coordinates":[[-70.636785,-33.435805],[-70.636899,-33.435778]]}},{"type":"Feature","properties":{"highway":"cycleway","name":"Ciclovía Parque Forestal","surface":"gravel","osm":"way/988341174"},"geometry":{"type":"LineString","coordinates":[[-70.635522,-33.436213],[-70.635514,-33.436207],[-70.63549,-33.436168],[-70.63549,-33.435811]]}},{"type":"Feature","properties":{"highway":"cycleway","name":"Ciclovía Parque Forestal","surface":"gravel","osm":"way/988341175"},"geometry":{"type":"LineString","coordinates":[[-70.63549,-33.435811],[-70.635491,-33.435801],[-70.635488,-33.435795],[-70.635479,-33.43579],[-70.63547,-33.43579],[-70.635433,-33.435795]]}},{"type":"Feature","properties":{"highway":"cycleway","name":"Mapocho Expreso","osm":"way/988405436"},"geometry":{"type":"LineString","coordinates":[[-70.639032,-33.435281],[-70.64063,-33.434915],[-70.642609,-33.434458]]}},{"type":"Feature","properties":{"highway":"cycleway","name":"Mapocho Expreso","osm":"way/988405437"},"geometry":{"type":"LineString","coordinates":[[-70.63879,-33.435339],[-70.639032,-33.435281]]}},{"type":"Feature","properties":{"highway":"cycleway","name":"Mapocho Expreso","osm":"way/988405438"},"geometry":{"type":"LineString","coordinates":[[-70.642971,-33.434375],[-70.643338,-33.434295],[-70.644532,-33.434014],[-70.645318,-33.433823]]}},{"type":"Feature","properties":{"highway":"cycleway","name":"Mapocho Expreso","osm":"way/988405439"},"geometry":{"type":"LineString","coordinates":[[-70.642609,-33.434458],[-70.642971,-33.434375]]}},{"type":"Feature","properties":{"highway":"cycleway","name":"Mapocho Pedaleable","osm":"way/988405441"},"geometry":{"type":"LineString","coordinates":[[-70.645467,-33.433784],[-70.645895,-33.433676],[-70.646263,-33.43359],[-70.64699,-33.433422],[-70.647713,-33.433255],[-70.64786,-33.433222],[-70.652103,-33.432225],[-70.656262,-33.431268],[-70.65876,-33.430696]]}},{"type":"Feature","properties":{"highway":"cycleway","name":"Mapocho Expreso","osm":"way/988405442"},"geometry":{"type":"LineString","coordinates":[[-70.645318,-33.433823],[-70.645467,-33.433784]]}},{"type":"Feature","properties":{"highway":"cycleway","name":"Acceso Huelén","osm":"way/988405444"},"geometry":{"type":"LineString","coordinates":[[-70.624289,-33.429622],[-70.62436,-33.429589],[-70.624554,-33.429883],[-70.624613,-33.429913]]}},{"type":"Feature","properties":{"highway":"cycleway","name":"Acceso Loreto","osm":"way/989372233"},"geometry":{"type":"LineString","coordinates":[[-70.643338,-33.434295],[-70.643356,-33.434354],[-70.643087,-33.434416],[-70.64311,-33.434495],[-70.643122,-33.434532]]}},{"type":"Feature","properties":{"highway":"cycleway","name":"Mapocho 42K","surface":"gravel","osm":"way/990138672"},"geometry":{"type":"LineString","coordinates":[[-70.647931,-33.433279],[-70.647918,-33.433285],[-70.647866,-33.433368],[-70.647851,-33.433383],[-70.647816,-33.433392],[-70.645459,-33.433974],[-70.645344,-33.434005],[-70.643122,-33.434532],[-70.643058,-33.434529],[-70.642981,-33.434547]]}},{"type":"Feature","properties":{"access":"yes","bicycle":"yes","highway":"pedestrian","mtb:scale":"0","name":"Paseo Metropolitano","sac_scale":"hiking","surface":"ground","osm":"way/1022000922"},"geometry":{"type":"LineString","coordinates":[[-70.622955,-33.41219],[-70.622915,-33.412049],[-70.622878,-33.411976],[-70.622849,-33.411917],[-70.622777,-33.411866],[-70.622718,-33.411816],[-70.622665,-33.411736],[-70.622668,-33.411699],[-70.622682,-33.411649]]}},{"type":"Feature","properties":{"access":"yes","bicycle":"designated","highway":"pedestrian","mtb:scale":"0","name":"Paseo Metropolitano - Parque Bicentenario de la Infancia","sac_scale":"hiking","surface":"ground","osm":"way/1022000923"},"geometry":{"type":"LineString","coordinates":[[-70.637879,-33.427479],[-70.637966,-33.427368],[-70.637974,-33.427312],[-70.637945,-33.427159],[-70.637893,-33.426865],[-70.637863,-33.426767],[-70.637782,-33.426371],[-70.637753,-33.426082],[-70.637694,-33.425571],[-70.637595,-33.425007],[-70.637536,-33.424634],[-70.637516,-33.424542],[-70.63738,-33.424111],[-70.637324,-33.424037],[-70.637223,-33.423916],[-70.63715,-33.423792],[-70.637013,-33.423614],[-70.636983,-33.423575],[-70.636898,-33.423454],[-70.636884,-33.423405],[-70.636893,-33.423353],[-70.636921,-33.423298],[-70.63701,-33.423148],[-70.637087,-33.423018],[-70.637165,-33.422918],[-70.637212,-33.422877],[-70.637271,-33.422822],[-70.63739,-33.422751],[-70.6377,-33.422569],[-70.637828,-33.42248],[-70.637994,-33.422333],[-70.638249,-33.422076],[-70.63914,-33.421014],[-70.639264,-33.420833],[-70.639439,-33.420564],[-70.63951,-33.420376],[-70.639526,-33.420235],[-70.6395,-33.420139],[-70.639425,-33.420096],[-70.6391,-33.420093],[-70.638965,-33.420094],[-70.638899,-33.420056],[-70.638812,-33.419989],[-70.63827,-33.419577]]}},{"type":"Feature","properties":{"highway":"cycleway","name":"Ciclovía Antonio Varas","surface":"paved","osm":"way/1022641713"},"geometry":{"type":"LineString","coordinates":[[-70.614491,-33.43715],[-70.614484,-33.437058],[-70.614581,-33.43675],[-70.61465,-33.436529],[-70.614764,-33.436163],[-70.614877,-33.435814],[-70.614987,-33.435482],[-70.615186,-33.434894],[-70.615298,-33.434598],[-70.615331,-33.434513],[-70.615355,-33.43444],[-70.615523,-33.433988],[-70.615568,-33.433928],[-70.615631,-33.433656],[-70.615692,-33.433478],[-70.615729,-33.433442],[-70.615747,-33.4334],[-70.615745,-33.433331],[-70.615823,-33.433116],[-70.615905,-33.432862],[-70.615935,-33.432764],[-70.615957,-33.432692],[-70.615967,-33.432663],[-70.615997,-33.432562],[-70.616219,-33.43192],[-70.616236,-33.431868],[-70.616247,-33.431832],[-70.616241,-33.431781],[-70.616494,-33.431019],[-70.616525,-33.431002],[-70.616538,-33.430962],[-70.616553,-33.430915],[-70.616535,-33.430883],[-70.616874,-33.429851],[-70.616973,-33.429544],[-70.617071,-33.429309],[-70.617276,-33.4287],[-70.61744,-33.428214],[-70.61745,-33.428183],[-70.617372,-33.428139]]}},{"type":"Feature","properties":{"highway":"cycleway","surface":"asphalt","osm":"way/1046971036"},"geometry":{"type":"LineString","coordinates":[[-70.601237,-33.400089],[-70.601314,-33.400074],[-70.601391,-33.400059]]}},{"type":"Feature","properties":{"highway":"cycleway","name":"Ciclovía Dorsal","surface":"asphalt","osm":"way/1103682963"},"geometry":{"type":"LineString","coordinates":[[-70.630434,-33.400915],[-70.631024,-33.400474],[-70.631541,-33.400075],[-70.631688,-33.399983],[-70.631767,-33.399949],[-70.631957,-33.399864],[-70.63213,-33.3998],[-70.632637,-33.399675],[-70.633532,-33.399469],[-70.63381,-33.399405],[-70.634158,-33.39932],[-70.63453,-33.399232],[-70.634908,-33.399145],[-70.635275,-33.399073],[-70.635642,-33.398984],[-70.635968,-33.398907],[-70.636319,-33.398823],[-70.636672,-33.398741],[-70.637016,-33.39866],[-70.637407,-33.398573],[-70.637798,-33.398486],[-70.638135,-33.398407],[-70.638495,-33.398328],[-70.639567,-33.398072],[-70.640366,-33.397845],[-70.640612,-33.397746],[-70.641186,-33.397452],[-70.641382,-33.397357],[-70.641728,-33.397227],[-70.641953,-33.397164],[-70.64208,-33.397128],[-70.642519,-33.397035],[-70.64267,-33.397005],[-70.642814,-33.396991],[-70.642931,-33.396966],[-70.643668,-33.396817],[-70.645053,-33.396541],[-70.645152,-33.396521],[-70.645243,-33.396502],[-70.645787,-33.396389],[-70.646179,-33.39633],[-70.646674,-33.396257],[-70.647575,-33.39614],[-70.647683,-33.396127],[-70.648199,-33.396061],[-70.64864,-33.396007],[-70.649686,-33.395949],[-70.649844,-33.395939],[-70.650084,-33.395918],[-70.650293,-33.395901],[-70.650475,-33.39592],[-70.650981,-33.395881],[-70.651186,-33.395852],[-70.651414,-33.395731],[-70.652736,-33.395502],[-70.652841,-33.395512]]}},{"type":"Feature","properties":{"highway":"cycleway","surface":"asphalt","osm":"way/1184734864"},"geometry":{"type":"LineString","coordinates":[[-70.60142,-33.400171],[-70.601332,-33.400178],[-70.601255,-33.400184]]}},{"type":"Feature","properties":{"highway":"cycleway","name":"Ciclovía Antonio Varas","surface":"paved","osm":"way/1189847116"},"geometry":{"type":"LineString","coordinates":[[-70.61745,-33.428183],[-70.617511,-33.428099],[-70.617553,-33.42804],[-70.617577,-33.42798],[-70.617772,-33.427855]]}},{"type":"Feature","properties":{"bicycle":"yes","highway":"cycleway","surface":"asphalt","osm":"way/1193005842"},"geometry":{"type":"LineString","coordinates":[[-70.61434,-33.421568],[-70.614539,-33.421206]]}},{"type":"Feature","properties":{"bicycle":"yes","highway":"cycleway","surface":"asphalt","osm":"way/1193005843"},"geometry":{"type":"LineString","coordinates":[[-70.614539,-33.421206],[-70.614753,-33.420791],[-70.614762,-33.420766]]}},{"type":"Feature","properties":{"bicycle":"yes","highway":"cycleway","surface":"asphalt","osm":"way/1193005844"},"geometry":{"type":"LineString","coordinates":[[-70.614173,-33.421745],[-70.61423,-33.421729],[-70.61434,-33.421568]]}},{"type":"Feature","properties":{"highway":"cycleway","surface":"asphalt","osm":"way/1199348125"},"geometry":{"type":"LineString","coordinates":[[-70.601561,-33.408837],[-70.601393,-33.408568]]}},{"type":"Feature","properties":{"highway":"cycleway","surface":"asphalt","osm":"way/1199348127"},"geometry":{"type":"LineString","coordinates":[[-70.600846,-33.407964],[-70.600831,-33.407939],[-70.60083,-33.407926],[-70.600837,-33.407913],[-70.600849,-33.407906],[-70.600877,-33.407898],[-70.600937,-33.407889],[-70.601027,-33.407871],[-70.601048,-33.407867],[-70.601067,-33.407852],[-70.601078,-33.407838],[-70.601088,-33.407822],[-70.601094,-33.407782]]}},{"type":"Feature","properties":{"highway":"cycleway","osm":"way/1200994690"},"geometry":{"type":"LineString","coordinates":[[-70.646061,-33.434832],[-70.645968,-33.434843],[-70.645836,-33.434863]]}},{"type":"Feature","properties":{"highway":"cycleway","name":"Ciclovía Píno Nono","surface":"paved","osm":"way/1214925719"},"geometry":{"type":"LineString","coordinates":[[-70.636301,-33.430828],[-70.636081,-33.432167],[-70.635873,-33.433359],[-70.635748,-33.433938],[-70.635711,-33.434089],[-70.635737,-33.434122],[-70.635768,-33.434163],[-70.635772,-33.434182],[-70.635723,-33.434469],[-70.635714,-33.434491],[-70.635695,-33.434506],[-70.63564,-33.434538],[-70.63561,-33.434557],[-70.635601,-33.434571],[-70.635589,-33.434641],[-70.635563,-33.434839],[-70.635441,-33.435656],[-70.635435,-33.435693],[-70.635433,-33.435795]]}},{"type":"Feature","properties":{"access":"yes","bicycle":"yes","highway":"living_street","mtb:scale":"0","name":"Abraham Lincoln","sac_scale":"hiking","surface":"asphalt","osm":"way/1233612934"},"geometry":{"type":"LineString","coordinates":[[-70.627807,-33.415205],[-70.627767,-33.415166],[-70.627713,-33.415095],[-70.627685,-33.415049],[-70.627536,-33.414808],[-70.627472,-33.414746],[-70.627385,-33.414714],[-70.62731,-33.414715],[-70.627266,-33.414729],[-70.627214,-33.41475],[-70.627055,-33.414822],[-70.626957,-33.41488],[-70.626865,-33.414928],[-70.626725,-33.41499],[-70.626667,-33.415023],[-70.626615,-33.415036],[-70.626365,-33.415077],[-70.626202,-33.415098],[-70.626055,-33.415112],[-70.625931,-33.415123],[-70.625759,-33.415136],[-70.625648,-33.415103],[-70.62536,-33.414855],[-70.625306,-33.414767],[-70.625235,-33.414677],[-70.625136,-33.414545],[-70.625023,-33.414419],[-70.624831,-33.414224],[-70.624745,-33.414148],[-70.62466,-33.414064],[-70.624565,-33.413966],[-70.624456,-33.413879],[-70.624336,-33.413791],[-70.624143,-33.413624],[-70.623981,-33.413501],[-70.623819,-33.413378],[-70.623564,-33.413077],[-70.623368,-33.412858]]}},{"type":"Feature","properties":{"access":"yes","bicycle":"yes","highway":"pedestrian","mtb:scale":"0","name":"Paseo Metropolitano","sac_scale":"hiking","surface":"asphalt","osm":"way/1233612935"},"geometry":{"type":"LineString","coordinates":[[-70.623368,-33.412858],[-70.623185,-33.41267],[-70.623092,-33.412515],[-70.623052,-33.412407],[-70.622955,-33.41219],[-70.622973,-33.412143]]}},{"type":"Feature","properties":{"highway":"cycleway","osm":"way/1290371865"},"geometry":{"type":"LineString","coordinates":[[-70.633135,-33.406236],[-70.633145,-33.406193]]}},{"type":"Feature","properties":{"highway":"cycleway","name":"Sendero Ciclista Centenario","surface":"ground","osm":"way/1307648383"},"geometry":{"type":"LineString","coordinates":[[-70.628087,-33.425208],[-70.628111,-33.425114],[-70.628118,-33.424983],[-70.628126,-33.424915],[-70.62813,-33.424808],[-70.628089,-33.424717],[-70.628066,-33.424638],[-70.62802,-33.424581],[-70.627896,-33.424524],[-70.627786,-33.424477],[-70.627684,-33.424436],[-70.627529,-33.424363],[-70.627434,-33.424341],[-70.627359,-33.424355],[-70.627226,-33.424379],[-70.627161,-33.424396]]}},{"type":"Feature","properties":{"highway":"cycleway","name":"Sendero Ciclista Centenario","surface":"ground","osm":"way/1307648385"},"geometry":{"type":"LineString","coordinates":[[-70.629459,-33.422905],[-70.629479,-33.422958],[-70.62952,-33.423],[-70.62955,-33.42305],[-70.629574,-33.423097],[-70.629565,-33.423145],[-70.62959,-33.423163],[-70.629599,-33.423207],[-70.62957,-33.423263],[-70.629578,-33.423328],[-70.629596,-33.423365],[-70.62961,-33.423394],[-70.629613,-33.423443],[-70.629607,-33.423484],[-70.629607,-33.423528],[-70.629607,-33.423569],[-70.629622,-33.423606],[-70.629628,-33.42369],[-70.629642,-33.42377],[-70.629642,-33.423811],[-70.629654,-33.42386],[-70.629639,-33.423911],[-70.629642,-33.423945],[-70.629666,-33.423989],[-70.629689,-33.424023],[-70.629704,-33.424069],[-70.629674,-33.424137],[-70.629709,-33.424239],[-70.629686,-33.424413]]}},{"type":"Feature","properties":{"highway":"cycleway","name":"Sendero Ciclista Anfiteatro","surface":"dirt","osm":"way/1309108626"},"geometry":{"type":"LineString","coordinates":[[-70.610335,-33.404146],[-70.610376,-33.404053],[-70.610423,-33.404014],[-70.610529,-33.404013],[-70.610728,-33.403765],[-70.610873,-33.403608]]}},{"type":"Feature","properties":{"highway":"cycleway","name":"Ciclovía Andrés Bello","surface":"asphalt","osm":"way/1309987168"},"geometry":{"type":"LineString","coordinates":[[-70.626066,-33.431878],[-70.626007,-33.431829],[-70.625912,-33.43174],[-70.625874,-33.431705],[-70.625851,-33.431682],[-70.625533,-33.43134],[-70.625136,-33.430853],[-70.6248,-33.430382],[-70.624696,-33.430244],[-70.624434,-33.429838],[-70.624289,-33.429622],[-70.624263,-33.429583],[-70.624008,-33.429237],[-70.62385,-33.429046],[-70.62383,-33.429029],[-70.623804,-33.429021],[-70.623778,-33.429021],[-70.623672,-33.429053],[-70.623578,-33.429081],[-70.623541,-33.429075],[-70.623512,-33.429059],[-70.623432,-33.428975],[-70.623402,-33.428933],[-70.623326,-33.428862],[-70.623294,-33.428834],[-70.623277,-33.428822],[-70.623244,-33.428796],[-70.623226,-33.428775],[-70.623165,-33.428675],[-70.622711,-33.427506],[-70.622222,-33.426244],[-70.622166,-33.426116],[-70.621906,-33.425503],[-70.621803,-33.42526],[-70.621754,-33.42514],[-70.621735,-33.425102]]}},{"type":"Feature","properties":{"highway":"cycleway","name":"Ciclovía Parque Forestal","surface":"gravel","osm":"way/1309987169"},"geometry":{"type":"LineString","coordinates":[[-70.635433,-33.435795],[-70.635397,-33.4358]]}},{"type":"Feature","properties":{"highway":"cycleway","name":"Sendero Ciclista Torre 5","surface":"dirt","osm":"way/1316047257"},"geometry":{"type":"LineString","coordinates":[[-70.607953,-33.40338],[-70.6079,-33.40329],[-70.607827,-33.403232],[-70.607675,-33.403197],[-70.607547,-33.403253],[-70.607377,-33.403421],[-70.607059,-33.403439],[-70.606768,-33.403431]]}},{"type":"Feature","properties":{"highway":"cycleway","name":"Sendero Ciclista Torre 5","surface":"dirt","osm":"way/1316047258"},"geometry":{"type":"LineString","coordinates":[[-70.608129,-33.403368],[-70.607953,-33.40338]]}},{"type":"Feature","properties":{"highway":"cycleway","osm":"way/1349259822"},"geometry":{"type":"LineString","coordinates":[[-70.626075,-33.431871],[-70.626066,-33.431878]]}},{"type":"Feature","properties":{"highway":"cycleway","surface":"paved","osm":"way/1359407067"},"geometry":{"type":"LineString","coordinates":[[-70.604132,-33.417422],[-70.60427,-33.417425],[-70.604344,-33.417418],[-70.604439,-33.417413],[-70.604651,-33.417396],[-70.604725,-33.417379],[-70.604812,-33.417351],[-70.604918,-33.417311]]}},{"type":"Feature","properties":{"highway":"cycleway","surface":"paved","osm":"way/1456366148"},"geometry":{"type":"LineString","coordinates":[[-70.604918,-33.417311],[-70.605006,-33.417274],[-70.605126,-33.417224]]}},{"type":"Feature","properties":{"highway":"cycleway","name":"Ciclovía Alameda","surface":"asphalt","osm":"way/1456371853"},"geometry":{"type":"LineString","coordinates":[[-70.644927,-33.442521],[-70.644418,-33.442364],[-70.643794,-33.442167],[-70.643476,-33.442051],[-70.643212,-33.441941],[-70.642974,-33.441824],[-70.642727,-33.441685],[-70.642395,-33.441471],[-70.641712,-33.441002],[-70.640585,-33.440226],[-70.640367,-33.440088],[-70.639461,-33.439436],[-70.638125,-33.438468],[-70.638012,-33.43838],[-70.637797,-33.438221],[-70.63763,-33.438103],[-70.637345,-33.437936],[-70.637084,-33.437791],[-70.636952,-33.437723],[-70.636659,-33.437586],[-70.636546,-33.437537],[-70.63641,-33.437489],[-70.636077,-33.437389],[-70.635781,-33.437306],[-70.635441,-33.437213],[-70.635333,-33.437183],[-70.635271,-33.437174],[-70.635228,-33.43717]]}},{"type":"Feature","properties":{"highway":"cycleway","surface":"asphalt","osm":"way/1456371855"},"geometry":{"type":"LineString","coordinates":[[-70.635556,-33.436237],[-70.635578,-33.436365],[-70.635589,-33.436429],[-70.63551,-33.436448],[-70.635497,-33.436457],[-70.63549,-33.436471],[-70.635486,-33.436488],[-70.635451,-33.436639],[-70.635437,-33.436703],[-70.635415,-33.43676],[-70.635391,-33.436824],[-70.635278,-33.437064],[-70.635251,-33.43712],[-70.635228,-33.43717]]}},{"type":"Feature","properties":{"highway":"cycleway","surface":"asphalt","osm":"way/1456371856"},"geometry":{"type":"LineString","coordinates":[[-70.635228,-33.43717],[-70.635181,-33.437166],[-70.635151,-33.437164],[-70.63517,-33.437118],[-70.635196,-33.43706],[-70.635226,-33.436986],[-70.63529,-33.436727],[-70.635312,-33.436637],[-70.635337,-33.436485],[-70.635353,-33.436403],[-70.635354,-33.436379],[-70.635356,-33.436268],[-70.635356,-33.436253],[-70.635415,-33.436248],[-70.635556,-33.436237]]}},{"type":"Feature","properties":{"highway":"cycleway","surface":"asphalt","osm":"way/1460865410"},"geometry":{"type":"LineString","coordinates":[[-70.596819,-33.42164],[-70.595815,-33.422368],[-70.595324,-33.42278],[-70.59495,-33.423075],[-70.594455,-33.423465],[-70.59427,-33.423617],[-70.59406,-33.423777],[-70.593839,-33.423999],[-70.593282,-33.424382],[-70.592979,-33.424608]]}},{"type":"Feature","properties":{"highway":"cycleway","surface":"asphalt","osm":"way/1460865411"},"geometry":{"type":"LineString","coordinates":[[-70.596899,-33.421577],[-70.596819,-33.42164]]}},{"type":"Feature","properties":{"highway":"cycleway","osm":"way/1461933155"},"geometry":{"type":"LineString","coordinates":[[-70.621586,-33.425156],[-70.621623,-33.425146],[-70.621735,-33.425102]]}},{"type":"Feature","properties":{"highway":"cycleway","name":"Ciclovía Antonio Varas","surface":"paved","osm":"way/1462688698"},"geometry":{"type":"LineString","coordinates":[[-70.617772,-33.427855],[-70.617733,-33.427839],[-70.617684,-33.427821],[-70.617621,-33.427796],[-70.617782,-33.427767]]}}],"properties":{"fuente":"© colaboradores de OpenStreetMap (ODbL)","capa":"ciclovias"}}