{"type":"FeatureCollection","features":[{"type":"Feature","properties":{"access":"yes","leisure":"park","name":"Parque Metropolitano de Santiago","osm":"way/168227059"},"geometry":{"type":"Polygon","coordinates":[[[-70.6013,-33.390803],[-70.60127,-33.390858],[-70.601334,-33.391008],[-70.601456,-33.391149],[-70.601656,-33.391343],[-70.60193,-33.391651],[-70.602177,-33.392001],[-70.602396,-33.392333],[-70.602554,-33.392585],[-70.602695,-33.392843],[-70.602998,-33.393308],[-70.603329,-33.393863],[-70.603627,-33.394395],[-70.60439,-33.395676],[-70.604509,-33.395955],[-70.604793,-33.395883],[-70.605139,-33.396613],[-70.60467,-33.396705],[-70.604705,-33.397319],[-70.604693,-33.397805],[-70.604668,-33.398329],[-70.604712,-33.399114],[-70.604694,-33.399551],[-70.604749,-33.400295],[-70.604737,-33.401369],[-70.604844,-33.401419],[-70.604879,-33.401554],[-70.604756,-33.401642],[-70.604508,-33.401637],[-70.60442,-33.402144],[-70.604335,-33.402648],[-70.604301,-33.40291],[-70.60427,-33.403158],[-70.604259,-33.40339],[-70.604284,-33.403625],[-70.604366,-33.403965],[-70.604498,-33.40434],[-70.60516,-33.406439],[-70.605349,-33.406972],[-70.60548,-33.407239],[-70.605564,-33.407409],[-70.605599,-33.407483],[-70.605831,-33.407968],[-70.605959,-33.40819],[-70.60616,-33.40858],[-70.606266,-33.40879],[-70.606325,-33.408864],[-70.606392,-33.408947],[-70.606525,-33.409147],[-70.606654,-33.409283],[-70.606835,-33.409413],[-70.606982,-33.409505],[-70.607147,-33.40961],[-70.607285,-33.409696],[-70.607425,-33.409811],[-70.60755,-33.409937],[-70.607637,-33.410081],[-70.607684,-33.410191],[-70.607724,-33.410364],[-70.607727,-33.41055],[-70.60771,-33.410753],[-70.607713,-33.410946],[-70.607734,-33.41113],[-70.607744,-33.411348],[-70.607862,-33.411604],[-70.607988,-33.411769],[-70.608235,-33.411926],[-70.60835,-33.411998],[-70.608608,-33.412139],[-70.608863,-33.412208],[-70.609007,-33.41234],[-70.609412,-33.412385],[-70.609772,-33.412405],[-70.610018,-33.412441],[-70.61019,-33.412468],[-70.61045,-33.412551],[-70.610805,-33.412684],[-70.610909,-33.412721],[-70.611089,-33.412813],[-70.611242,-33.412884],[-70.611408,-33.412983],[-70.611494,-33.413012],[-70.611588,-33.413164],[-70.611757,-33.413431],[-70.612044,-33.413856],[-70.612298,-33.414189],[-70.612363,-33.414259],[-70.61256,-33.414293],[-70.612697,-33.414336],[-70.61283,-33.414416],[-70.61293,-33.414518],[-70.613043,-33.414471],[-70.613145,-33.414428],[-70.613226,-33.414374],[-70.613318,-33.414402],[-70.613556,-33.414102],[-70.613703,-33.414165],[-70.613837,-33.41424],[-70.613959,-33.414305],[-70.614145,-33.414448],[-70.614224,-33.414636],[-70.614028,-33.414707],[-70.613519,-33.415068],[-70.613039,-33.415338],[-70.612948,-33.415397],[-70.612863,-33.415453],[-70.612877,-33.415477],[-70.612888,-33.415495],[-70.612895,-33.415507],[-70.612932,-33.415567],[-70.613379,-33.415504],[-70.613776,-33.41547],[-70.614204,-33.415441],[-70.614665,-33.415428],[-70.615284,-33.415421],[-70.617095,-33.415412],[-70.617268,-33.415419],[-70.617465,-33.415462],[-70.617522,-33.415486],[-70.617574,-33.415514],[-70.618047,-33.415901],[-70.618678,-33.416468],[-70.620126,-33.417735],[-70.620359,-33.417939],[-70.620649,-33.418192],[-70.620765,-33.418343],[-70.620834,-33.418427],[-70.620953,-33.418574],[-70.621105,-33.418777],[-70.621253,-33.418975],[-70.621326,-33.41921],[-70.621359,-33.419315],[-70.621393,-33.419424],[-70.621566,-33.41977],[-70.621646,-33.419944],[-70.621692,-33.420097],[-70.621753,-33.420378],[-70.621806,-33.420618],[-70.621854,-33.420759],[-70.621945,-33.420967],[-70.622166,-33.421354],[-70.62234,-33.421608],[-70.622543,-33.421851],[-70.622936,-33.422642],[-70.623105,-33.423439],[-70.623199,-33.423515],[-70.62334,-33.424135],[-70.623438,-33.424867],[-70.623472,-33.425215],[-70.623505,-33.425451],[-70.623565,-33.425647],[-70.623647,-33.425702],[-70.623722,-33.425723],[-70.623831,-33.425768],[-70.623969,-33.425806],[-70.62411,-33.425812],[-70.624353,-33.425781],[-70.62498,-33.425602],[-70.625314,-33.425524],[-70.625486,-33.425531],[-70.625494,-33.425671],[-70.625744,-33.425706],[-70.626123,-33.425826],[-70.626706,-33.426151],[-70.627553,-33.426742],[-70.627992,-33.427065],[-70.628069,-33.427135],[-70.628375,-33.427357],[-70.628349,-33.427502],[-70.628796,-33.427712],[-70.628671,-33.427932],[-70.629013,-33.428078],[-70.629487,-33.428714],[-70.63007,-33.429124],[-70.630891,-33.429726],[-70.631512,-33.430118],[-70.63177,-33.430234],[-70.632024,-33.430315],[-70.632223,-33.430345],[-70.632366,-33.430354],[-70.63391,-33.431035],[-70.634079,-33.43108],[-70.634211,-33.431077],[-70.634349,-33.431042],[-70.634458,-33.431006],[-70.634573,-33.430956],[-70.634629,-33.430931],[-70.634722,-33.430874],[-70.634777,-33.43081],[-70.63487,-33.43071],[-70.634951,-33.430645],[-70.635038,-33.430564],[-70.635186,-33.430461],[-70.63522,-33.430493],[-70.635322,-33.430439],[-70.635445,-33.430598],[-70.635514,-33.430696],[-70.635556,-33.430675],[-70.635602,-33.430673],[-70.63576,-33.430682],[-70.63592,-33.430691],[-70.636165,-33.430543],[-70.636133,-33.430447],[-70.636179,-33.430438],[-70.636115,-33.430104],[-70.636597,-33.429931],[-70.636503,-33.429758],[-70.636421,-33.429602],[-70.636649,-33.429453],[-70.637765,-33.428652],[-70.637887,-33.428588],[-70.638951,-33.428128],[-70.639018,-33.428072],[-70.639123,-33.427872],[-70.638781,-33.426972],[-70.638745,-33.426876],[-70.638649,-33.426445],[-70.638644,-33.426419],[-70.638651,-33.425899],[-70.638653,-33.425787],[-70.638675,-33.42543],[-70.638557,-33.425108],[-70.638514,-33.424714],[-70.638451,-33.424274],[-70.638401,-33.424034],[-70.638435,-33.423829],[-70.638463,-33.42373],[-70.638472,-33.423604],[-70.637344,-33.423856],[-70.63722,-33.423521],[-70.637198,-33.423448],[-70.637173,-33.423369],[-70.637484,-33.423319],[-70.637717,-33.423259],[-70.637654,-33.423005],[-70.637858,-33.422907],[-70.637936,-33.422921],[-70.638006,-33.422911],[-70.638062,-33.422948],[-70.638096,-33.423203],[-70.638382,-33.423136],[-70.63845,-33.422706],[-70.638527,-33.422365],[-70.638664,-33.42237],[-70.638728,-33.422072],[-70.639297,-33.42201],[-70.639612,-33.421599],[-70.639756,-33.42141],[-70.63993,-33.421186],[-70.640078,-33.420965],[-70.640426,-33.421039],[-70.64043,-33.421026],[-70.640573,-33.420575],[-70.640628,-33.420283],[-70.640624,-33.42004],[-70.640551,-33.419834],[-70.640377,-33.419574],[-70.639881,-33.418834],[-70.639641,-33.418476],[-70.639571,-33.418506],[-70.639236,-33.418649],[-70.639091,-33.418707],[-70.63928,-33.418988],[-70.638975,-33.419181],[-70.638445,-33.419516],[-70.638333,-33.419585],[-70.638218,-33.419476],[-70.638055,-33.419303],[-70.637932,-33.419192],[-70.637805,-33.419061],[-70.637584,-33.418874],[-70.637398,-33.418667],[-70.637151,-33.418434],[-70.636913,-33.418135],[-70.636695,-33.417816],[-70.636543,-33.41762],[-70.6364,-33.417431],[-70.636183,-33.417325],[-70.635518,-33.417038],[-70.635304,-33.416971],[-70.635086,-33.416929],[-70.634856,-33.416928],[-70.634652,-33.416926],[-70.634446,-33.416913],[-70.634353,-33.416892],[-70.634161,-33.416779],[-70.634042,-33.416715],[-70.633912,-33.416728],[-70.63382,-33.41674],[-70.633718,-33.416785],[-70.633597,-33.416799],[-70.633389,-33.416765],[-70.633235,-33.416703],[-70.633093,-33.416547],[-70.633013,-33.416331],[-70.632953,-33.416186],[-70.632477,-33.41559],[-70.632339,-33.415417],[-70.632078,-33.415215],[-70.631103,-33.414643],[-70.631,-33.414583],[-70.630865,-33.414521],[-70.630664,-33.414456],[-70.630279,-33.414385],[-70.62999,-33.414347],[-70.62979,-33.414412],[-70.629618,-33.414591],[-70.629475,-33.414727],[-70.629354,-33.414751],[-70.629125,-33.414749],[-70.628967,-33.414793],[-70.628818,-33.414916],[-70.628655,-33.415282],[-70.628411,-33.415396],[-70.628248,-33.415443],[-70.628107,-33.415413],[-70.627933,-33.415333],[-70.627787,-33.415241],[-70.62765,-33.41504],[-70.62748,-33.41479],[-70.62743,-33.414749],[-70.627362,-33.414733],[-70.627296,-33.414739],[-70.627163,-33.414795],[-70.626954,-33.414902],[-70.62672,-33.415018],[-70.626621,-33.415069],[-70.625938,-33.41516],[-70.625706,-33.415167],[-70.6256,-33.415109],[-70.625359,-33.414885],[-70.625297,-33.414797],[-70.625104,-33.41454],[-70.624498,-33.413941],[-70.6238,-33.413388],[-70.623488,-33.413015],[-70.623169,-33.412692],[-70.623025,-33.412404],[-70.623023,-33.4121],[-70.623036,-33.411671],[-70.623197,-33.411417],[-70.623461,-33.411341],[-70.624061,-33.411173],[-70.624752,-33.41098],[-70.6246,-33.410049],[-70.624436,-33.40904],[-70.624302,-33.408218],[-70.624003,-33.408274],[-70.623858,-33.407929],[-70.623786,-33.407769],[-70.623701,-33.407643],[-70.62304,-33.406858],[-70.622549,-33.406281],[-70.622382,-33.406156],[-70.622193,-33.406059],[-70.621959,-33.406039],[-70.621599,-33.406085],[-70.620902,-33.406379],[-70.62073,-33.406484],[-70.620538,-33.406605],[-70.620386,-33.406712],[-70.620107,-33.406773],[-70.619878,-33.406723],[-70.619652,-33.406645],[-70.619514,-33.406695],[-70.619607,-33.406841],[-70.619809,-33.407161],[-70.619947,-33.40761],[-70.619766,-33.407618],[-70.61928,-33.407674],[-70.619141,-33.407662],[-70.618749,-33.407582],[-70.618598,-33.407534],[-70.61841,-33.407421],[-70.618221,-33.407258],[-70.618139,-33.407134],[-70.618015,-33.406906],[-70.617431,-33.40599],[-70.617354,-33.405771],[-70.617281,-33.405562],[-70.617291,-33.405352],[-70.617415,-33.405195],[-70.617546,-33.405116],[-70.617761,-33.405107],[-70.618482,-33.405186],[-70.618682,-33.4051],[-70.618805,-33.405006],[-70.618923,-33.404813],[-70.61895,-33.40471],[-70.618868,-33.404104],[-70.618828,-33.403928],[-70.618715,-33.403811],[-70.618504,-33.403737],[-70.618085,-33.403717],[-70.617967,-33.403636],[-70.617902,-33.403554],[-70.61788,-33.403461],[-70.617859,-33.40337],[-70.617902,-33.403124],[-70.617902,-33.402851],[-70.617621,-33.402425],[-70.617544,-33.402273],[-70.617521,-33.402085],[-70.617499,-33.401655],[-70.617574,-33.401393],[-70.617778,-33.401109],[-70.618057,-33.40086],[-70.61876,-33.400361],[-70.619132,-33.40016],[-70.61962,-33.400025],[-70.619877,-33.400087],[-70.619841,-33.400013],[-70.619804,-33.399974],[-70.619758,-33.399956],[-70.619697,-33.399948],[-70.619676,-33.399899],[-70.619663,-33.399876],[-70.619812,-33.399825],[-70.619948,-33.399809],[-70.62004,-33.399836],[-70.620065,-33.399843],[-70.620083,-33.399797],[-70.620196,-33.399813],[-70.620471,-33.3994],[-70.620538,-33.399378],[-70.620854,-33.398873],[-70.622493,-33.397187],[-70.622663,-33.397009],[-70.622476,-33.396878],[-70.622433,-33.396709],[-70.622406,-33.396541],[-70.622706,-33.396111],[-70.622505,-33.39598],[-70.622424,-33.396038],[-70.622167,-33.395716],[-70.621577,-33.396037],[-70.620855,-33.396519],[-70.620008,-33.397099],[-70.619617,-33.397359],[-70.619219,-33.39765],[-70.61885,-33.397901],[-70.618001,-33.398471],[-70.617228,-33.398942],[-70.616705,-33.399256],[-70.615963,-33.39973],[-70.615628,-33.399927],[-70.615372,-33.400099],[-70.61513,-33.400066],[-70.614958,-33.39999],[-70.614765,-33.399757],[-70.614383,-33.399323],[-70.614112,-33.399077],[-70.613884,-33.398939],[-70.613245,-33.398249],[-70.612974,-33.398162],[-70.612277,-33.397906],[-70.612009,-33.397761],[-70.612012,-33.397208],[-70.611826,-33.396864],[-70.611463,-33.396613],[-70.611103,-33.396419],[-70.610802,-33.396169],[-70.61033,-33.395734],[-70.609884,-33.395361],[-70.609532,-33.39511],[-70.609292,-33.3949],[-70.609111,-33.39463],[-70.608948,-33.394236],[-70.608777,-33.39382],[-70.608553,-33.393591],[-70.608262,-33.393441],[-70.607876,-33.393305],[-70.607524,-33.393168],[-70.60724,-33.392975],[-70.607069,-33.392688],[-70.606935,-33.392219],[-70.606836,-33.391781],[-70.606658,-33.391505],[-70.60645,-33.391331],[-70.606169,-33.391209],[-70.605717,-33.391112],[-70.60522,-33.391024],[-70.604739,-33.390954],[-70.604535,-33.390825],[-70.604281,-33.390771],[-70.603663,-33.390333],[-70.603372,-33.390049],[-70.602817,-33.389666],[-70.602517,-33.389488],[-70.602273,-33.389426],[-70.602108,-33.389419],[-70.602144,-33.389191],[-70.602541,-33.389233],[-70.602947,-33.38939],[-70.602911,-33.38931],[-70.60267,-33.388881],[-70.602289,-33.388581],[-70.601966,-33.388594],[-70.601744,-33.387815],[-70.601671,-33.3868],[-70.601526,-33.386786],[-70.601451,-33.386751],[-70.601289,-33.38666],[-70.601166,-33.386842],[-70.601102,-33.387115],[-70.601015,-33.387467],[-70.600866,-33.387751],[-70.600667,-33.387958],[-70.600538,-33.388051],[-70.600308,-33.388217],[-70.600223,-33.388312],[-70.60028,-33.388363],[-70.600215,-33.388489],[-70.600214,-33.388638],[-70.600249,-33.388724],[-70.600195,-33.388752],[-70.600245,-33.388903],[-70.60039,-33.389055],[-70.600704,-33.389173],[-70.600935,-33.389178],[-70.601128,-33.389102],[-70.601246,-33.389003],[-70.601364,-33.388846],[-70.601498,-33.388732],[-70.601659,-33.388665],[-70.601774,-33.388495],[-70.601801,-33.388475],[-70.601935,-33.388877],[-70.601908,-33.389486],[-70.601639,-33.389628],[-70.601489,-33.389765],[-70.601395,-33.389943],[-70.601356,-33.390139],[-70.601321,-33.390377],[-70.601298,-33.390598],[-70.6013,-33.390803]]]}}],"properties":{"fuente":"© colaboradores de OpenStreetMap (ODbL)","capa":"limite"}}