{"type":"FeatureCollection","features":[{"type":"Feature","properties":{"intermittent":"no","name":"Canal El Carmen","waterway":"canal","osm":"way/37024702"},"geometry":{"type":"LineString","coordinates":[[-70.618163,-33.408858],[-70.618022,-33.408468],[-70.617514,-33.407636],[-70.617222,-33.407256],[-70.617034,-33.407105],[-70.616776,-33.407034],[-70.61663,-33.406891],[-70.616553,-33.40679],[-70.61633,-33.406582],[-70.616072,-33.406403],[-70.615909,-33.406238]]}},{"type":"Feature","properties":{"intermittent":"no","name":"Canal El Carmen","waterway":"canal","osm":"way/37024704"},"geometry":{"type":"LineString","coordinates":[[-70.615772,-33.401345],[-70.615145,-33.400153]]}},{"type":"Feature","properties":{"intermittent":"no","name":"Canal El Carmen","waterway":"canal","osm":"way/37024706"},"geometry":{"type":"MultiLineString","coordinates":[[[-70.615145,-33.400153],[-70.614888,-33.400076],[-70.61469,-33.399876],[-70.61451,-33.399575],[-70.614064,-33.399209],[-70.613678,-33.398923],[-70.613618,-33.398815],[-70.613444,-33.398635]],[[-70.613256,-33.398446],[-70.613188,-33.398378],[-70.612905,-33.398228],[-70.612673,-33.398163],[-70.612313,-33.398084],[-70.611884,-33.397898],[-70.611738,-33.397798],[-70.611695,-33.397683],[-70.611729,-33.397091]],[[-70.611599,-33.396812],[-70.611437,-33.39673],[-70.611146,-33.396651],[-70.610862,-33.396544],[-70.610596,-33.396429],[-70.610468,-33.396314],[-70.610433,-33.396157],[-70.610472,-33.396042]]]}},{"type":"Feature","properties":{"intermittent":"no","name":"Canal El Carmen","waterway":"canal","osm":"way/37024708"},"geometry":{"type":"MultiLineString","coordinates":[[[-70.609899,-33.394749],[-70.609743,-33.394723],[-70.609662,-33.394665],[-70.609618,-33.394576]],[[-70.609341,-33.393574],[-70.609281,-33.393492],[-70.609045,-33.393304],[-70.608865,-33.393077],[-70.608584,-33.392946],[-70.608278,-33.392865],[-70.608069,-33.39278],[-70.607742,-33.39256],[-70.607696,-33.392437],[-70.607597,-33.392063],[-70.60754,-33.391796],[-70.607409,-33.391315],[-70.606966,-33.390869],[-70.606524,-33.390585],[-70.606065,-33.390417],[-70.605408,-33.39016],[-70.604912,-33.389906],[-70.604612,-33.389624],[-70.604046,-33.388888],[-70.604012,-33.388854]]]}},{"type":"Feature","properties":{"intermittent":"no","name":"Canal El Carmen","waterway":"canal","osm":"way/38618795"},"geometry":{"type":"LineString","coordinates":[[-70.612939,-33.41548],[-70.613641,-33.415341],[-70.613984,-33.415265],[-70.61574,-33.414946],[-70.61583,-33.414922],[-70.616174,-33.414715]]}},{"type":"Feature","properties":{"name":"Embalse Las Torres","natural":"water","osm":"way/40140793"},"geometry":{"type":"Polygon","coordinates":[[[-70.608245,-33.397817],[-70.608152,-33.397816],[-70.608062,-33.397835],[-70.607979,-33.397871],[-70.607909,-33.397922],[-70.607856,-33.397986],[-70.607823,-33.398059],[-70.607812,-33.398136],[-70.607823,-33.398213],[-70.607856,-33.398286],[-70.607908,-33.39835],[-70.607978,-33.398401],[-70.60806,-33.398437],[-70.60815,-33.398456],[-70.608244,-33.398456],[-70.608334,-33.398438],[-70.608416,-33.398402],[-70.608486,-33.39835],[-70.608539,-33.398287],[-70.608572,-33.398214],[-70.608584,-33.398137],[-70.608573,-33.39806],[-70.60854,-33.397987],[-70.608487,-33.397923],[-70.608418,-33.397872],[-70.608335,-33.397835],[-70.608245,-33.397817]]]}},{"type":"Feature","properties":{"name":"Canal El Carmen","waterway":"canal","osm":"way/40140796"},"geometry":{"type":"LineString","coordinates":[[-70.61274,-33.415519],[-70.612939,-33.41548]]}},{"type":"Feature","properties":{"intermittent":"no","name":"Canal El Carmen","waterway":"canal","osm":"way/41161400"},"geometry":{"type":"LineString","coordinates":[[-70.616291,-33.414391],[-70.618168,-33.408979],[-70.618163,-33.408858]]}},{"type":"Feature","properties":{"natural":"water","osm":"way/157035627"},"geometry":{"type":"Polygon","coordinates":[[[-70.629901,-33.420343],[-70.630248,-33.420576],[-70.630391,-33.420427],[-70.630044,-33.420195],[-70.629901,-33.420343]]]}},{"type":"Feature","properties":{"name":"Estanque","natural":"water","osm":"way/292124351"},"geometry":{"type":"Polygon","coordinates":[[[-70.61957,-33.414216],[-70.619612,-33.414239],[-70.619671,-33.414249],[-70.619745,-33.414235],[-70.619791,-33.414194],[-70.619807,-33.41414],[-70.619799,-33.414085],[-70.619773,-33.414045],[-70.619702,-33.413994],[-70.6196,-33.414],[-70.619573,-33.414041],[-70.619577,-33.414088],[-70.619591,-33.414108],[-70.619582,-33.414186],[-70.61957,-33.414216]]]}},{"type":"Feature","properties":{"natural":"water","osm":"way/555001259"},"geometry":{"type":"Polygon","coordinates":[[[-70.636411,-33.420545],[-70.636494,-33.420457],[-70.636435,-33.420431],[-70.636405,-33.420368],[-70.636306,-33.420336],[-70.636218,-33.420359],[-70.636151,-33.420453],[-70.636411,-33.420545]]]}},{"type":"Feature","properties":{"intermittent":"no","name":"Canal El Carmen","waterway":"canal","osm":"way/555001289"},"geometry":{"type":"LineString","coordinates":[[-70.615969,-33.406031],[-70.616055,-33.40588],[-70.61615,-33.405787],[-70.61615,-33.405629],[-70.616038,-33.405479],[-70.615866,-33.405364],[-70.615858,-33.405264],[-70.615901,-33.405185],[-70.616004,-33.405113],[-70.616038,-33.404891],[-70.616038,-33.404734],[-70.615926,-33.404619],[-70.615643,-33.404397],[-70.615592,-33.404225],[-70.615592,-33.404146],[-70.615832,-33.404003],[-70.615987,-33.403867],[-70.615987,-33.403695],[-70.615952,-33.403494],[-70.615858,-33.403193],[-70.615643,-33.402871],[-70.615523,-33.402634],[-70.615523,-33.402391],[-70.615626,-33.402219],[-70.615798,-33.40209],[-70.615918,-33.401911],[-70.615918,-33.40176],[-70.615875,-33.401588],[-70.615772,-33.401345]]}},{"type":"Feature","properties":{"intermittent":"no","name":"Canal El Carmen","waterway":"canal","osm":"way/555001290"},"geometry":{"type":"LineString","coordinates":[[-70.615909,-33.406238],[-70.615969,-33.406031]]}},{"type":"Feature","properties":{"waterway":"ditch","osm":"way/555255281"},"geometry":{"type":"LineString","coordinates":[[-70.615955,-33.403511],[-70.61597,-33.403297],[-70.615951,-33.403143],[-70.615667,-33.402592],[-70.615664,-33.402502],[-70.615694,-33.402392],[-70.615887,-33.402173],[-70.616037,-33.401956],[-70.616086,-33.401801],[-70.616075,-33.401696],[-70.616002,-33.401519],[-70.615911,-33.401348],[-70.615949,-33.401221],[-70.616107,-33.401094],[-70.616338,-33.40087],[-70.61659,-33.400718],[-70.616847,-33.400516],[-70.616965,-33.400238],[-70.617089,-33.399844],[-70.617314,-33.39958],[-70.617534,-33.399396],[-70.617813,-33.39924],[-70.618382,-33.399029],[-70.618741,-33.398832],[-70.618843,-33.398702],[-70.618875,-33.398537],[-70.618875,-33.398339],[-70.618913,-33.398084]]}},{"type":"Feature","properties":{"natural":"water","osm":"way/636715682"},"geometry":{"type":"Polygon","coordinates":[[[-70.613674,-33.415381],[-70.613697,-33.415345],[-70.613939,-33.415305],[-70.614138,-33.415257],[-70.615127,-33.415084],[-70.615837,-33.414948],[-70.6162,-33.414727],[-70.616147,-33.414703],[-70.615817,-33.414904],[-70.614029,-33.415236],[-70.613592,-33.415335],[-70.613582,-33.415323],[-70.612971,-33.415441],[-70.612974,-33.415455],[-70.612935,-33.415463],[-70.612944,-33.415497],[-70.613674,-33.415381]]]}},{"type":"Feature","properties":{"natural":"water","osm":"way/708384514"},"geometry":{"type":"Polygon","coordinates":[[[-70.607091,-33.407268],[-70.607094,-33.407231],[-70.607068,-33.407173],[-70.607043,-33.407147],[-70.607006,-33.407133],[-70.606958,-33.407123],[-70.60691,-33.407132],[-70.606858,-33.407185],[-70.606852,-33.407237],[-70.606862,-33.407274],[-70.606912,-33.407323],[-70.606944,-33.407335],[-70.606986,-33.407341],[-70.607019,-33.40733],[-70.607074,-33.407296],[-70.607091,-33.407268]]]}},{"type":"Feature","properties":{"intermittent":"yes","waterway":"drain","osm":"way/727327137"},"geometry":{"type":"MultiLineString","coordinates":[[[-70.603271,-33.384013],[-70.603113,-33.384192]],[[-70.602531,-33.384845],[-70.602206,-33.385405]]]}},{"type":"Feature","properties":{"intermittent":"yes","waterway":"drain","osm":"way/727327138"},"geometry":{"type":"LineString","coordinates":[[-70.601598,-33.386505],[-70.602026,-33.386671]]}},{"type":"Feature","properties":{"waterway":"ditch","osm":"way/727327139"},"geometry":{"type":"LineString","coordinates":[[-70.602026,-33.386671],[-70.602371,-33.386764],[-70.602685,-33.386827],[-70.603015,-33.386981],[-70.603122,-33.386995],[-70.60324,-33.386993],[-70.603292,-33.387029]]}},{"type":"Feature","properties":{"intermittent":"no","name":"Canal Metropolitano","waterway":"ditch","osm":"way/727327140"},"geometry":{"type":"LineString","coordinates":[[-70.599103,-33.377578],[-70.599206,-33.377685],[-70.599301,-33.378287],[-70.599239,-33.378628],[-70.599387,-33.378946],[-70.599661,-33.379241],[-70.599841,-33.379385],[-70.600376,-33.379586]]}},{"type":"Feature","properties":{"intermittent":"no","name":"Embalse ParqueMet","natural":"water","osm":"way/727327151"},"geometry":{"type":"Polygon","coordinates":[[[-70.600778,-33.379803],[-70.600806,-33.379833],[-70.600848,-33.379856],[-70.600897,-33.379865],[-70.600947,-33.37986],[-70.600992,-33.379841],[-70.601027,-33.37981],[-70.601046,-33.379772],[-70.601049,-33.37973],[-70.601035,-33.379689],[-70.601005,-33.379656],[-70.600967,-33.379634],[-70.600923,-33.379623],[-70.600878,-33.379624],[-70.600835,-33.379637],[-70.600798,-33.379661],[-70.600773,-33.379692],[-70.60076,-33.379729],[-70.600762,-33.379767],[-70.600778,-33.379803]]]}},{"type":"Feature","properties":{"intermittent":"no","name":"Embalse ParqueMet","natural":"water","osm":"way/727327152"},"geometry":{"type":"Polygon","coordinates":[[[-70.600551,-33.379591],[-70.60058,-33.379621],[-70.600622,-33.379644],[-70.600671,-33.379653],[-70.600721,-33.379648],[-70.600766,-33.379629],[-70.6008,-33.379598],[-70.60082,-33.37956],[-70.600823,-33.379518],[-70.600809,-33.379478],[-70.600779,-33.379444],[-70.600741,-33.379422],[-70.600697,-33.379411],[-70.600651,-33.379413],[-70.600608,-33.379425],[-70.600572,-33.379449],[-70.600547,-33.37948],[-70.600534,-33.379517],[-70.600536,-33.379555],[-70.600551,-33.379591]]]}},{"type":"Feature","properties":{"intermittent":"no","name":"Canal Metropolitano","waterway":"ditch","osm":"way/741133116"},"geometry":{"type":"LineString","coordinates":[[-70.60257,-33.375567],[-70.602496,-33.375383],[-70.602354,-33.375273],[-70.602168,-33.375168],[-70.602088,-33.375074],[-70.60183,-33.374991],[-70.601509,-33.374971],[-70.60146,-33.374928],[-70.601694,-33.374373],[-70.601691,-33.373887],[-70.601573,-33.373564],[-70.60138,-33.373287],[-70.601163,-33.373123],[-70.600999,-33.37302],[-70.601184,-33.37278],[-70.60131,-33.372816],[-70.601315,-33.372749]]}},{"type":"Feature","properties":{"intermittent":"no","name":"Estanque de Riego BS","natural":"water","osm":"way/741133117"},"geometry":{"type":"Polygon","coordinates":[[[-70.604082,-33.372966],[-70.604129,-33.372997],[-70.60416,-33.373001],[-70.604218,-33.372983],[-70.604249,-33.372939],[-70.60425,-33.372913],[-70.604241,-33.372888],[-70.604197,-33.372854],[-70.604139,-33.372849],[-70.604112,-33.372858],[-70.604074,-33.372895],[-70.60407,-33.372944],[-70.604082,-33.372966]]]}},{"type":"Feature","properties":{"intermittent":"no","name":"Estanque de Riego BS","natural":"water","osm":"way/741133120"},"geometry":{"type":"Polygon","coordinates":[[[-70.606658,-33.374148],[-70.606685,-33.374189],[-70.606733,-33.374207],[-70.606784,-33.374197],[-70.606818,-33.374164],[-70.606821,-33.37412],[-70.606793,-33.374083],[-70.60674,-33.374068],[-70.606712,-33.374072],[-70.606669,-33.374102],[-70.606658,-33.374148]]]}},{"type":"Feature","properties":{"natural":"water","osm":"way/818928223"},"geometry":{"type":"Polygon","coordinates":[[[-70.633918,-33.430264],[-70.633889,-33.430239],[-70.633846,-33.430253],[-70.633846,-33.430275],[-70.633892,-33.430317],[-70.633915,-33.430316],[-70.633936,-33.430292],[-70.633918,-33.430264]]]}},{"type":"Feature","properties":{"natural":"water","osm":"way/888762636"},"geometry":{"type":"Polygon","coordinates":[[[-70.62387,-33.416919],[-70.624,-33.416869],[-70.623917,-33.416721],[-70.623787,-33.416772],[-70.62387,-33.416919]]]}},{"type":"Feature","properties":{"waterway":"stream","osm":"way/906240869"},"geometry":{"type":"LineString","coordinates":[[-70.620273,-33.414384],[-70.620129,-33.414328],[-70.620039,-33.414272],[-70.61991,-33.414219],[-70.619791,-33.414194]]}},{"type":"Feature","properties":{"natural":"water","osm":"way/906717573"},"geometry":{"type":"Polygon","coordinates":[[[-70.615782,-33.410855],[-70.615786,-33.410885],[-70.61593,-33.410869],[-70.615926,-33.410839],[-70.615782,-33.410855]]]}},{"type":"Feature","properties":{"natural":"water","osm":"way/906717574"},"geometry":{"type":"Polygon","coordinates":[[[-70.615884,-33.410727],[-70.615894,-33.410754],[-70.61585,-33.410766],[-70.615861,-33.410795],[-70.616006,-33.410755],[-70.615985,-33.4107],[-70.615884,-33.410727]]]}},{"type":"Feature","properties":{"natural":"water","osm":"way/906717575"},"geometry":{"type":"Polygon","coordinates":[[[-70.615633,-33.410806],[-70.615734,-33.410795],[-70.615727,-33.410754],[-70.615626,-33.410765],[-70.615633,-33.410806]]]}},{"type":"Feature","properties":{"intermittent":"no","name":"Quebrada Valdiviana","waterway":"ditch","osm":"way/908562067"},"geometry":{"type":"LineString","coordinates":[[-70.609225,-33.374985],[-70.609389,-33.375062],[-70.609587,-33.375409],[-70.60966,-33.375579],[-70.609786,-33.375765],[-70.609899,-33.375979],[-70.60997,-33.376013],[-70.610106,-33.376131],[-70.610298,-33.376325]]}},{"type":"Feature","properties":{"natural":"water","osm":"way/908562068"},"geometry":{"type":"Polygon","coordinates":[[[-70.607845,-33.372034],[-70.607791,-33.372026],[-70.607742,-33.372049],[-70.607721,-33.372093],[-70.607737,-33.372138],[-70.607757,-33.372154],[-70.60781,-33.372167],[-70.607837,-33.372162],[-70.607878,-33.372133],[-70.60789,-33.372088],[-70.607867,-33.372048],[-70.607845,-33.372034]]]}},{"type":"Feature","properties":{"intermittent":"yes","waterway":"stream","osm":"way/908562070"},"geometry":{"type":"LineString","coordinates":[[-70.599096,-33.364495],[-70.599037,-33.364594],[-70.599069,-33.364706],[-70.599032,-33.364822],[-70.598967,-33.364957],[-70.598984,-33.365172],[-70.598887,-33.365338],[-70.598876,-33.365468],[-70.598828,-33.365692],[-70.598678,-33.365969],[-70.598688,-33.366211],[-70.598624,-33.36631],[-70.598608,-33.366588],[-70.598656,-33.366735],[-70.598613,-33.366946],[-70.598603,-33.367201],[-70.598613,-33.367381],[-70.598613,-33.367623],[-70.598704,-33.367797],[-70.599069,-33.368572],[-70.599166,-33.368832],[-70.599274,-33.368996],[-70.599329,-33.369032],[-70.599499,-33.369287],[-70.599516,-33.369596],[-70.59965,-33.369869],[-70.599859,-33.370169],[-70.599902,-33.370438],[-70.599778,-33.370624],[-70.599989,-33.370689],[-70.600074,-33.370694],[-70.600192,-33.370886],[-70.600267,-33.371119],[-70.600294,-33.371317],[-70.600637,-33.371652],[-70.600851,-33.37193],[-70.60098,-33.372172],[-70.601077,-33.372244],[-70.60135,-33.372356],[-70.601489,-33.372457]]}},{"type":"Feature","properties":{"intermittent":"yes","waterway":"stream","osm":"way/908562072"},"geometry":{"type":"LineString","coordinates":[[-70.601489,-33.372457],[-70.601608,-33.372542],[-70.601863,-33.372636],[-70.602075,-33.37273],[-70.602233,-33.372824],[-70.602386,-33.37294],[-70.602437,-33.373021],[-70.602458,-33.373128],[-70.602549,-33.373319],[-70.602665,-33.373458],[-70.60275,-33.373684],[-70.602713,-33.373823],[-70.602761,-33.373973],[-70.602828,-33.374087],[-70.602946,-33.374248],[-70.603126,-33.374325]]}},{"type":"Feature","properties":{"intermittent":"yes","waterway":"stream","osm":"way/908562073"},"geometry":{"type":"MultiLineString","coordinates":[[[-70.603126,-33.374325],[-70.603296,-33.374416]],[[-70.603368,-33.374454],[-70.603979,-33.374779]]]}},{"type":"Feature","properties":{"intermittent":"yes","waterway":"stream","osm":"way/908562074"},"geometry":{"type":"LineString","coordinates":[[-70.603979,-33.374779],[-70.604293,-33.374954],[-70.604805,-33.375124],[-70.605052,-33.375265],[-70.6053,-33.375431]]}},{"type":"Feature","properties":{"intermittent":"yes","waterway":"stream","osm":"way/908562076"},"geometry":{"type":"LineString","coordinates":[[-70.605386,-33.375504],[-70.605537,-33.375633],[-70.60561,-33.375763],[-70.60569,-33.375839],[-70.605794,-33.375894]]}},{"type":"Feature","properties":{"intermittent":"no","waterway":"ditch","osm":"way/908562078"},"geometry":{"type":"LineString","coordinates":[[-70.606495,-33.37601],[-70.606787,-33.375996],[-70.607426,-33.375832],[-70.607734,-33.375805],[-70.607914,-33.375819],[-70.608034,-33.375815]]}},{"type":"Feature","properties":{"natural":"water","osm":"way/908916598"},"geometry":{"type":"Polygon","coordinates":[[[-70.621747,-33.416136],[-70.62176,-33.416087],[-70.621737,-33.415999],[-70.621714,-33.415958],[-70.621678,-33.415932],[-70.621583,-33.415906],[-70.621533,-33.415939],[-70.621554,-33.415968],[-70.621589,-33.415963],[-70.621613,-33.415987],[-70.621608,-33.416],[-70.621646,-33.416005],[-70.621687,-33.416023],[-70.621702,-33.416062],[-70.621698,-33.416101],[-70.621715,-33.416117],[-70.621719,-33.416134],[-70.621747,-33.416136]]]}},{"type":"Feature","properties":{"natural":"water","osm":"way/909417003"},"geometry":{"type":"Polygon","coordinates":[[[-70.613776,-33.409177],[-70.613767,-33.409199],[-70.613852,-33.409221],[-70.613861,-33.409199],[-70.613776,-33.409177]]]}},{"type":"Feature","properties":{"waterway":"ditch","osm":"way/919016862"},"geometry":{"type":"LineString","coordinates":[[-70.618995,-33.397995],[-70.619202,-33.397784],[-70.619319,-33.397693]]}},{"type":"Feature","properties":{"intermittent":"no","name":"Canal El Carmen","waterway":"canal","osm":"way/919288156"},"geometry":{"type":"LineString","coordinates":[[-70.616174,-33.414715],[-70.616291,-33.414391]]}},{"type":"Feature","properties":{"waterway":"ditch","osm":"way/919288167"},"geometry":{"type":"LineString","coordinates":[[-70.614177,-33.413084],[-70.613986,-33.413145],[-70.613945,-33.41317],[-70.613943,-33.41319],[-70.614005,-33.413236],[-70.614084,-33.413271],[-70.614098,-33.413291],[-70.614123,-33.413429],[-70.614181,-33.413547],[-70.614218,-33.413684]]}},{"type":"Feature","properties":{"intermittent":"no","name":"Estanque de la Tortuga","natural":"water","osm":"way/919288170"},"geometry":{"type":"Polygon","coordinates":[[[-70.61411,-33.413632],[-70.614141,-33.413662],[-70.614168,-33.41367],[-70.614186,-33.413655],[-70.614221,-33.413648],[-70.61431,-33.413646],[-70.614319,-33.413623],[-70.614314,-33.413583],[-70.6142,-33.413547],[-70.614085,-33.413546],[-70.61411,-33.413632]]]}},{"type":"Feature","properties":{"intermittent":"no","name":"ike","natural":"water","osm":"way/919288171"},"geometry":{"type":"Polygon","coordinates":[[[-70.614311,-33.413678],[-70.61417,-33.413687],[-70.614113,-33.413692],[-70.614124,-33.413704],[-70.614191,-33.413715],[-70.614262,-33.413705],[-70.614311,-33.413678]]]}},{"type":"Feature","properties":{"name":"Acequia Las Cruces","waterway":"ditch","osm":"way/923021143"},"geometry":{"type":"LineString","coordinates":[[-70.603429,-33.387067],[-70.603699,-33.387095]]}},{"type":"Feature","properties":{"natural":"water","osm":"way/927939647"},"geometry":{"type":"Polygon","coordinates":[[[-70.631353,-33.418004],[-70.631325,-33.418028],[-70.631412,-33.418099],[-70.63144,-33.418076],[-70.631353,-33.418004]]]}},{"type":"Feature","properties":{"waterway":"drain","osm":"way/927939649"},"geometry":{"type":"LineString","coordinates":[[-70.63113,-33.418314],[-70.631245,-33.418072],[-70.631325,-33.418028]]}},{"type":"Feature","properties":{"natural":"water","osm":"way/927939655"},"geometry":{"type":"Polygon","coordinates":[[[-70.631567,-33.421375],[-70.631101,-33.421086],[-70.630965,-33.421239],[-70.631431,-33.421528],[-70.631567,-33.421375]]]}},{"type":"Feature","properties":{"natural":"water","osm":"way/933900553"},"geometry":{"type":"Polygon","coordinates":[[[-70.634831,-33.429307],[-70.634762,-33.429314],[-70.63475,-33.429333],[-70.634698,-33.429335],[-70.634711,-33.429402],[-70.634775,-33.429412],[-70.63486,-33.429389],[-70.634831,-33.429307]]]}},{"type":"Feature","properties":{"natural":"water","osm":"way/933900554"},"geometry":{"type":"Polygon","coordinates":[[[-70.634918,-33.429253],[-70.634944,-33.429232],[-70.634982,-33.429176],[-70.634986,-33.429145],[-70.634967,-33.429124],[-70.634923,-33.42912],[-70.634751,-33.429159],[-70.634711,-33.429177],[-70.634684,-33.429217],[-70.634699,-33.429236],[-70.63472,-33.429243],[-70.634918,-33.429253]]]}},{"type":"Feature","properties":{"intermittent":"yes","waterway":"stream","osm":"way/943076188"},"geometry":{"type":"LineString","coordinates":[[-70.608039,-33.39951],[-70.607672,-33.399528],[-70.607591,-33.399514],[-70.607403,-33.399516],[-70.607237,-33.39949],[-70.607095,-33.399492],[-70.607004,-33.399528],[-70.606829,-33.399557],[-70.606572,-33.399622],[-70.606486,-33.399613],[-70.606339,-33.399691],[-70.606092,-33.399763],[-70.606001,-33.399803],[-70.605783,-33.399848],[-70.605687,-33.399908]]}},{"type":"Feature","properties":{"intermittent":"yes","waterway":"stream","osm":"way/943076189"},"geometry":{"type":"LineString","coordinates":[[-70.604708,-33.401467],[-70.604089,-33.401452]]}},{"type":"Feature","properties":{"intermittent":"yes","waterway":"stream","osm":"way/943076190"},"geometry":{"type":"LineString","coordinates":[[-70.605413,-33.39998],[-70.605276,-33.399989],[-70.605212,-33.400002],[-70.605105,-33.400123],[-70.605067,-33.400137],[-70.605035,-33.400164],[-70.604965,-33.400191],[-70.604901,-33.400168],[-70.604847,-33.400164],[-70.604799,-33.400173],[-70.604751,-33.400193],[-70.604729,-33.40022],[-70.604737,-33.40049],[-70.604668,-33.401281],[-70.604708,-33.401418],[-70.604708,-33.401467]]}},{"type":"Feature","properties":{"intermittent":"yes","waterway":"stream","osm":"way/943076191"},"geometry":{"type":"LineString","coordinates":[[-70.605687,-33.399908],[-70.605413,-33.39998]]}},{"type":"Feature","properties":{"intermittent":"yes","waterway":"stream","osm":"way/943076192"},"geometry":{"type":"LineString","coordinates":[[-70.60882,-33.399434],[-70.609101,-33.399414],[-70.609254,-33.399425],[-70.609329,-33.399418],[-70.609514,-33.399331],[-70.609648,-33.399198],[-70.609748,-33.399078],[-70.609997,-33.398892],[-70.610086,-33.398791],[-70.610206,-33.39871],[-70.6103,-33.398623],[-70.610504,-33.398531],[-70.610598,-33.398498],[-70.610761,-33.398401],[-70.610906,-33.398258],[-70.610973,-33.398222],[-70.611083,-33.398115],[-70.611228,-33.39807],[-70.611378,-33.397971],[-70.611738,-33.397798]]}},{"type":"Feature","properties":{"intermittent":"yes","waterway":"stream","osm":"way/943076197"},"geometry":{"type":"LineString","coordinates":[[-70.608413,-33.397231],[-70.608498,-33.39718],[-70.608708,-33.397017],[-70.608826,-33.396999],[-70.608971,-33.396864],[-70.609209,-33.396757],[-70.609333,-33.396692],[-70.609408,-33.396634],[-70.60952,-33.39658],[-70.609571,-33.396533],[-70.609598,-33.396493],[-70.60974,-33.39647],[-70.609813,-33.39649],[-70.60988,-33.396497],[-70.60999,-33.396475],[-70.610049,-33.396361],[-70.610057,-33.396154],[-70.610151,-33.396148],[-70.610229,-33.396177],[-70.610433,-33.396157]]}},{"type":"Feature","properties":{"intermittent":"yes","waterway":"stream","osm":"way/943076219"},"geometry":{"type":"LineString","coordinates":[[-70.603081,-33.38942],[-70.603182,-33.389329],[-70.603464,-33.389217],[-70.603574,-33.38921],[-70.603641,-33.389163],[-70.603802,-33.389118],[-70.603821,-33.389091],[-70.603901,-33.389055],[-70.603971,-33.389004],[-70.604046,-33.388888]]}},{"type":"Feature","properties":{"intermittent":"yes","waterway":"stream","osm":"way/943076222"},"geometry":{"type":"LineString","coordinates":[[-70.606135,-33.397028],[-70.605811,-33.397065],[-70.605613,-33.397051],[-70.605462,-33.397109],[-70.605379,-33.397121],[-70.605181,-33.397197],[-70.604929,-33.397204],[-70.604688,-33.397222]]}},{"type":"Feature","properties":{"intermittent":"yes","waterway":"stream","osm":"way/943076223"},"geometry":{"type":"LineString","coordinates":[[-70.604688,-33.397222],[-70.604188,-33.397253]]}},{"type":"Feature","properties":{"intermittent":"yes","waterway":"stream","osm":"way/943076224"},"geometry":{"type":"LineString","coordinates":[[-70.607241,-33.396742],[-70.607157,-33.396809],[-70.606999,-33.396832],[-70.606916,-33.39691],[-70.606798,-33.396928],[-70.606677,-33.396928],[-70.606498,-33.396951],[-70.606358,-33.396959],[-70.606263,-33.397001]]}},{"type":"Feature","properties":{"intermittent":"no","natural":"water","osm":"way/943400412"},"geometry":{"type":"Polygon","coordinates":[[[-70.614047,-33.413432],[-70.613988,-33.413383],[-70.613903,-33.413455],[-70.613962,-33.413504],[-70.614047,-33.413432]]]}},{"type":"Feature","properties":{"intermittent":"no","natural":"water","osm":"way/943400434"},"geometry":{"type":"Polygon","coordinates":[[[-70.614177,-33.413084],[-70.614082,-33.413079],[-70.614076,-33.413108],[-70.614002,-33.41313],[-70.613939,-33.413166],[-70.613925,-33.413195],[-70.613929,-33.413208],[-70.61394,-33.413221],[-70.614077,-33.413292],[-70.614097,-33.41331],[-70.6141,-33.413327],[-70.614137,-33.413329],[-70.61414,-33.413297],[-70.613987,-33.413218],[-70.613964,-33.413194],[-70.613964,-33.413171],[-70.614026,-33.413141],[-70.614193,-33.413123],[-70.614177,-33.413084]]]}},{"type":"Feature","properties":{"intermittent":"yes","waterway":"stream","osm":"way/952811189"},"geometry":{"type":"LineString","coordinates":[[-70.603237,-33.364296],[-70.60343,-33.364453],[-70.603554,-33.364565],[-70.603656,-33.364632],[-70.603656,-33.364749],[-70.603741,-33.364834],[-70.603832,-33.36491],[-70.603908,-33.365009],[-70.604031,-33.365071],[-70.60409,-33.365147],[-70.604154,-33.365295],[-70.60424,-33.365403],[-70.604275,-33.365495],[-70.604264,-33.365615],[-70.604329,-33.365741],[-70.604479,-33.36596],[-70.604565,-33.36618],[-70.604591,-33.366328],[-70.604597,-33.366485],[-70.604667,-33.366691],[-70.604753,-33.366789],[-70.604913,-33.367143],[-70.605026,-33.367484],[-70.605149,-33.367802],[-70.605283,-33.367927],[-70.605477,-33.368299],[-70.605589,-33.36864],[-70.605648,-33.368761],[-70.605718,-33.368841],[-70.60575,-33.368935],[-70.605664,-33.369029],[-70.605697,-33.369097],[-70.605836,-33.369486],[-70.605788,-33.369917],[-70.605777,-33.370279],[-70.605841,-33.370485],[-70.605874,-33.370683],[-70.605954,-33.370835],[-70.605992,-33.371005],[-70.606094,-33.371198],[-70.606147,-33.371417],[-70.606174,-33.371619],[-70.606171,-33.371643]]}},{"type":"Feature","properties":{"intermittent":"yes","waterway":"stream","osm":"way/952811192"},"geometry":{"type":"LineString","coordinates":[[-70.602215,-33.364195],[-70.602285,-33.364424],[-70.602312,-33.364585],[-70.602145,-33.365114],[-70.602033,-33.365315],[-70.602033,-33.365427],[-70.601979,-33.365508],[-70.601893,-33.365598],[-70.601856,-33.365669],[-70.601883,-33.365835],[-70.60185,-33.365987],[-70.601727,-33.36622],[-70.60163,-33.366382],[-70.601561,-33.366606],[-70.601523,-33.366758],[-70.601448,-33.366866],[-70.601362,-33.366919],[-70.601298,-33.367076],[-70.601131,-33.367381],[-70.601115,-33.367596],[-70.601115,-33.367694],[-70.601003,-33.367936],[-70.600906,-33.368089],[-70.600665,-33.368344],[-70.600627,-33.36855],[-70.600633,-33.368761],[-70.600665,-33.368855],[-70.600563,-33.369209],[-70.600493,-33.369383],[-70.600493,-33.369563],[-70.600504,-33.369657],[-70.600354,-33.369791],[-70.600332,-33.36989],[-70.600262,-33.36997],[-70.600268,-33.3701],[-70.600225,-33.370333],[-70.600155,-33.370427],[-70.599989,-33.370689]]}},{"type":"Feature","properties":{"intermittent":"yes","waterway":"stream","osm":"way/952811193"},"geometry":{"type":"LineString","coordinates":[[-70.60346,-33.366785],[-70.603545,-33.366955],[-70.603545,-33.367049],[-70.603497,-33.36713],[-70.603503,-33.367228],[-70.603556,-33.367358],[-70.603663,-33.36747],[-70.603674,-33.367672],[-70.603803,-33.367797],[-70.603857,-33.367927],[-70.603857,-33.368012],[-70.603798,-33.368093],[-70.603841,-33.368196],[-70.603937,-33.368384],[-70.603942,-33.368465],[-70.604017,-33.368653],[-70.604028,-33.368752],[-70.60413,-33.36894],[-70.604248,-33.369038],[-70.604431,-33.369271],[-70.604602,-33.369442],[-70.604683,-33.369486],[-70.604833,-33.369639],[-70.604865,-33.369791],[-70.604924,-33.369966],[-70.60501,-33.370091],[-70.605117,-33.370181],[-70.605294,-33.370288],[-70.605514,-33.370378],[-70.60575,-33.370562],[-70.605874,-33.370683]]}},{"type":"Feature","properties":{"intermittent":"yes","waterway":"stream","osm":"way/952811194"},"geometry":{"type":"LineString","coordinates":[[-70.603578,-33.370006],[-70.603626,-33.370118],[-70.603621,-33.370239],[-70.603524,-33.370378],[-70.60361,-33.370548],[-70.603674,-33.370754],[-70.603653,-33.37096],[-70.603728,-33.371113],[-70.603792,-33.371202],[-70.603835,-33.371404],[-70.60383,-33.371664],[-70.603819,-33.371758],[-70.603867,-33.37221],[-70.603862,-33.372596],[-70.603878,-33.37272]]}},{"type":"Feature","properties":{"intermittent":"yes","waterway":"stream","osm":"way/952811195"},"geometry":{"type":"LineString","coordinates":[[-70.601668,-33.370275],[-70.601695,-33.370463],[-70.601738,-33.370575],[-70.601823,-33.370718],[-70.601861,-33.370862],[-70.601834,-33.371005],[-70.601823,-33.37122],[-70.601802,-33.371381],[-70.601829,-33.371583],[-70.601791,-33.371825],[-70.601743,-33.372018],[-70.601647,-33.372165],[-70.601415,-33.372405]]}},{"type":"Feature","properties":{"intermittent":"yes","waterway":"stream","osm":"way/952811196"},"geometry":{"type":"LineString","coordinates":[[-70.602204,-33.368004],[-70.602065,-33.368357],[-70.601936,-33.368626],[-70.601797,-33.368796],[-70.601577,-33.3692],[-70.601453,-33.369204],[-70.601319,-33.369258],[-70.601249,-33.369397],[-70.601089,-33.36954],[-70.600853,-33.369858],[-70.600767,-33.370069],[-70.600681,-33.370154],[-70.600643,-33.37023],[-70.600675,-33.37027],[-70.600665,-33.370356],[-70.600525,-33.370512],[-70.600472,-33.370629],[-70.600472,-33.37088],[-70.600461,-33.370969],[-70.600294,-33.371317]]}},{"type":"Feature","properties":{"intermittent":"yes","waterway":"stream","osm":"way/952811197"},"geometry":{"type":"LineString","coordinates":[[-70.597988,-33.371059],[-70.598503,-33.371018],[-70.598739,-33.371095],[-70.599393,-33.371037],[-70.599511,-33.370933],[-70.599624,-33.370933],[-70.599739,-33.370978],[-70.59997,-33.370918]]}},{"type":"Feature","properties":{"intermittent":"yes","waterway":"stream","osm":"way/952811198"},"geometry":{"type":"LineString","coordinates":[[-70.598479,-33.371679],[-70.59865,-33.371791],[-70.598887,-33.371966],[-70.598972,-33.372074],[-70.598999,-33.372194],[-70.599117,-33.372351],[-70.599246,-33.372419],[-70.599589,-33.372445],[-70.599809,-33.372557],[-70.599997,-33.372629],[-70.600254,-33.372634],[-70.600539,-33.372687],[-70.600791,-33.372705],[-70.600992,-33.372775],[-70.601098,-33.372846]]}},{"type":"Feature","properties":{"intermittent":"yes","waterway":"stream","osm":"way/952811199"},"geometry":{"type":"LineString","coordinates":[[-70.601188,-33.372907],[-70.601386,-33.372958],[-70.601507,-33.373003],[-70.601625,-33.373084],[-70.601735,-33.373182],[-70.601832,-33.373216],[-70.601925,-33.373294],[-70.601947,-33.373379],[-70.601992,-33.373465],[-70.602124,-33.373525],[-70.602339,-33.373579],[-70.60262,-33.373574],[-70.60272,-33.373604]]}},{"type":"Feature","properties":{"intermittent":"yes","waterway":"stream","osm":"way/952811203"},"geometry":{"type":"LineString","coordinates":[[-70.601713,-33.374649],[-70.602083,-33.37449],[-70.602603,-33.3743],[-70.602785,-33.374253],[-70.602946,-33.374248]]}},{"type":"Feature","properties":{"intermittent":"yes","waterway":"stream","osm":"way/952811221"},"geometry":{"type":"LineString","coordinates":[[-70.600893,-33.363662],[-70.600744,-33.364055],[-70.600453,-33.364509],[-70.600287,-33.364706],[-70.600276,-33.364854],[-70.600276,-33.365109],[-70.60026,-33.365293],[-70.600153,-33.365481],[-70.600078,-33.365795],[-70.600019,-33.365965],[-70.599976,-33.366144],[-70.599777,-33.366637],[-70.599686,-33.36691],[-70.599595,-33.367152],[-70.599579,-33.367264],[-70.59952,-33.367327],[-70.599536,-33.36747],[-70.599472,-33.367573],[-70.59944,-33.367685],[-70.599391,-33.367936],[-70.599423,-33.368169],[-70.599375,-33.368415],[-70.599343,-33.36864],[-70.599343,-33.36881],[-70.599364,-33.368899],[-70.599329,-33.369032]]}},{"type":"Feature","properties":{"intermittent":"yes","waterway":"stream","osm":"way/952811248"},"geometry":{"type":"LineString","coordinates":[[-70.599778,-33.370624],[-70.599819,-33.37073],[-70.59997,-33.370918],[-70.59998,-33.371021],[-70.600013,-33.371064],[-70.600096,-33.371116],[-70.600141,-33.371154],[-70.600171,-33.371207],[-70.600294,-33.371317]]}},{"type":"Feature","properties":{"waterway":"ditch","osm":"way/1002690508"},"geometry":{"type":"LineString","coordinates":[[-70.611274,-33.377877],[-70.611561,-33.377904]]}},{"type":"Feature","properties":{"intermittent":"no","name":"Canal El Carmen","waterway":"canal","osm":"way/1087351492"},"geometry":{"type":"LineString","coordinates":[[-70.603962,-33.388698],[-70.603947,-33.388614],[-70.603894,-33.388504],[-70.603738,-33.388432],[-70.603582,-33.388343],[-70.603498,-33.388198],[-70.603359,-33.387481],[-70.603359,-33.387051],[-70.603391,-33.386944],[-70.603472,-33.386885],[-70.603605,-33.386832]]}},{"type":"Feature","properties":{"intermittent":"no","name":"Canal El Carmen","waterway":"canal","osm":"way/1136471138"},"geometry":{"type":"LineString","coordinates":[[-70.611057,-33.377965],[-70.611274,-33.377877],[-70.61151,-33.377639],[-70.611794,-33.37731],[-70.612112,-33.377041]]}},{"type":"Feature","properties":{"intermittent":"no","waterway":"ditch","osm":"way/1187981330"},"geometry":{"type":"LineString","coordinates":[[-70.631101,-33.421086],[-70.630874,-33.420643],[-70.630766,-33.420385],[-70.630418,-33.419817]]}},{"type":"Feature","properties":{"intermittent":"no","natural":"water","osm":"way/1187987229"},"geometry":{"type":"Polygon","coordinates":[[[-70.634264,-33.41986],[-70.634093,-33.419849],[-70.634084,-33.419945],[-70.634255,-33.419956],[-70.634264,-33.41986]]]}},{"type":"Feature","properties":{"intermittent":"no","waterway":"ditch","osm":"way/1254777915"},"geometry":{"type":"LineString","coordinates":[[-70.605929,-33.380771],[-70.605651,-33.380473],[-70.605306,-33.380252],[-70.605149,-33.380074],[-70.605007,-33.379693],[-70.604992,-33.379454],[-70.604964,-33.379225],[-70.604838,-33.379009],[-70.604727,-33.378919],[-70.60441,-33.378772],[-70.603692,-33.37859],[-70.60322,-33.378487],[-70.603211,-33.378438],[-70.603307,-33.378353],[-70.603732,-33.378196],[-70.603904,-33.378049],[-70.604274,-33.377874],[-70.605325,-33.377182],[-70.60547,-33.37692],[-70.605639,-33.376866],[-70.605825,-33.376754]]}},{"type":"Feature","properties":{"intermittent":"no","waterway":"ditch","osm":"way/1254777916"},"geometry":{"type":"LineString","coordinates":[[-70.605878,-33.375884],[-70.60598,-33.37587],[-70.606079,-33.375843],[-70.606146,-33.375872],[-70.606178,-33.375877],[-70.606216,-33.375919],[-70.606283,-33.375971],[-70.606345,-33.376005],[-70.606404,-33.376016]]}},{"type":"Feature","properties":{"intermittent":"yes","name":"Quebrada Onda","waterway":"stream","osm":"way/1254777950"},"geometry":{"type":"LineString","coordinates":[[-70.606634,-33.372968],[-70.606748,-33.373078],[-70.606883,-33.373148],[-70.607024,-33.373238],[-70.607172,-33.37332],[-70.607264,-33.373426],[-70.607416,-33.37365],[-70.607487,-33.373733],[-70.607605,-33.373787],[-70.607744,-33.373876],[-70.607804,-33.373937],[-70.60791,-33.373997],[-70.608036,-33.374019],[-70.608216,-33.374037],[-70.608465,-33.374302],[-70.60856,-33.374354]]}},{"type":"Feature","properties":{"intermittent":"yes","waterway":"stream","osm":"way/1256418185"},"geometry":{"type":"LineString","coordinates":[[-70.605839,-33.375912],[-70.606262,-33.376144],[-70.606756,-33.376462],[-70.607185,-33.376726],[-70.607983,-33.377136],[-70.608019,-33.377167]]}},{"type":"Feature","properties":{"intermittent":"yes","waterway":"stream","osm":"way/1256418186"},"geometry":{"type":"LineString","coordinates":[[-70.608019,-33.377167],[-70.608148,-33.377303],[-70.608162,-33.377566],[-70.608817,-33.378023],[-70.608977,-33.378146]]}},{"type":"Feature","properties":{"intermittent":"no","name":"Desarenador / Caseta","natural":"water","osm":"way/1256418188"},"geometry":{"type":"Polygon","coordinates":[[[-70.600478,-33.379571],[-70.600447,-33.379601],[-70.60066,-33.379756],[-70.600691,-33.379726],[-70.600478,-33.379571]]]}},{"type":"Feature","properties":{"waterway":"ditch","osm":"way/1256418190"},"geometry":{"type":"LineString","coordinates":[[-70.603353,-33.383455],[-70.603711,-33.383459],[-70.603801,-33.383333],[-70.604014,-33.383128],[-70.604205,-33.383027],[-70.604293,-33.382783],[-70.604348,-33.382572],[-70.604365,-33.382303],[-70.604359,-33.38211],[-70.60433,-33.382052],[-70.604172,-33.382009],[-70.604139,-33.381983],[-70.604139,-33.381958],[-70.604166,-33.381928],[-70.604387,-33.381762],[-70.604769,-33.381693],[-70.604897,-33.381483],[-70.605929,-33.380771]]}},{"type":"Feature","properties":{"intermittent":"no","name":"Canal Metropolitano","waterway":"ditch","osm":"way/1256418193"},"geometry":{"type":"MultiLineString","coordinates":[[[-70.600376,-33.379586],[-70.600456,-33.379505],[-70.600476,-33.37943],[-70.600425,-33.379288],[-70.600315,-33.379147],[-70.600277,-33.378959],[-70.600076,-33.378605],[-70.599972,-33.37811],[-70.600007,-33.377931],[-70.60009,-33.377814],[-70.600192,-33.377729],[-70.600661,-33.377609],[-70.600886,-33.37728],[-70.60116,-33.376808],[-70.601466,-33.376691],[-70.601879,-33.376637],[-70.602404,-33.376422],[-70.602525,-33.376363]],[[-70.602839,-33.37621],[-70.60296,-33.376151],[-70.603029,-33.375957],[-70.602973,-33.375865],[-70.602963,-33.375862]]]}},{"type":"Feature","properties":{"intermittent":"no","waterway":"ditch","osm":"way/1256418202"},"geometry":{"type":"LineString","coordinates":[[-70.605893,-33.376683],[-70.606024,-33.376544],[-70.606046,-33.376472],[-70.606012,-33.376272],[-70.605948,-33.376122],[-70.605808,-33.376004],[-70.605774,-33.375959],[-70.605776,-33.375924],[-70.605878,-33.375884]]}},{"type":"Feature","properties":{"name":"Canal Metropolitano","waterway":"ditch","osm":"way/1313630787"},"geometry":{"type":"LineString","coordinates":[[-70.606171,-33.371643],[-70.60624,-33.371618],[-70.606278,-33.371618],[-70.606325,-33.371632],[-70.606384,-33.371663],[-70.606492,-33.371743],[-70.606612,-33.371803],[-70.606781,-33.371856],[-70.606963,-33.371832]]}},{"type":"Feature","properties":{"intermittent":"no","name":"Canal Metropolitano","waterway":"ditch","osm":"way/1313630788"},"geometry":{"type":"LineString","coordinates":[[-70.604282,-33.372834],[-70.604404,-33.372878],[-70.604543,-33.372896],[-70.604656,-33.372891],[-70.604769,-33.37281],[-70.604887,-33.372649],[-70.605015,-33.372578],[-70.605332,-33.372501],[-70.605809,-33.372246],[-70.606164,-33.371948],[-70.606265,-33.371832],[-70.60624,-33.37173],[-70.606171,-33.371643]]}},{"type":"Feature","properties":{"name":"Canal Metropolitano","waterway":"ditch","osm":"way/1313630789"},"geometry":{"type":"LineString","coordinates":[[-70.606963,-33.371832],[-70.607444,-33.371609],[-70.608199,-33.371301],[-70.60862,-33.371389]]}},{"type":"Feature","properties":{"name":"Canal Metropolitano","waterway":"ditch","osm":"way/1313630790"},"geometry":{"type":"LineString","coordinates":[[-70.60862,-33.371389],[-70.60883,-33.371484],[-70.608865,-33.371489],[-70.60892,-33.371463],[-70.609087,-33.371309],[-70.609127,-33.371259]]}},{"type":"Feature","properties":{"intermittent":"no","waterway":"ditch","osm":"way/1313630810"},"geometry":{"type":"LineString","coordinates":[[-70.608152,-33.375771],[-70.608246,-33.375704],[-70.608305,-33.375643],[-70.608552,-33.375272],[-70.60882,-33.374972],[-70.608966,-33.374925],[-70.60918,-33.374982],[-70.609225,-33.374985]]}},{"type":"Feature","properties":{"intermittent":"yes","name":"Quebrada Onda","waterway":"stream","osm":"way/1313630811"},"geometry":{"type":"LineString","coordinates":[[-70.608667,-33.374397],[-70.608983,-33.374562],[-70.60932,-33.37469],[-70.609379,-33.374786],[-70.609538,-33.374864],[-70.609777,-33.375026],[-70.609761,-33.375147],[-70.609856,-33.37525],[-70.610016,-33.375476],[-70.610085,-33.375594],[-70.610111,-33.375759],[-70.610248,-33.37593],[-70.610605,-33.37604],[-70.610974,-33.376092],[-70.61108,-33.37623],[-70.611078,-33.376469],[-70.611057,-33.376618],[-70.611123,-33.376736],[-70.61122,-33.376837],[-70.611439,-33.377018],[-70.611898,-33.377222]]}},{"type":"Feature","properties":{"intermittent":"yes","waterway":"drain","osm":"way/1322054561"},"geometry":{"type":"LineString","coordinates":[[-70.603353,-33.383455],[-70.603393,-33.383517],[-70.603401,-33.38355],[-70.603401,-33.383611],[-70.603306,-33.383908]]}},{"type":"Feature","properties":{"intermittent":"no","waterway":"ditch","osm":"way/1322054562"},"geometry":{"type":"MultiLineString","coordinates":[[[-70.600376,-33.379586],[-70.600525,-33.379661],[-70.600741,-33.379937],[-70.600972,-33.380054],[-70.601227,-33.380421],[-70.6015,-33.380739],[-70.601838,-33.380936],[-70.602139,-33.381283],[-70.602552,-33.381523],[-70.60276,-33.38176]],[[-70.603108,-33.382781],[-70.603184,-33.382894],[-70.603213,-33.383156],[-70.603268,-33.383324],[-70.603353,-33.383455]]]}},{"type":"Feature","properties":{"intermittent":"no","name":"Canal Metropolitano","waterway":"ditch","osm":"way/1322054570"},"geometry":{"type":"LineString","coordinates":[[-70.60158,-33.372422],[-70.601915,-33.372423],[-70.602005,-33.37248],[-70.602316,-33.372527],[-70.602402,-33.372619],[-70.603027,-33.372581],[-70.603349,-33.372585],[-70.603534,-33.372657],[-70.603625,-33.372729],[-70.603979,-33.372718],[-70.604161,-33.372774],[-70.604282,-33.372834],[-70.604241,-33.372888]]}},{"type":"Feature","properties":{"intermittent":"no","name":"Canal Metropolitano","waterway":"ditch","osm":"way/1322054571"},"geometry":{"type":"LineString","coordinates":[[-70.601315,-33.372749],[-70.601243,-33.372693],[-70.601238,-33.372574]]}},{"type":"Feature","properties":{"intermittent":"no","name":"Canal Metropolitano","waterway":"ditch","osm":"way/1322054572"},"geometry":{"type":"LineString","coordinates":[[-70.601238,-33.372574],[-70.601299,-33.372508],[-70.601452,-33.372564],[-70.60148,-33.372562],[-70.601499,-33.372541],[-70.601468,-33.372484]]}},{"type":"Feature","properties":{"natural":"water","osm":"way/1338138562"},"geometry":{"type":"Polygon","coordinates":[[[-70.609924,-33.375942],[-70.609899,-33.375979],[-70.60997,-33.376013],[-70.609995,-33.375976],[-70.609924,-33.375942]]]}},{"type":"Feature","properties":{"intermittent":"no","name":"Quebrada Valdiviana","waterway":"ditch","osm":"way/1338138565"},"geometry":{"type":"LineString","coordinates":[[-70.610432,-33.376419],[-70.61053,-33.37665],[-70.610634,-33.376742],[-70.610641,-33.376848],[-70.610573,-33.376989],[-70.610564,-33.377043],[-70.61064,-33.377097],[-70.61081,-33.377092],[-70.611026,-33.377117],[-70.611264,-33.377192],[-70.611794,-33.37731]]}},{"type":"Feature","properties":{"waterway":"ditch","osm":"way/1338138572"},"geometry":{"type":"LineString","coordinates":[[-70.609015,-33.374539],[-70.609395,-33.37459],[-70.609517,-33.3746],[-70.609584,-33.374595],[-70.609662,-33.374543],[-70.609712,-33.374458],[-70.609773,-33.374267],[-70.609814,-33.374073]]}},{"type":"Feature","properties":{"waterway":"ditch","osm":"way/1338138575"},"geometry":{"type":"LineString","coordinates":[[-70.608966,-33.374925],[-70.609026,-33.374814],[-70.609025,-33.374741],[-70.608987,-33.374693],[-70.608969,-33.374635],[-70.608968,-33.37459]]}},{"type":"Feature","properties":{"waterway":"ditch","osm":"way/1413936039"},"geometry":{"type":"LineString","coordinates":[[-70.613834,-33.415082],[-70.613748,-33.415172],[-70.61373,-33.415181],[-70.613202,-33.415305],[-70.613218,-33.415385]]}}],"properties":{"fuente":"© colaboradores de OpenStreetMap (ODbL)","capa":"agua"}}